{"type":"FeatureCollection","features": [
  {
    "type": "Feature",
    "id": "way/148579309",
    "properties": {
      "building": "apartments",
      "building:flats": "30",
      "building:levels": "4",
      "owner": "Société coopérative d'habitations Le Chêne",
      "owner:short": "SCH Le Chêne",
      "owner:type": "cooperative",
      "owner:wikidata": "Q131310187",
      "start_date": "1972",
      "addr": [
        {
          "addr:city": "Gland",
          "addr:postcode": "1196",
          "addr:street": "Route de Begnins",
          "addr:housenumber": "11a"
        },
        {
          "addr:city": "Gland",
          "addr:postcode": "1196",
          "addr:street": "Route de Begnins",
          "addr:housenumber": "11b"
        },
        {
          "addr:city": "Gland",
          "addr:postcode": "1196",
          "addr:street": "Route de Begnins",
          "addr:housenumber": "11c"
        }
      ],
      "id": "way/148579309",
      "start_date_parsed": "1972-01-01T00:00:00.000Z",
      "owner:website": "https://schlechene.ch",
      "owner:swiss_business_uid": "CHE-100.072.537"
    },
    "geometry": {
      "type": "Polygon",
      "coordinates": [
        [
          [
            6.2657485,
            46.4199781
          ],
          [
            6.2656215,
            46.4198737
          ],
          [
            6.2661671,
            46.4195585
          ],
          [
            6.2662448,
            46.4196225
          ],
          [
            6.266261,
            46.4196131
          ],
          [
            6.2663103,
            46.4196537
          ],
          [
            6.2657485,
            46.4199781
          ]
        ]
      ]
    }
  },
  {
    "type": "Feature",
    "id": "way/218641077",
    "properties": {
      "addr:city": "Nyon",
      "addr:country": "CH",
      "addr:housenumber": "2",
      "addr:postcode": "1260",
      "addr:street": "Route des Tattes d'Oie",
      "building": "apartments",
      "building:flats": "6",
      "owner": "Société coopérative d'habitations Le Chêne",
      "owner:short": "SCH Le Chêne",
      "owner:type": "cooperative",
      "owner:wikidata": "Q131310187",
      "source": "Orthophoto Ville de Nyon 2010",
      "start_date": "1954",
      "id": "way/218641077",
      "start_date_parsed": "1954-01-01T00:00:00.000Z",
      "owner:website": "https://schlechene.ch",
      "owner:swiss_business_uid": "CHE-100.072.537"
    },
    "geometry": {
      "type": "Polygon",
      "coordinates": [
        [
          [
            6.2267364,
            46.3872109
          ],
          [
            6.2268286,
            46.3871415
          ],
          [
            6.2270537,
            46.3872838
          ],
          [
            6.2269615,
            46.3873532
          ],
          [
            6.2267364,
            46.3872109
          ]
        ]
      ]
    }
  },
  {
    "type": "Feature",
    "id": "way/218641080",
    "properties": {
      "addr:city": "Nyon",
      "addr:country": "CH",
      "addr:housenumber": "4",
      "addr:postcode": "1260",
      "addr:street": "Route des Tattes d'Oie",
      "building": "apartments",
      "building:flats": "6",
      "owner": "Société coopérative d'habitations Le Chêne",
      "owner:short": "SCH Le Chêne",
      "owner:type": "cooperative",
      "owner:wikidata": "Q131310187",
      "source": "Orthophoto Ville de Nyon 2010",
      "start_date": "1954",
      "id": "way/218641080",
      "start_date_parsed": "1954-01-01T00:00:00.000Z",
      "owner:website": "https://schlechene.ch",
      "owner:swiss_business_uid": "CHE-100.072.537"
    },
    "geometry": {
      "type": "Polygon",
      "coordinates": [
        [
          [
            6.2263693,
            46.3869796
          ],
          [
            6.2264615,
            46.3869102
          ],
          [
            6.2266866,
            46.3870525
          ],
          [
            6.2265943,
            46.3871219
          ],
          [
            6.2263693,
            46.3869796
          ]
        ]
      ]
    }
  },
  {
    "type": "Feature",
    "id": "way/218641811",
    "properties": {
      "addr:city": "Nyon",
      "addr:country": "CH",
      "addr:housenumber": "12",
      "addr:postcode": "1260",
      "addr:street": "Chemin du Couchant",
      "building": "apartments",
      "building:flats": "8",
      "owner": "Société coopérative d'habitations Le Chêne",
      "owner:short": "SCH Le Chêne",
      "owner:type": "cooperative",
      "owner:wikidata": "Q131310187",
      "source": "Orthophoto Ville de Nyon 2010",
      "start_date": "1957",
      "id": "way/218641811",
      "start_date_parsed": "1957-01-01T00:00:00.000Z",
      "owner:website": "https://schlechene.ch",
      "owner:swiss_business_uid": "CHE-100.072.537"
    },
    "geometry": {
      "type": "Polygon",
      "coordinates": [
        [
          [
            6.2272939,
            46.386099
          ],
          [
            6.2272028,
            46.3860299
          ],
          [
            6.2274154,
            46.3858966
          ],
          [
            6.2275065,
            46.3859657
          ],
          [
            6.2272939,
            46.386099
          ]
        ]
      ]
    }
  },
  {
    "type": "Feature",
    "id": "way/252462469",
    "properties": {
      "building": "apartments",
      "building:flats": "16",
      "owner": "Société coopérative d'habitations Le Chêne",
      "owner:short": "SCH Le Chêne",
      "owner:type": "cooperative",
      "owner:wikidata": "Q131310187",
      "source": "Orthophoto Ville de Nyon 2010",
      "start_date": "1959",
      "addr": [
        {
          "addr:city": "Nyon",
          "addr:postcode": "1260",
          "addr:street": "Chemin des Pâquerettes",
          "addr:housenumber": "2"
        },
        {
          "addr:city": "Nyon",
          "addr:postcode": "1260",
          "addr:street": "Chemin des Pâquerettes",
          "addr:housenumber": "2bis"
        }
      ],
      "id": "way/252462469",
      "start_date_parsed": "1959-01-01T00:00:00.000Z",
      "owner:website": "https://schlechene.ch",
      "owner:swiss_business_uid": "CHE-100.072.537"
    },
    "geometry": {
      "type": "Polygon",
      "coordinates": [
        [
          [
            6.2306835,
            46.3929666
          ],
          [
            6.2303509,
            46.3926982
          ],
          [
            6.2304491,
            46.3926403
          ],
          [
            6.2307818,
            46.3929087
          ],
          [
            6.2306835,
            46.3929666
          ]
        ]
      ]
    }
  },
  {
    "type": "Feature",
    "id": "way/252462480",
    "properties": {
      "building": "apartments",
      "building:flats": "49",
      "owner": "Société coopérative d'habitations Le Chêne",
      "owner:short": "SCH Le Chêne",
      "owner:type": "cooperative",
      "owner:wikidata": "Q131310187",
      "source": "Orthophoto Ville de Nyon 2010",
      "start_date": "1973",
      "addr": [
        {
          "addr:city": "Nyon",
          "addr:postcode": "1260",
          "addr:street": "Chemin de Bourgogne",
          "addr:housenumber": "11"
        },
        {
          "addr:city": "Nyon",
          "addr:postcode": "1260",
          "addr:street": "Chemin de Bourgogne",
          "addr:housenumber": "9"
        },
        {
          "addr:city": "Nyon",
          "addr:postcode": "1260",
          "addr:street": "Chemin de Bourgogne",
          "addr:housenumber": "7"
        }
      ],
      "id": "way/252462480",
      "start_date_parsed": "1973-01-01T00:00:00.000Z",
      "owner:website": "https://schlechene.ch",
      "owner:swiss_business_uid": "CHE-100.072.537"
    },
    "geometry": {
      "type": "Polygon",
      "coordinates": [
        [
          [
            6.2298923,
            46.3914976
          ],
          [
            6.229974,
            46.3915628
          ],
          [
            6.2299923,
            46.3915519
          ],
          [
            6.2300479,
            46.3915963
          ],
          [
            6.2295137,
            46.3919147
          ],
          [
            6.2293764,
            46.3918051
          ],
          [
            6.2298923,
            46.3914976
          ]
        ]
      ]
    }
  },
  {
    "type": "Feature",
    "id": "way/260486233",
    "properties": {
      "building": "apartments",
      "building:flats": "36",
      "building:levels": "6",
      "owner": "Société coopérative d'habitations Le Chêne",
      "owner:short": "SCH Le Chêne",
      "owner:type": "cooperative",
      "owner:wikidata": "Q131310187",
      "start_date": "1967",
      "addr": [
        {
          "addr:city": "Nyon",
          "addr:postcode": "1260",
          "addr:street": "Avenue des Eules",
          "addr:housenumber": "2"
        },
        {
          "addr:city": "Nyon",
          "addr:postcode": "1260",
          "addr:street": "Avenue des Eules",
          "addr:housenumber": "4"
        },
        {
          "addr:city": "Nyon",
          "addr:postcode": "1260",
          "addr:street": "Avenue des Eules",
          "addr:housenumber": "6"
        }
      ],
      "id": "way/260486233",
      "start_date_parsed": "1967-01-01T00:00:00.000Z",
      "owner:website": "https://schlechene.ch",
      "owner:swiss_business_uid": "CHE-100.072.537"
    },
    "geometry": {
      "type": "Polygon",
      "coordinates": [
        [
          [
            6.230485,
            46.3897242
          ],
          [
            6.230604,
            46.3896332
          ],
          [
            6.2311066,
            46.3899458
          ],
          [
            6.2309877,
            46.3900368
          ],
          [
            6.230485,
            46.3897242
          ]
        ]
      ]
    }
  },
  {
    "type": "Feature",
    "id": "way/270053353",
    "properties": {
      "building": "apartments",
      "building:flats": "25",
      "owner": "Société coopérative d'habitations Le Chêne",
      "owner:short": "SCH Le Chêne",
      "owner:type": "cooperative",
      "owner:wikidata": "Q131310187",
      "source": "Orthophoto Ville de Nyon 2010",
      "start_date": "1976",
      "addr": [
        {
          "addr:city": "Nyon",
          "addr:postcode": "1260",
          "addr:street": "Chemin de Bonmont",
          "addr:housenumber": "19"
        },
        {
          "addr:city": "Nyon",
          "addr:postcode": "1260",
          "addr:street": "Chemin de Bonmont",
          "addr:housenumber": "17"
        }
      ],
      "id": "way/270053353",
      "start_date_parsed": "1976-01-01T00:00:00.000Z",
      "owner:website": "https://schlechene.ch",
      "owner:swiss_business_uid": "CHE-100.072.537"
    },
    "geometry": {
      "type": "Polygon",
      "coordinates": [
        [
          [
            6.2275269,
            46.3848114
          ],
          [
            6.2274048,
            46.3847158
          ],
          [
            6.2277093,
            46.3845305
          ],
          [
            6.2278086,
            46.3846082
          ],
          [
            6.2278315,
            46.384626
          ],
          [
            6.2275269,
            46.3848114
          ]
        ]
      ]
    }
  },
  {
    "type": "Feature",
    "id": "way/270053356",
    "properties": {
      "building": "apartments",
      "building:flats": "25",
      "owner": "Société coopérative d'habitations Le Chêne",
      "owner:short": "SCH Le Chêne",
      "owner:type": "cooperative",
      "owner:wikidata": "Q131310187",
      "source": "Orthophoto Ville de Nyon 2010",
      "start_date": "1976",
      "addr": [
        {
          "addr:city": "Nyon",
          "addr:postcode": "1260",
          "addr:street": "Chemin de Bonmont",
          "addr:housenumber": "23"
        },
        {
          "addr:city": "Nyon",
          "addr:postcode": "1260",
          "addr:street": "Chemin de Bonmont",
          "addr:housenumber": "21"
        }
      ],
      "id": "way/270053356",
      "start_date_parsed": "1976-01-01T00:00:00.000Z",
      "owner:website": "https://schlechene.ch",
      "owner:swiss_business_uid": "CHE-100.072.537"
    },
    "geometry": {
      "type": "Polygon",
      "coordinates": [
        [
          [
            6.2278086,
            46.3846082
          ],
          [
            6.2277093,
            46.3845305
          ],
          [
            6.2276806,
            46.3845072
          ],
          [
            6.2279915,
            46.3843265
          ],
          [
            6.2280136,
            46.3843446
          ],
          [
            6.2280378,
            46.3843305
          ],
          [
            6.2280855,
            46.3843696
          ],
          [
            6.2281063,
            46.3843576
          ],
          [
            6.2281618,
            46.384403
          ],
          [
            6.2278086,
            46.3846082
          ]
        ]
      ]
    }
  },
  {
    "type": "Feature",
    "id": "way/288556935",
    "properties": {
      "addr:city": "Gland",
      "addr:housenumber": "6",
      "addr:postcode": "1196",
      "addr:street": "Chemin de la Chavanne",
      "building": "apartments",
      "building:flats": "6",
      "building:levels": "3",
      "owner": "Société coopérative d'habitations Le Chêne",
      "owner:short": "SCH Le Chêne",
      "owner:type": "cooperative",
      "owner:wikidata": "Q131310187",
      "start_date": "1951",
      "id": "way/288556935",
      "start_date_parsed": "1951-01-01T00:00:00.000Z",
      "owner:website": "https://schlechene.ch",
      "owner:swiss_business_uid": "CHE-100.072.537"
    },
    "geometry": {
      "type": "Polygon",
      "coordinates": [
        [
          [
            6.2724639,
            46.4208854
          ],
          [
            6.2725254,
            46.4208061
          ],
          [
            6.272777,
            46.4208988
          ],
          [
            6.2727155,
            46.4209781
          ],
          [
            6.2724639,
            46.4208854
          ]
        ]
      ]
    }
  },
  {
    "type": "Feature",
    "id": "way/288556936",
    "properties": {
      "addr:city": "Gland",
      "addr:housenumber": "8",
      "addr:postcode": "1196",
      "addr:street": "Chemin de la Chavanne",
      "building": "apartments",
      "building:flats": "6",
      "building:levels": "3",
      "owner": "Société coopérative d'habitations Le Chêne",
      "owner:short": "SCH Le Chêne",
      "owner:type": "cooperative",
      "owner:wikidata": "Q131310187",
      "start_date": "1951",
      "id": "way/288556936",
      "start_date_parsed": "1951-01-01T00:00:00.000Z",
      "owner:website": "https://schlechene.ch",
      "owner:swiss_business_uid": "CHE-100.072.537"
    },
    "geometry": {
      "type": "Polygon",
      "coordinates": [
        [
          [
            6.2728848,
            46.4210453
          ],
          [
            6.272944,
            46.4209682
          ],
          [
            6.2732059,
            46.4210637
          ],
          [
            6.2731468,
            46.4211408
          ],
          [
            6.2728848,
            46.4210453
          ]
        ]
      ]
    }
  },
  {
    "type": "Feature",
    "id": "way/288574627",
    "properties": {
      "addr:city": "Gland",
      "addr:housenumber": "8",
      "addr:postcode": "1196",
      "addr:street": "Chemin des Oiseaux",
      "building": "apartments",
      "building:flats": "6",
      "building:levels": "3",
      "owner": "Société coopérative d'habitations Le Chêne",
      "owner:short": "SCH Le Chêne",
      "owner:type": "cooperative",
      "owner:wikidata": "Q131310187",
      "start_date": "1957",
      "id": "way/288574627",
      "start_date_parsed": "1957-01-01T00:00:00.000Z",
      "owner:website": "https://schlechene.ch",
      "owner:swiss_business_uid": "CHE-100.072.537"
    },
    "geometry": {
      "type": "Polygon",
      "coordinates": [
        [
          [
            6.2709213,
            46.4193527
          ],
          [
            6.2706693,
            46.4193021
          ],
          [
            6.2707023,
            46.4192238
          ],
          [
            6.2709544,
            46.4192744
          ],
          [
            6.2709213,
            46.4193527
          ]
        ]
      ]
    }
  },
  {
    "type": "Feature",
    "id": "way/387924126",
    "properties": {
      "building": "apartments",
      "building:flats": "19",
      "owner": "Société coopérative d'habitations Le Chêne",
      "owner:short": "SCH Le Chêne",
      "owner:type": "cooperative",
      "owner:wikidata": "Q131310187",
      "start_date": "1967",
      "addr": [
        {
          "addr:city": "Rolle",
          "addr:postcode": "1180",
          "addr:street": "Avenue du Général Guisan",
          "addr:housenumber": "56"
        },
        {
          "addr:city": "Rolle",
          "addr:postcode": "1180",
          "addr:street": "Avenue du Général Guisan",
          "addr:housenumber": "54"
        }
      ],
      "id": "way/387924126",
      "start_date_parsed": "1967-01-01T00:00:00.000Z",
      "owner:website": "https://schlechene.ch",
      "owner:swiss_business_uid": "CHE-100.072.537"
    },
    "geometry": {
      "type": "Polygon",
      "coordinates": [
        [
          [
            6.3305352,
            46.4581114
          ],
          [
            6.3309239,
            46.4579418
          ],
          [
            6.3310312,
            46.4580585
          ],
          [
            6.3306425,
            46.4582281
          ],
          [
            6.3305352,
            46.4581114
          ]
        ]
      ]
    }
  },
  {
    "type": "Feature",
    "id": "way/588732656",
    "properties": {
      "addr:city": "Coppet",
      "addr:housenumber": "8",
      "addr:postcode": "1296",
      "addr:street": "Route de Founex",
      "building": "apartments",
      "building:levels": "3",
      "owner": "Société coopérative d'habitations Le Chêne",
      "owner:abbr": "SCH Le Chêne",
      "owner:type": "cooperative",
      "owner:wikidata": "Q131310187",
      "start_date": "1959",
      "id": "way/588732656",
      "start_date_parsed": "1959-01-01T00:00:00.000Z",
      "owner:website": "https://schlechene.ch",
      "owner:swiss_business_uid": "CHE-100.072.537"
    },
    "geometry": {
      "type": "Polygon",
      "coordinates": [
        [
          [
            6.1878725,
            46.3204696
          ],
          [
            6.1877781,
            46.32027
          ],
          [
            6.1879118,
            46.3202398
          ],
          [
            6.1880063,
            46.3204394
          ],
          [
            6.1878725,
            46.3204696
          ]
        ]
      ]
    }
  }
]}