{"type":"FeatureCollection","features": [{"type":"Feature","id":"way/78409223","properties":{"building":"apartments","building:flats":"158","building:levels":"12","owner":"Société Coopérative d’Habitation des Cheminots de Genève","owner:abbr":"CHCG","owner:type":"cooperative","owner:wikidata":"Q133284185","roof:levels":"0","roof:shape":"flat","start_date":"1975-01-01T00:00:00.000Z","addr":[{"addr:city":"Châtelaine","addr:postcode":"1219","addr:street":"Avenue de l'Etang","addr:housenumber":"64"},{"addr:city":"Châtelaine","addr:postcode":"1219","addr:street":"Avenue de l'Etang","addr:housenumber":"66"},{"addr:city":"Châtelaine","addr:postcode":"1219","addr:street":"Avenue de l'Etang","addr:housenumber":"68"},{"addr:city":"Châtelaine","addr:postcode":"1219","addr:street":"Avenue de l'Etang","addr:housenumber":"70"}],"id":"way/78409223","owner:website":"https://chcg-ge.ch/","owner:swiss_business_uid":"CHE-106.000.393"},"geometry":{"type":"Polygon","coordinates":[[[6.1049852,46.2190364],[6.1049575,46.2190438],[6.1048534,46.2188555],[6.1050503,46.2188031],[6.1050675,46.2188341],[6.1050959,46.2188265],[6.1051829,46.2189838],[6.1052122,46.2189783],[6.105263,46.2190738],[6.1052914,46.2190665],[6.105345,46.2191672],[6.1053701,46.2191603],[6.1054164,46.2192449],[6.1054425,46.2192367],[6.1054954,46.2193323],[6.1055224,46.2193242],[6.1055715,46.2194139],[6.1053479,46.2194755],[6.1053301,46.2194435],[6.1053002,46.2194508],[6.1052707,46.2193947],[6.1052179,46.219299],[6.1051925,46.2193051],[6.105146,46.2192183],[6.10512,46.219225],[6.1050661,46.2191238],[6.1050358,46.2191315],[6.1049852,46.2190364]]]}},{"type":"Feature","id":"way/187861311","properties":{"building":"apartments","building:flats":"132","building:levels":"14","last_renovation":null,"owner":"Société Coopérative d’Habitation des Cheminots de Genève","owner:abbr":"CHCG","owner:type":"cooperative","owner:wikidata":"Q133284185","start_date":"1963-01-01T00:00:00.000Z","addr":[{"addr:city":"Genève","addr:postcode":"1203","addr:street":"Avenue Ernest-Pictet","addr:housenumber":"32"},{"addr:city":"Genève","addr:postcode":"1203","addr:street":"Avenue Ernest-Pictet","addr:housenumber":"34"}],"id":"way/187861311","owner:website":"https://chcg-ge.ch/","owner:swiss_business_uid":"CHE-106.000.393"},"geometry":{"type":"Polygon","coordinates":[[[6.1245039,46.2133788],[6.124448,46.2134028],[6.1244553,46.2134123],[6.124396,46.2134377],[6.124388,46.2134277],[6.1243295,46.2134522],[6.1241817,46.2132815],[6.1239483,46.2130151],[6.1241231,46.2129408],[6.1245039,46.2133788]]]}},{"type":"Feature","id":"way/192240300","properties":{"building":"apartments","building:flats":"149","building:levels":"9","last_renovation":"2008-01-01T00:00:00.000Z","owner":"Société Coopérative d’Habitation des Cheminots de Genève","owner:abbr":"CHCG","owner:type":"cooperative","owner:wikidata":"Q133284185","roof:levels":"0","roof:shape":"flat","start_date":"1965-01-01T00:00:00.000Z","addr":[{"addr:city":"Grand-Lancy","addr:postcode":"1212","addr:street":"Avenue Eugène-Lance","addr:housenumber":"64"},{"addr:city":"Grand-Lancy","addr:postcode":"1212","addr:street":"Avenue Eugène-Lance","addr:housenumber":"66"},{"addr:city":"Grand-Lancy","addr:postcode":"1212","addr:street":"Avenue Eugène-Lance","addr:housenumber":"68"},{"addr:city":"Grand-Lancy","addr:postcode":"1212","addr:street":"Avenue Eugène-Lance","addr:housenumber":"70"},{"addr:city":"Grand-Lancy","addr:postcode":"1212","addr:street":"Avenue Eugène-Lance","addr:housenumber":"72"}],"id":"way/192240300","owner:website":"https://chcg-ge.ch/","owner:swiss_business_uid":"CHE-106.000.393"},"geometry":{"type":"Polygon","coordinates":[[[6.1260131,46.175036],[6.1258945,46.1749278],[6.126029,46.1748564],[6.1260361,46.1748629],[6.1260936,46.1748319],[6.1261505,46.1748017],[6.126144,46.1747954],[6.1262067,46.174761],[6.1262144,46.1747678],[6.1263288,46.1747066],[6.1263217,46.1747002],[6.1263844,46.1746676],[6.126392,46.1746739],[6.1265053,46.1746114],[6.1264976,46.174605],[6.1265597,46.174572],[6.1265673,46.1745783],[6.1266245,46.1745468],[6.1266787,46.1745183],[6.1266711,46.1745111],[6.1266407,46.1744502],[6.1267742,46.1744197],[6.1267982,46.1744429],[6.126808,46.1744372],[6.1269279,46.1745466],[6.1260131,46.175036]]]}}]}