{"type":"FeatureCollection","features": [
  {
    "type": "Feature",
    "id": "way/82234992",
    "properties": {
      "building": "apartments",
      "building:flats": "54",
      "owner": "Coopérative d'habitation Le Jet d'Eau",
      "owner:type": "cooperative",
      "owner:wikidata": "Q133459866",
      "addr": [
        {
          "addr:city": "Genève",
          "addr:postcode": "1209",
          "addr:street": "Chemin Docteur Adolphe-Pasteur",
          "addr:housenumber": "23"
        },
        {
          "addr:city": "Genève",
          "addr:postcode": "1209",
          "addr:street": "Chemin Docteur Adolphe-Pasteur",
          "addr:housenumber": "25"
        },
        {
          "addr:city": "Genève",
          "addr:postcode": "1209",
          "addr:street": "Chemin Docteur Adolphe-Pasteur",
          "addr:housenumber": "27"
        }
      ],
      "id": "way/82234992",
      "owner:website": "https://gchg.ch/membre/le-jet-deau/",
      "owner:start_date": "1976-01-01T00:00:00Z",
      "owner:swiss_business_uid": "CHE-100.292.412"
    },
    "geometry": {
      "type": "Polygon",
      "coordinates": [
        [
          [
            6.1268177,
            46.2218351
          ],
          [
            6.1267687,
            46.2218044
          ],
          [
            6.1266011,
            46.2219321
          ],
          [
            6.1264465,
            46.2218349
          ],
          [
            6.1266165,
            46.2217054
          ],
          [
            6.1266629,
            46.2217346
          ],
          [
            6.1267692,
            46.2216537
          ],
          [
            6.12676,
            46.2216478
          ],
          [
            6.1269931,
            46.2214701
          ],
          [
            6.1271595,
            46.2215746
          ],
          [
            6.127036,
            46.2216687
          ],
          [
            6.1268177,
            46.2218351
          ]
        ]
      ]
    }
  },
  {
    "type": "Feature",
    "id": "way/186972961",
    "properties": {
      "building": "apartments",
      "building:flats": "77",
      "owner": "Coopérative d'habitation Le Jet d'Eau",
      "owner:type": "cooperative",
      "owner:wikidata": "Q133459866",
      "addr": [
        {
          "addr:city": "Genève",
          "addr:postcode": "1202",
          "addr:street": "Rue Thomas-Masaryk",
          "addr:housenumber": "4"
        },
        {
          "addr:city": "Genève",
          "addr:postcode": "1202",
          "addr:street": "La Voie-Creuse",
          "addr:housenumber": "11"
        },
        {
          "addr:city": "Genève",
          "addr:postcode": "1202",
          "addr:street": "La Voie-Creuse",
          "addr:housenumber": "7"
        },
        {
          "addr:city": "Genève",
          "addr:postcode": "1202",
          "addr:street": "La Voie-Creuse",
          "addr:housenumber": "9"
        }
      ],
      "id": "way/186972961",
      "owner:website": "https://gchg.ch/membre/le-jet-deau/",
      "owner:start_date": "1976-01-01T00:00:00Z",
      "owner:swiss_business_uid": "CHE-100.292.412"
    },
    "geometry": {
      "type": "Polygon",
      "coordinates": [
        [
          [
            6.1422511,
            46.2193179
          ],
          [
            6.1422618,
            46.2191934
          ],
          [
            6.1425217,
            46.2192037
          ],
          [
            6.1425722,
            46.2192395
          ],
          [
            6.1425959,
            46.2196917
          ],
          [
            6.1424203,
            46.2196961
          ],
          [
            6.1424018,
            46.2194077
          ],
          [
            6.1423977,
            46.2193413
          ],
          [
            6.1423858,
            46.2193416
          ],
          [
            6.1423735,
            46.2193323
          ],
          [
            6.142375,
            46.2193223
          ],
          [
            6.1422511,
            46.2193179
          ]
        ]
      ]
    }
  },
  {
    "type": "Feature",
    "id": "way/186972977",
    "properties": {
      "building": "apartments",
      "building:flats": "69",
      "owner": "Coopérative d'habitation Le Jet d'Eau",
      "owner:type": "cooperative",
      "owner:wikidata": "Q133459866",
      "addr": [
        {
          "addr:city": "Genève",
          "addr:postcode": "1202",
          "addr:street": "La Voie-Creuse",
          "addr:housenumber": "13"
        },
        {
          "addr:city": "Genève",
          "addr:postcode": "1202",
          "addr:street": "La Voie-Creuse",
          "addr:housenumber": "15"
        },
        {
          "addr:city": "Genève",
          "addr:postcode": "1202",
          "addr:street": "La Voie-Creuse",
          "addr:housenumber": "17"
        },
        {
          "addr:city": "Genève",
          "addr:postcode": "1202",
          "addr:street": "La Voie-Creuse",
          "addr:housenumber": "19"
        }
      ],
      "id": "way/186972977",
      "owner:website": "https://gchg.ch/membre/le-jet-deau/",
      "owner:start_date": "1976-01-01T00:00:00Z",
      "owner:swiss_business_uid": "CHE-100.292.412"
    },
    "geometry": {
      "type": "Polygon",
      "coordinates": [
        [
          [
            6.1424826,
            46.2200241
          ],
          [
            6.1421609,
            46.2200808
          ],
          [
            6.1421079,
            46.2199369
          ],
          [
            6.1425722,
            46.2198551
          ],
          [
            6.1426251,
            46.2198741
          ],
          [
            6.142709,
            46.2201019
          ],
          [
            6.1427864,
            46.220312
          ],
          [
            6.1426007,
            46.2203448
          ],
          [
            6.1424826,
            46.2200241
          ]
        ]
      ]
    }
  },
  {
    "type": "Feature",
    "id": "way/1377164334",
    "properties": {
      "building:flats": "11",
      "building:part": "apartments",
      "owner": "Coopérative d'habitation Le Jet d'Eau",
      "owner:type": "cooperative",
      "owner:wikidata": "Q133459866",
      "addr": [
        {
          "addr:city": "Thônex",
          "addr:postcode": "1226",
          "addr:street": "Chemin Edouard-Olivet",
          "addr:housenumber": "8"
        }
      ],
      "id": "way/1377164334",
      "owner:website": "https://gchg.ch/membre/le-jet-deau/",
      "owner:start_date": "1976-01-01T00:00:00Z",
      "owner:swiss_business_uid": "CHE-100.292.412"
    },
    "geometry": {
      "type": "Polygon",
      "coordinates": [
        [
          [
            6.2025049,
            46.1895307
          ],
          [
            6.2023218,
            46.1895294
          ],
          [
            6.2023261,
            46.1893358
          ],
          [
            6.2025081,
            46.1893376
          ],
          [
            6.2025049,
            46.1895307
          ]
        ]
      ]
    }
  }
]}