{"type":"FeatureCollection","features": [{"type":"Feature","id":"way/97215659","properties":{"addr:city":"Clarens","addr:housenumber":"12","addr:postcode":"1815","addr:street":"Avenue du Châtelard","building":"apartments","building:flats":"30","last_renovation":"2017","owner":"Société Coopérative d'Habitation Montreux","owner:type":"cooperative","owner:wikidata":"Q133456739","start_date":"1975","id":"way/97215659","start_date_parsed":"1975-01-01T00:00:00.000Z","last_renovation_parsed":"2017-01-01T00:00:00.000Z","owner:website":"https://www.schamontreux.ch/","owner:start_date":"1932-01-01T00:00:00Z","owner:swiss_business_uid":"CHE-114.789.110"},"geometry":{"type":"Polygon","coordinates":[[[6.8953567,46.4445206],[6.895579,46.4446107],[6.8954268,46.4447888],[6.8952046,46.4446987],[6.8953567,46.4445206]]]}},{"type":"Feature","id":"way/97215663","properties":{"building":"apartments","building:flats":"30","last_renovation":"2011,2009,2021","owner":"Société Coopérative d'Habitation Montreux","owner:type":"cooperative","owner:wikidata":"Q133456739","start_date":"1934","addr":[{"addr:city":"Clarens","addr:postcode":"1815","addr:street":"Avenue des Brayères","addr:housenumber":"6a"},{"addr:city":"Clarens","addr:postcode":"1815","addr:street":"Avenue des Brayères","addr:housenumber":"6b"},{"addr:city":"Clarens","addr:postcode":"1815","addr:street":"Avenue des Brayères","addr:housenumber":"6c"}],"id":"way/97215663","start_date_parsed":"1934-01-01T00:00:00.000Z","last_renovation_parsed":null,"owner:website":"https://www.schamontreux.ch/","owner:start_date":"1932-01-01T00:00:00Z","owner:swiss_business_uid":"CHE-114.789.110"},"geometry":{"type":"Polygon","coordinates":[[[6.894967,46.4443521],[6.8949759,46.4442632],[6.8955884,46.4442924],[6.8955794,46.4443814],[6.894967,46.4443521]]]}},{"type":"Feature","id":"way/104979285","properties":{"building":"apartments","building:flats":"16","last_renovation":"2003,2017,2019","owner":"Société Coopérative d'Habitation Montreux","owner:type":"cooperative","owner:wikidata":"Q133456739","start_date":"1955","addr":[{"addr:city":"Montreux","addr:postcode":"1820","addr:street":"Rue de l'Ancien-Stand","addr:housenumber":"29"},{"addr:city":"Montreux","addr:postcode":"1820","addr:street":"Rue de l'Ancien-Stand","addr:housenumber":"31"}],"id":"way/104979285","start_date_parsed":"1955-01-01T00:00:00.000Z","last_renovation_parsed":null,"owner:website":"https://www.schamontreux.ch/","owner:start_date":"1932-01-01T00:00:00Z","owner:swiss_business_uid":"CHE-114.789.110"},"geometry":{"type":"Polygon","coordinates":[[[6.9122963,46.4381277],[6.91248,46.4378027],[6.9126022,46.4378356],[6.9124185,46.4381605],[6.9122963,46.4381277]]]}},{"type":"Feature","id":"way/237222119","properties":{"building":"apartments","building:flats":"27","last_renovation":"2001,2014,2024","owner":"Société Coopérative d'Habitation Montreux","owner:type":"cooperative","owner:wikidata":"Q133456739","start_date":"1969","addr":[{"addr:city":"Montreux","addr:postcode":"1820","addr:street":"Chemin du Taux","addr:housenumber":"3"},{"addr:city":"Montreux","addr:postcode":"1820","addr:street":"Chemin du Taux","addr:housenumber":"1"}],"id":"way/237222119","start_date_parsed":"1969-01-01T00:00:00.000Z","last_renovation_parsed":null,"owner:website":"https://www.schamontreux.ch/","owner:start_date":"1932-01-01T00:00:00Z","owner:swiss_business_uid":"CHE-114.789.110"},"geometry":{"type":"Polygon","coordinates":[[[6.9120296,46.4397247],[6.9120738,46.4396285],[6.912497,46.4397209],[6.9124528,46.4398171],[6.9120296,46.4397247]]]}},{"type":"Feature","id":"way/400288007","properties":{"building":"apartments","building:flats":"20","last_renovation":"2012","owner":"Société Coopérative d'Habitation Montreux","owner:type":"cooperative","owner:wikidata":"Q133456739","start_date":"1960","addr":[{"addr:city":"Territet","addr:postcode":"1820","addr:street":"Rue du Bocherex","addr:housenumber":"7"},{"addr:city":"Territet","addr:postcode":"1820","addr:street":"Rue du Bocherex","addr:housenumber":"5"}],"id":"way/400288007","start_date_parsed":"1960-01-01T00:00:00.000Z","last_renovation_parsed":"2012-01-01T00:00:00.000Z","owner:website":"https://www.schamontreux.ch/","owner:start_date":"1932-01-01T00:00:00Z","owner:swiss_business_uid":"CHE-114.789.110"},"geometry":{"type":"Polygon","coordinates":[[[6.9248117,46.4239381],[6.9247156,46.4236373],[6.9248713,46.4236137],[6.9249718,46.423916],[6.9248117,46.4239381]]]}},{"type":"Feature","id":"way/433229710","properties":{"building":"apartments","building:flats":"19","last_renovation":"2005,2017","owner":"Société Coopérative d'Habitation Montreux","owner:type":"cooperative","owner:wikidata":"Q133456739","start_date":"1955","addr":[{"addr:city":"Clarens","addr:postcode":"1815","addr:street":"Rue de Jaman","addr:housenumber":"5"},{"addr:city":"Clarens","addr:postcode":"1815","addr:street":"Rue de Jaman","addr:housenumber":"7"}],"id":"way/433229710","start_date_parsed":"1955-01-01T00:00:00.000Z","last_renovation_parsed":null,"owner:website":"https://www.schamontreux.ch/","owner:start_date":"1932-01-01T00:00:00Z","owner:swiss_business_uid":"CHE-114.789.110"},"geometry":{"type":"Polygon","coordinates":[[[6.8944131,46.4420335],[6.8943615,46.4420033],[6.894063,46.4418283],[6.8941431,46.4417634],[6.8944931,46.4419687],[6.8944131,46.4420335]]]}},{"type":"Feature","id":"way/567050288","properties":{"building":"apartments","building:flats":"31","last_renovation":"1995,2007","owner":"Société Coopérative d'Habitation Montreux","owner:type":"cooperative","owner:wikidata":"Q133456739","start_date":"1950","addr":[{"addr:city":"Montreux","addr:postcode":"1820","addr:street":"Avenue des Planches","addr:housenumber":"6a"},{"addr:city":"Montreux","addr:postcode":"1820","addr:street":"Avenue des Planches","addr:housenumber":"6b"},{"addr:city":"Montreux","addr:postcode":"1820","addr:street":"Avenue des Planches","addr:housenumber":"6c"},{"addr:city":"Montreux","addr:postcode":"1820","addr:street":"Avenue des Planches","addr:housenumber":"6d"}],"id":"way/567050288","start_date_parsed":"1950-01-01T00:00:00.000Z","last_renovation_parsed":null,"owner:website":"https://www.schamontreux.ch/","owner:start_date":"1932-01-01T00:00:00Z","owner:swiss_business_uid":"CHE-114.789.110"},"geometry":{"type":"Polygon","coordinates":[[[6.9159265,46.4325258],[6.9158058,46.4325704],[6.9154298,46.4320865],[6.9153901,46.4321012],[6.9153418,46.432039],[6.9155023,46.4319798],[6.9159265,46.4325258]]]}},{"type":"Feature","id":"way/789004364","properties":{"building":"apartments","building:flats":"22","owner":"Société Coopérative d'Habitation Montreux","owner:type":"cooperative","owner:wikidata":"Q133456739","start_date":"2019","addr":[{"addr:city":"Clarens","addr:postcode":"1815","addr:street":"Rue Gambetta","addr:housenumber":"41"},{"addr:city":"Clarens","addr:postcode":"1815","addr:street":"Rue Gambetta","addr:housenumber":"43"},{"addr:city":"Clarens","addr:postcode":"1815","addr:street":"Rue Gambetta","addr:housenumber":"39"}],"id":"way/789004364","start_date_parsed":"2019-01-01T00:00:00.000Z","owner:website":"https://www.schamontreux.ch/","owner:start_date":"1932-01-01T00:00:00Z","owner:swiss_business_uid":"CHE-114.789.110"},"geometry":{"type":"Polygon","coordinates":[[[6.8957476,46.4442266],[6.8959529,46.444238],[6.8962581,46.4443131],[6.8961433,46.4445496],[6.8961294,46.4446383],[6.8959294,46.4446248],[6.8959427,46.4445088],[6.8960045,46.4444001],[6.895896,46.4443627],[6.8957345,46.4443644],[6.8957476,46.4442266]]]}},{"type":"Feature","id":"way/879587404","properties":{"building":"apartments","building:flats":"31","last_renovation":"2016","owner":"Société Coopérative d'Habitation Montreux","owner:type":"cooperative","owner:wikidata":"Q133456739","start_date":"1989","addr":[{"addr:city":"Clarens","addr:postcode":"1815","addr:street":"Rue des Vergers","addr:housenumber":"11"},{"addr:city":"Clarens","addr:postcode":"1815","addr:street":"Rue Marc Dufour","addr:housenumber":"4"}],"id":"way/879587404","start_date_parsed":"1989-01-01T00:00:00.000Z","last_renovation_parsed":"2016-01-01T00:00:00.000Z","owner:website":"https://www.schamontreux.ch/","owner:start_date":"1932-01-01T00:00:00Z","owner:swiss_business_uid":"CHE-114.789.110"},"geometry":{"type":"Polygon","coordinates":[[[6.895058,46.4409419],[6.8949668,46.4407319],[6.8950254,46.440681],[6.8953352,46.4406169],[6.895382,46.4407295],[6.8951933,46.4407553],[6.8951579,46.4407861],[6.8952118,46.4409102],[6.895058,46.4409419]]]}}]}