{"type":"FeatureCollection","features": [{"type":"Feature","id":"way/82234988","properties":{"architect":"Grand Praplan & Associés Architectes SA","building":"apartments","building:flats":"40","building:levels":"7","heating":"gas","owner":"Coopérative d'habitation Les Ailes","owner:type":"cooperative","owner:wikidata":"Q133459877","start_date":"2004","addr":[{"addr:city":"Le Grand-Saconnex","addr:postcode":"1218","addr:street":"Rue Sonnex","addr:housenumber":"11"},{"addr:city":"Le Grand-Saconnex","addr:postcode":"1218","addr:street":"Rue Sonnex","addr:housenumber":"7"},{"addr:city":"Le Grand-Saconnex","addr:postcode":"1218","addr:street":"Rue Sonnex","addr:housenumber":"9"}],"id":"way/82234988","start_date_parsed":"2004-01-01T00:00:00.000Z","owner:website":"https://www.lesailes.ch/","owner:start_date":"1955-01-01T00:00:00Z","owner:swiss_business_uid":"CHE-102.227.609"},"geometry":{"type":"Polygon","coordinates":[[[6.1205258,46.2283365],[6.1209256,46.228082],[6.1210778,46.2281971],[6.120678,46.2284516],[6.1205258,46.2283365]]]}},{"type":"Feature","id":"way/82318003","properties":{"addr:city":"Cointrin","addr:housenumber":"1","addr:postcode":"1216","addr:street":"Chemin Agénor-Parmelin","building":"apartments","building:flats":"2","owner":"Coopérative d'habitation Les Ailes","owner:type":"cooperative","owner:wikidata":"Q133459877","id":"way/82318003","owner:website":"https://www.lesailes.ch/","owner:start_date":"1955-01-01T00:00:00Z","owner:swiss_business_uid":"CHE-102.227.609"},"geometry":{"type":"Polygon","coordinates":[[[6.1059942,46.2230636],[6.1061031,46.2229869],[6.1061478,46.2230167],[6.1061569,46.2230114],[6.1061968,46.2230381],[6.106077,46.2231204],[6.1059942,46.2230636]]]}},{"type":"Feature","id":"way/131359270","properties":{"architect":"GP BAT MM. Gardello – Heinrichs - Tommasi","building":"apartments","building:flats":"26","building:levels":"2","heating":"gas","owner":"Coopérative d'habitation Les Ailes","owner:type":"cooperative","owner:wikidata":"Q133459877","source":"Orthophotos 2009 du SITG (Système d'Information du Territoire Genevois)","start_date":"1999","addr":[{"addr:city":"Satigny","addr:postcode":"1242","addr:street":"Rue des Etourneaux","addr:housenumber":"10"},{"addr:city":"Satigny","addr:postcode":"1242","addr:street":"Rue des Etourneaux","addr:housenumber":"8"},{"addr:city":"Satigny","addr:postcode":"1242","addr:street":"Rue des Etourneaux","addr:housenumber":"6"}],"id":"way/131359270","start_date_parsed":"1999-01-01T00:00:00.000Z","owner:website":"https://www.lesailes.ch/","owner:start_date":"1955-01-01T00:00:00Z","owner:swiss_business_uid":"CHE-102.227.609"},"geometry":{"type":"Polygon","coordinates":[[[6.033989,46.2136733],[6.0340796,46.2136182],[6.034154,46.2135747],[6.0342937,46.2136889],[6.0343202,46.213703],[6.0343931,46.2137591],[6.0344571,46.2138089],[6.0345151,46.2138549],[6.0345873,46.2139101],[6.0345514,46.213933],[6.0345941,46.2139665],[6.0345104,46.2140179],[6.0344684,46.213985],[6.0344462,46.2139987],[6.0341909,46.2137985],[6.0341673,46.2138131],[6.033989,46.2136733]]]}},{"type":"Feature","id":"way/131359299","properties":{"architect":"Grand Praplan & Associés Architectes SA","building":"apartments","building:flats":"12","building:levels":"2","heating":"gas","owner":"Coopérative d'habitation Les Ailes","owner:type":"cooperative","owner:wikidata":"Q133459877","source":"Orthophotos 2009 du SITG (Système d'Information du Territoire Genevois)","start_date":"2001","addr":[{"addr:city":"Satigny","addr:postcode":"1242","addr:street":"Rue des Etourneaux","addr:housenumber":"17"},{"addr:city":"Satigny","addr:postcode":"1242","addr:street":"Rue des Etourneaux","addr:housenumber":"15"}],"id":"way/131359299","start_date_parsed":"2001-01-01T00:00:00.000Z","owner:website":"https://www.lesailes.ch/","owner:start_date":"1955-01-01T00:00:00Z","owner:swiss_business_uid":"CHE-102.227.609"},"geometry":{"type":"Polygon","coordinates":[[[6.0340942,46.2143419],[6.0342578,46.2142433],[6.0343209,46.2142935],[6.0343478,46.2143167],[6.0344073,46.2143592],[6.0344304,46.2143757],[6.0345324,46.2144557],[6.0343688,46.2145555],[6.0342469,46.2144598],[6.0341608,46.2143948],[6.0340942,46.2143419]]]}},{"type":"Feature","id":"way/167697909","properties":{"architect":"Grand Praplan & Associés Architectes SA,Burckhardt + Partner SA","building":"apartments","building:flats":"12","building:levels":"2","heating":"gas","owner":"Coopérative d'habitation Les Ailes","owner:type":"cooperative","owner:wikidata":"Q133459877","start_date":"2010","addr":[{"addr:city":"Satigny","addr:postcode":"1242","addr:street":"Rue des Etourneaux","addr:housenumber":"14a"},{"addr:city":"Satigny","addr:postcode":"1242","addr:street":"Rue des Etourneaux","addr:housenumber":"14"}],"id":"way/167697909","start_date_parsed":"2010-01-01T00:00:00.000Z","owner:website":"https://www.lesailes.ch/","owner:start_date":"1955-01-01T00:00:00Z","owner:swiss_business_uid":"CHE-102.227.609"},"geometry":{"type":"Polygon","coordinates":[[[6.0348802,46.2139044],[6.035023,46.2138108],[6.0350269,46.2138147],[6.0350745,46.2138501],[6.0351354,46.2138982],[6.0351853,46.2139372],[6.0352251,46.2139684],[6.0352696,46.214006],[6.0352831,46.214014],[6.0351361,46.2141051],[6.0350563,46.214043],[6.0349388,46.2139515],[6.0349182,46.2139355],[6.0348802,46.2139044]]]}},{"type":"Feature","id":"way/186053774","properties":{"architect":"Grand Praplan & Associés Architectes SA","building":"apartments","building:flats":"17","building:levels":"6","heating":"gas","owner":"Coopérative d'habitation Les Ailes","owner:type":"cooperative","owner:wikidata":"Q133459877","roof:levels":"1","start_date":"1989","addr":[{"addr:city":"Genève","addr:postcode":"1201","addr:street":"Rue du Fort-Barreau","addr:housenumber":"23"}],"id":"way/186053774","start_date_parsed":"1989-01-01T00:00:00.000Z","owner:website":"https://www.lesailes.ch/","owner:start_date":"1955-01-01T00:00:00Z","owner:swiss_business_uid":"CHE-102.227.609"},"geometry":{"type":"Polygon","coordinates":[[[6.1390093,46.2116513],[6.1390144,46.2116496],[6.1390095,46.2116426],[6.1390336,46.2116345],[6.1391049,46.2116104],[6.1392636,46.2115567],[6.1393504,46.2116795],[6.1390912,46.2117672],[6.1390093,46.2116513]]]}},{"type":"Feature","id":"way/191000316","properties":{"building:flats":"18","building:part":"apartments","owner":"Coopérative d'habitation Les Ailes","owner:type":"cooperative","owner:wikidata":"Q133459877","addr":[{"addr:city":"Onex","addr:postcode":"1213","addr:street":"Rue de la Calle","addr:housenumber":"15"}],"id":"way/191000316","owner:website":"https://www.lesailes.ch/","owner:start_date":"1955-01-01T00:00:00Z","owner:swiss_business_uid":"CHE-102.227.609"},"geometry":{"type":"Polygon","coordinates":[[[6.1050219,46.1906803],[6.1048364,46.1906192],[6.1049325,46.1904795],[6.1051189,46.1905424],[6.1050219,46.1906803]]]}},{"type":"Feature","id":"way/205561182","properties":{"building":"apartments","building:flats":"26","building:levels":"6","owner":"Coopérative d'habitation Les Ailes","owner:type":"cooperative","owner:wikidata":"Q133459877","start_date":"2019","addr":[{"addr:city":"Genève","addr:postcode":"1209","addr:street":"Avenue de Riant-Parc","addr:housenumber":"3"},{"addr:city":"Genève","addr:postcode":"1209","addr:street":"Avenue de Riant-Parc","addr:housenumber":"5"}],"id":"way/205561182","start_date_parsed":"2019-01-01T00:00:00.000Z","owner:website":"https://www.lesailes.ch/","owner:start_date":"1955-01-01T00:00:00Z","owner:swiss_business_uid":"CHE-102.227.609"},"geometry":{"type":"Polygon","coordinates":[[[6.1166909,46.2184027],[6.1165561,46.2184966],[6.1161313,46.2182045],[6.1162011,46.2181559],[6.1162663,46.2181106],[6.1166909,46.2184027]]]}},{"type":"Feature","id":"way/219956540","properties":{"architect":"Richard J. Snell – Arturo Hofmann","building":"apartments","building:flats":"98","building:levels":"8","heating":"district_heating","owner":"Coopérative d'habitation Les Ailes","owner:type":"cooperative","owner:wikidata":"Q133459877","roof:levels":"0","start_date":"1968","addr":[{"addr:city":"Genève","addr:postcode":"1209","addr:street":"Chemin Moïse-Duboule","addr:housenumber":"49"},{"addr:city":"Genève","addr:postcode":"1209","addr:street":"Chemin Moïse-Duboule","addr:housenumber":"51"},{"addr:city":"Genève","addr:postcode":"1209","addr:street":"Chemin Moïse-Duboule","addr:housenumber":"53"},{"addr:city":"Genève","addr:postcode":"1209","addr:street":"Chemin Moïse-Duboule","addr:housenumber":"55"},{"addr:city":"Genève","addr:postcode":"1209","addr:street":"Chemin Moïse-Duboule","addr:housenumber":"57"},{"addr:city":"Genève","addr:postcode":"1209","addr:street":"Chemin Moïse-Duboule","addr:housenumber":"59"},{"addr:city":"Genève","addr:postcode":"1209","addr:street":"Chemin Moïse-Duboule","addr:housenumber":"61"}],"id":"way/219956540","start_date_parsed":"1968-01-01T00:00:00.000Z","owner:website":"https://www.lesailes.ch/","owner:start_date":"1955-01-01T00:00:00Z","owner:swiss_business_uid":"CHE-102.227.609"},"geometry":{"type":"Polygon","coordinates":[[[6.1220661,46.2264998],[6.1219281,46.2263985],[6.1221075,46.2262815],[6.1226582,46.2259224],[6.1227788,46.2258438],[6.1229169,46.2259452],[6.1220661,46.2264998]]]}},{"type":"Feature","id":"way/222399393","properties":{"architect":"F. Maurice – J. Duret – J.P. Dom","building":"apartments","building:flats":"84","building:levels":"6","owner":"Coopérative d'habitation Les Ailes","owner:type":"cooperative","owner:wikidata":"Q133459877","start_date":"1958","addr":[{"addr:city":"Cointrin","addr:postcode":"1216","addr:street":"Chemin des Ailes","addr:housenumber":"47"},{"addr:city":"Cointrin","addr:postcode":"1216","addr:street":"Chemin des Ailes","addr:housenumber":"35"},{"addr:city":"Cointrin","addr:postcode":"1216","addr:street":"Chemin des Ailes","addr:housenumber":"37"},{"addr:city":"Cointrin","addr:postcode":"1216","addr:street":"Chemin des Ailes","addr:housenumber":"39"},{"addr:city":"Cointrin","addr:postcode":"1216","addr:street":"Chemin des Ailes","addr:housenumber":"41"},{"addr:city":"Cointrin","addr:postcode":"1216","addr:street":"Chemin des Ailes","addr:housenumber":"43"},{"addr:city":"Cointrin","addr:postcode":"1216","addr:street":"Chemin des Ailes","addr:housenumber":"45"}],"id":"way/222399393","start_date_parsed":"1958-01-01T00:00:00.000Z","owner:website":"https://www.lesailes.ch/","owner:start_date":"1955-01-01T00:00:00Z","owner:swiss_business_uid":"CHE-102.227.609"},"geometry":{"type":"Polygon","coordinates":[[[6.1055386,46.2257649],[6.1047464,46.2263094],[6.1047366,46.2263161],[6.1047074,46.2262956],[6.1046186,46.2262334],[6.1047425,46.2261483],[6.1054241,46.2256906],[6.1055386,46.2257649]]]}},{"type":"Feature","id":"way/222399404","properties":{"architect":"Duret - Bayol – Bertoli – Richard J. Snell – Arturo Hofmann","building":"apartments","building:flats":"59","building:levels":"10","heating":"district_heating","owner":"Coopérative d'habitation Les Ailes","owner:type":"cooperative","owner:wikidata":"Q133459877","start_date":"1974","addr":[{"addr:city":"Cointrin","addr:postcode":"1216","addr:street":"Avenue Louis-Casaï","addr:housenumber":"79"},{"addr:city":"Cointrin","addr:postcode":"1216","addr:street":"Avenue Louis-Casaï","addr:housenumber":"81"}],"id":"way/222399404","start_date_parsed":"1974-01-01T00:00:00.000Z","owner:website":"https://www.lesailes.ch/","owner:start_date":"1955-01-01T00:00:00Z","owner:swiss_business_uid":"CHE-102.227.609"},"geometry":{"type":"Polygon","coordinates":[[[6.1062069,46.2253225],[6.1063136,46.2253991],[6.1062628,46.2254341],[6.1061996,46.2254777],[6.1059958,46.225618],[6.1059818,46.2256276],[6.1059398,46.2256565],[6.1057245,46.2258048],[6.1056158,46.2257284],[6.1057262,46.225654],[6.1058568,46.2255632],[6.1060433,46.2254336],[6.1062069,46.2253225]]]}},{"type":"Feature","id":"way/222466855","properties":{"architect":"GP BAT MM.Gardello – Heinrichs - Tommasi","building":"apartments","building:flats":"34","building:levels":"5","heating":"gas","owner":"Coopérative d'habitation Les Ailes","owner:type":"cooperative","owner:wikidata":"Q133459877","start_date":"1995","addr":[{"addr:city":"Cointrin","addr:postcode":"1216","addr:street":"Chemin du Ruisseau","addr:housenumber":"40"},{"addr:city":"Cointrin","addr:postcode":"1216","addr:street":"Chemin du Ruisseau","addr:housenumber":"42"},{"addr:city":"Cointrin","addr:postcode":"1216","addr:street":"Chemin du Ruisseau","addr:housenumber":"44"}],"id":"way/222466855","start_date_parsed":"1995-01-01T00:00:00.000Z","owner:website":"https://www.lesailes.ch/","owner:start_date":"1955-01-01T00:00:00Z","owner:swiss_business_uid":"CHE-102.227.609"},"geometry":{"type":"Polygon","coordinates":[[[6.105774,46.2247853],[6.1056485,46.2247016],[6.1060102,46.2244421],[6.1061357,46.2245258],[6.105774,46.2247853]]]}},{"type":"Feature","id":"way/621297200","properties":{"building":"apartments","building:flats":"85","building:levels":"13","heating":"district_heating","name":"C3","owner":"Coopérative d'habitation Les Ailes","owner:type":"cooperative","owner:wikidata":"Q133459877","start_date":"2018","addr":[{"addr:city":"Meyrin","addr:postcode":"1217","addr:street":"Place de la Diversité","addr:housenumber":"5"},{"addr:city":"Meyrin","addr:postcode":"1217","addr:street":"Place de la Diversité","addr:housenumber":"3"}],"id":"way/621297200","start_date_parsed":"2018-01-01T00:00:00.000Z","owner:website":"https://www.lesailes.ch/","owner:start_date":"1955-01-01T00:00:00Z","owner:swiss_business_uid":"CHE-102.227.609"},"geometry":{"type":"Polygon","coordinates":[[[6.067312,46.230778],[6.0675134,46.2304115],[6.067755,46.2304751],[6.0675536,46.2308415],[6.067312,46.230778]]]}},{"type":"Feature","id":"way/791848464","properties":{"addr:city":"Genève","addr:housenumber":"14","addr:postcode":"1202","addr:street":"Rue Denis-de-Rougemont","architect":"Burckhardt + Partner SA","building":"apartments","building:levels":"7","owner":"Coopérative d'habitation Les Ailes","owner:type":"cooperative","owner:wikidata":"Q133459877","start_date":"2016","id":"way/791848464","start_date_parsed":"2016-01-01T00:00:00.000Z","owner:website":"https://www.lesailes.ch/","owner:start_date":"1955-01-01T00:00:00Z","owner:swiss_business_uid":"CHE-102.227.609"},"geometry":{"type":"Polygon","coordinates":[[[6.1346446,46.2237201],[6.1343852,46.2234836],[6.1345388,46.223403],[6.1347981,46.2236395],[6.1346446,46.2237201]]]}},{"type":"Feature","id":"way/1178271175","properties":{"building:part":"apartments","owner":"Coopérative d'habitation Les Ailes","owner:type":"cooperative","owner:wikidata":"Q133459877","addr":[{"addr:city":"Genève","addr:postcode":"1202","addr:street":"Rue Denis-De-Rougemont","addr:housenumber":"4"}],"id":"way/1178271175","owner:website":"https://www.lesailes.ch/","owner:start_date":"1955-01-01T00:00:00Z","owner:swiss_business_uid":"CHE-102.227.609"},"geometry":{"type":"Polygon","coordinates":[[[6.1346549,46.2231806],[6.1348179,46.2231012],[6.1349411,46.2232222],[6.1347782,46.2233016],[6.1346549,46.2231806]]]}}]}