{"type":"FeatureCollection","features": [
  {
    "type": "Feature",
    "id": "way/113614819",
    "properties": {
      "building": "apartments",
      "last_renovation": "2020",
      "owner": "Coopérative d'Habitations Collectives de Lully 2",
      "owner:type": "cooperative",
      "owner:wikidata": "Q133460114",
      "source": "Orthophotos 2009 du SITG (Système d'Information du Territoire Genevois)",
      "addr": [
        {
          "addr:city": "Bernex",
          "addr:postcode": "1233",
          "addr:street": "Route de Soral",
          "addr:housenumber": "166"
        },
        {
          "addr:city": "Bernex",
          "addr:postcode": "1233",
          "addr:street": "Route de Soral",
          "addr:housenumber": "168"
        },
        {
          "addr:city": "Bernex",
          "addr:postcode": "1233",
          "addr:street": "Route de Soral",
          "addr:housenumber": "170"
        },
        {
          "addr:city": "Bernex",
          "addr:postcode": "1233",
          "addr:street": "Route de Soral",
          "addr:housenumber": "172"
        },
        {
          "addr:city": "Bernex",
          "addr:postcode": "1233",
          "addr:street": "Route de Soral",
          "addr:housenumber": "174"
        },
        {
          "addr:city": "Bernex",
          "addr:postcode": "1233",
          "addr:street": "Route de Soral",
          "addr:housenumber": "176"
        },
        {
          "addr:city": "Bernex",
          "addr:postcode": "1233",
          "addr:street": "Route de Soral",
          "addr:housenumber": "178"
        }
      ],
      "id": "way/113614819",
      "last_renovation_parsed": "2020-01-01T00:00:00.000Z",
      "owner:start_date": "1972-01-01T00:00:00Z",
      "owner:swiss_business_uid": "CHE-100.692.533"
    },
    "geometry": {
      "type": "Polygon",
      "coordinates": [
        [
          [
            6.064339,
            46.1611286
          ],
          [
            6.06441,
            46.1610336
          ],
          [
            6.0648476,
            46.1611864
          ],
          [
            6.0648616,
            46.1611657
          ],
          [
            6.0651816,
            46.1612803
          ],
          [
            6.0651668,
            46.1613019
          ],
          [
            6.065501,
            46.1614197
          ],
          [
            6.0655165,
            46.161398
          ],
          [
            6.0656729,
            46.161454
          ],
          [
            6.0655998,
            46.1615494
          ],
          [
            6.0654399,
            46.1614909
          ],
          [
            6.0654229,
            46.1615135
          ],
          [
            6.0650838,
            46.1613932
          ],
          [
            6.0650993,
            46.1613731
          ],
          [
            6.0647885,
            46.1612626
          ],
          [
            6.0647759,
            46.1612818
          ],
          [
            6.064339,
            46.1611286
          ]
        ]
      ]
    }
  }
]}