{
  "type": "FeatureCollection",
  "features": [
    {
      "type": "Feature",
      "id": "way/1123154241",
      "properties": {
        "architect": "TRIBU architecture",
        "building": "apartments",
        "building:flats": "77",
        "building:flats:cluster": "1",
        "building:levels": "8",
        "heating": "heat_pump",
        "owner": "Société coopérative de construction et d’habitation Le Bled",
        "owner:short": "SCCH Le Bled",
        "owner:type": "cooperative",
        "owner:wikidata": "Q132179442",
        "roof:levels": "0",
        "roof:shape": "flat",
        "start_date": "2023-07",
        "addr": [
          {
            "addr:city": "Lausanne",
            "addr:postcode": "1018",
            "addr:street": "Rue Elisa-Serment",
            "addr:housenumber": "5"
          },
          {
            "addr:city": "Lausanne",
            "addr:postcode": "1018",
            "addr:street": "Rue Elisa-Serment",
            "addr:housenumber": "3"
          },
          {
            "addr:city": "Lausanne",
            "addr:postcode": "1018",
            "addr:street": "Rue Elisa-Serment",
            "addr:housenumber": "1"
          },
          {
            "addr:city": "Lausanne",
            "addr:postcode": "1018",
            "addr:street": "Route des Plaines-du-Loup",
            "addr:housenumber": "43"
          },
          {
            "addr:city": "Lausanne",
            "addr:postcode": "1018",
            "addr:street": "Route des Plaines-du-Loup",
            "addr:housenumber": "41"
          }
        ],
        "id": "way/1123154241",
        "start_date_parsed": "2023-07-01T00:00:00.000Z",
        "owner:website": "https://lebled.ch",
        "owner:start_date": "2015-01-01T00:00:00Z",
        "owner:swiss_business_uid": "CHE-232.069.729"
      },
      "geometry": {
        "type": "Polygon",
        "coordinates": [
          [
            [
              6.6217227,
              46.5387387
            ],
            [
              6.6212025,
              46.538527
            ],
            [
              6.6214209,
              46.538281
            ],
            [
              6.6216104,
              46.5383629
            ],
            [
              6.6215192,
              46.5385085
            ],
            [
              6.6216877,
              46.538586
            ],
            [
              6.6219729,
              46.5384103
            ],
            [
              6.62191,
              46.5383661
            ],
            [
              6.6219455,
              46.5383245
            ],
            [
              6.6220584,
              46.5383597
            ],
            [
              6.6222012,
              46.5384475
            ],
            [
              6.6217227,
              46.5387387
            ]
          ]
        ]
      }
    }
  ]
}