{
  "type": "FeatureCollection",
  "features": [
    {
      "type": "Feature",
      "id": "way/1351003857",
      "properties": {
        "building:part": "apartments",
        "owner": "Coopérative Voisinage",
        "owner:type": "cooperative",
        "owner:wikidata": "Q132672906",
        "addr": [
          {
            "addr:city": "Meyrin",
            "addr:postcode": "1217",
            "addr:street": "Esplanade des Récréations",
            "addr:housenumber": "21"
          },
          {
            "addr:city": "Meyrin",
            "addr:postcode": "1217",
            "addr:street": "Promenade du Voisinage",
            "addr:housenumber": "5"
          }
        ],
        "id": "way/1351003857",
        "owner:website": "https://www.cooperative-voisinage.ch/",
        "owner:start_date": "2008-01-01T00:00:00Z",
        "owner:swiss_business_uid": "CHE-114.781.189"
      },
      "geometry": {
        "type": "Polygon",
        "coordinates": [
          [
            [
              6.0717177,
              46.2325221
            ],
            [
              6.071563,
              46.2323954
            ],
            [
              6.0716617,
              46.232337
            ],
            [
              6.0721167,
              46.232068
            ],
            [
              6.0722725,
              46.2321941
            ],
            [
              6.0718673,
              46.2324337
            ],
            [
              6.0717177,
              46.2325221
            ]
          ]
        ]
      }
    }
  ]
}