{"type":"FeatureCollection","features": [{"type":"Feature","id":"way/37064442","properties":{"addr:city":"Ecublens (VD)","addr:country":"CH","addr:housenumber":"1a","addr:postcode":"1024","addr:street":"Chemin de la Cocarde","building":"apartments","building:flats:dog":"no","heating":"gas","owner":"Société coopérative d'habitation Lausanne","owner:abbr":"SCHL","owner:type":"cooperative","owner:wikidata":"Q126741196","source":"EPFL ortho","start_date":"1998","id":"way/37064442","start_date_parsed":"1998-01-01T00:00:00.000Z","owner:website":"https://schl.ch/","owner:start_date":"1920-01-01T00:00:00Z","owner:swiss_business_uid":"CHE-107.036.838"},"geometry":{"type":"Polygon","coordinates":[[[6.5624814,46.5272466],[6.5623357,46.5270887],[6.5625603,46.5269906],[6.562674,46.5271137],[6.5626409,46.5271282],[6.5626729,46.5271629],[6.5624814,46.5272466]]]}},{"type":"Feature","id":"way/44156493","properties":{"addr:city":"Lausanne","addr:housenumber":"8","addr:postcode":"1012","addr:street":"Chemin du Ravin","building":"apartments","building:flats":"12","building:flats:dog":"no","building:levels":"4","heating":"oil","last_renovation":"1998","operator":"Société coopérative d'habitation Lausanne","operator:abbr":"SCHL","operator:type":"cooperative","operator:website":"https://schl.ch/","operator:wikidata":"Q126741196","owner":"Fondation Pro Habitat Lausanne","owner:abbr":"FPHL","owner:type":"foundation","owner:website":"https://schl.ch","roof:levels":"0","roof:shape":"hipped","source":"Orthophotos de la Ville de Lausanne (2008)","start_date":"1950","subsidized":"yes","id":"way/44156493","start_date_parsed":"1950-01-01T00:00:00.000Z","last_renovation_parsed":"1998-01-01T00:00:00.000Z","operator:start_date":"1920-01-01T00:00:00Z","operator:swiss_business_uid":"CHE-107.036.838"},"geometry":{"type":"Polygon","coordinates":[[[6.6541439,46.5226235],[6.6538584,46.5227718],[6.6537622,46.5226841],[6.6540477,46.5225358],[6.6541439,46.5226235]]]}},{"type":"Feature","id":"way/44362624","properties":{"addr:city":"Ecublens (VD)","addr:country":"CH","addr:housenumber":"1b","addr:postcode":"1024","addr:street":"Chemin de la Cocarde","building":"apartments","building:flats:dog":"no","heating":"gas","owner":"Société coopérative d'habitation Lausanne","owner:abbr":"SCHL","owner:type":"cooperative","owner:wikidata":"Q126741196","source":"Orthophoto Ville de Lausanne 2008","start_date":"1998","id":"way/44362624","start_date_parsed":"1998-01-01T00:00:00.000Z","owner:website":"https://schl.ch/","owner:start_date":"1920-01-01T00:00:00Z","owner:swiss_business_uid":"CHE-107.036.838"},"geometry":{"type":"Polygon","coordinates":[[[6.5625186,46.5274001],[6.5625793,46.5275421],[6.562544,46.5275492],[6.5625595,46.5275854],[6.5623328,46.5276312],[6.5622567,46.5274531],[6.5625186,46.5274001]]]}},{"type":"Feature","id":"way/44362626","properties":{"addr:city":"Ecublens (VD)","addr:country":"CH","addr:housenumber":"3a","addr:postcode":"1024","addr:street":"Chemin de la Cocarde","building":"apartments","building:flats":"16","building:flats:dog":"no","heating":"gas","owner":"Société coopérative d'habitation Lausanne","owner:abbr":"SCHL","owner:type":"cooperative","owner:wikidata":"Q126741196","source":"Orthophoto Ville de Lausanne 2008","start_date":"1984","id":"way/44362626","start_date_parsed":"1984-01-01T00:00:00.000Z","owner:website":"https://schl.ch/","owner:start_date":"1920-01-01T00:00:00Z","owner:swiss_business_uid":"CHE-107.036.838"},"geometry":{"type":"Polygon","coordinates":[[[6.5634253,46.5277188],[6.5633039,46.5277173],[6.5633009,46.5278384],[6.5631419,46.5278365],[6.5631481,46.5275939],[6.5634284,46.5275973],[6.5634253,46.5277188]]]}},{"type":"Feature","id":"way/44364433","properties":{"building":"apartments","building:flats:dog":"no","building:levels":"4","heating":"oil","last_renovation":"1980","owner":"Société coopérative d'habitation Lausanne","owner:abbr":"SCHL","owner:type":"cooperative","owner:wikidata":"Q126741196","roof:levels":"1","roof:shape":"hipped","source":"Orthophoto Ville de Lausanne 2008","start_date":"1921","addr":[{"addr:city":"Lausanne","addr:postcode":"1004","addr:street":"Avenue de Morges","addr:housenumber":"115"},{"addr:city":"Lausanne","addr:postcode":"1004","addr:street":"Avenue de Morges","addr:housenumber":"117"}],"id":"way/44364433","start_date_parsed":"1921-01-01T00:00:00.000Z","last_renovation_parsed":"1980-01-01T00:00:00.000Z","owner:website":"https://schl.ch/","owner:start_date":"1920-01-01T00:00:00Z","owner:swiss_business_uid":"CHE-107.036.838"},"geometry":{"type":"Polygon","coordinates":[[[6.6160855,46.5253106],[6.6160955,46.5254033],[6.615618,46.5254276],[6.6156081,46.525335],[6.6160855,46.5253106]]]}},{"type":"Feature","id":"way/44364438","properties":{"addr:city":"Lausanne","addr:country":"CH","addr:housenumber":"61","addr:postcode":"1004","addr:street":"Avenue de Morges","building":"apartments","building:flats:dog":"no","building:levels":"4","copyright":"OpenAddresses","heating":"oil","last_renovation":"1980","oa:imported_by":"sbrunner","oa:lat":"46.52606964","oa:lon":"6.61591530","oa:version":"oa2osm - 0.2 - sax","owner":"Société coopérative d'habitation Lausanne","owner:abbr":"SCHL","owner:type":"cooperative","owner:wikidata":"Q126741196","roof:levels":"1","roof:shape":"hipped","source":"Orthophoto Ville de Lausanne 2008","start_date":"1921","id":"way/44364438","start_date_parsed":"1921-01-01T00:00:00.000Z","last_renovation_parsed":"1980-01-01T00:00:00.000Z","owner:website":"https://schl.ch/","owner:start_date":"1920-01-01T00:00:00Z","owner:swiss_business_uid":"CHE-107.036.838"},"geometry":{"type":"Polygon","coordinates":[[[6.616081,46.5260996],[6.6158211,46.5261082],[6.6158142,46.5260084],[6.6160741,46.5259999],[6.616081,46.5260996]]]}},{"type":"Feature","id":"way/44698762","properties":{"addr:city":"Lausanne","addr:country":"CH","addr:housenumber":"38","addr:postcode":"1007","addr:street":"Chemin de Montelly","building":"apartments","building:flats":"24","building:flats:dog":"no","building:levels":"5","heating":"district_heating","operator":"Société coopérative d'habitation Lausanne","operator:abbr":"SCHL","operator:type":"cooperative","operator:website":"https://schl.ch/","operator:wikidata":"Q126741196","owner":"Fondation Pro Habitat Lausanne","owner:abbr":"FPHL","owner:type":"foundation","owner:website":"https://schl.ch/","owner:wikidata":"Q126741196","roof:levels":"0","source":"aerial imagery","subsidized":"yes","id":"way/44698762","owner:start_date":"1920-01-01T00:00:00Z","owner:swiss_business_uid":"CHE-107.036.838","operator:start_date":"1920-01-01T00:00:00Z","operator:swiss_business_uid":"CHE-107.036.838"},"geometry":{"type":"Polygon","coordinates":[[[6.6100087,46.5214359],[6.6103382,46.5213847],[6.6103897,46.5214403],[6.610443,46.521498],[6.6101034,46.5215435],[6.6100087,46.5214359]]]}},{"type":"Feature","id":"way/44698763","properties":{"addr:city":"Lausanne","addr:country":"CH","addr:housenumber":"36","addr:postcode":"1007","addr:street":"Chemin de Montelly","building":"apartments","building:flats":"30","building:flats:dog":"no","building:levels":"5","heating":"district_heating","operator":"Société coopérative d'habitation Lausanne","operator:abbr":"SCHL","operator:type":"cooperative","operator:website":"https://schl.ch/","operator:wikidata":"Q126741196","owner":"Fondation Pro Habitat Lausanne","owner:abbr":"FPHL","owner:type":"foundation","owner:website":"https://schl.ch/","owner:wikidata":"Q126741196","source":"Orthophoto Ville de Lausanne 2008","start_date":"2017","subsidized":"yes","id":"way/44698763","start_date_parsed":"2017-01-01T00:00:00.000Z","owner:start_date":"1920-01-01T00:00:00Z","owner:swiss_business_uid":"CHE-107.036.838","operator:start_date":"1920-01-01T00:00:00Z","operator:swiss_business_uid":"CHE-107.036.838"},"geometry":{"type":"Polygon","coordinates":[[[6.6106414,46.5217229],[6.6104939,46.5215616],[6.6106689,46.5215104],[6.6107992,46.5214723],[6.6108275,46.5215039],[6.6109262,46.521614],[6.6106414,46.5217229]]]}},{"type":"Feature","id":"way/44698765","properties":{"addr:city":"Lausanne","addr:country":"CH","addr:housenumber":"34","addr:postcode":"1007","addr:street":"Chemin de Montelly","building":"apartments","building:flats":"49","building:flats:dog":"no","building:levels":"5","heating":"district_heating","operator":"Société coopérative d'habitation Lausanne","operator:abbr":"SCHL","operator:type":"cooperative","operator:website":"https://schl.ch/","operator:wikidata":"Q126741196","owner":"Fondation Pro Habitat Lausanne","owner:abbr":"FPHL","owner:type":"foundation","owner:website":"https://schl.ch/","owner:wikidata":"Q126741196","source":"Orthophoto Ville de Lausanne 2008","start_date":"2017","subsidized":"yes","id":"way/44698765","start_date_parsed":"2017-01-01T00:00:00.000Z","owner:start_date":"1920-01-01T00:00:00Z","owner:swiss_business_uid":"CHE-107.036.838","operator:start_date":"1920-01-01T00:00:00Z","operator:swiss_business_uid":"CHE-107.036.838"},"geometry":{"type":"Polygon","coordinates":[[[6.6110519,46.5215704],[6.6109345,46.5213614],[6.6108858,46.5212746],[6.6111057,46.5211907],[6.6112809,46.5214794],[6.6110519,46.5215704]]]}},{"type":"Feature","id":"way/44780642","properties":{"building":"apartments","building:flats":"75","building:flats:dog":"no","copyright":"OpenAddresses","heating":"oil","last_renovation":"2022","oa:imported_by":"sbrunner","oa:lat":"46.50893784","oa:lon":"6.62583923","oa:version":"oa2osm - 0.2 - sax","operator":"Société coopérative d'habitation Lausanne","operator:abbr":"SCHL","operator:type":"cooperative","operator:website":"https://schl.ch/","operator:wikidata":"Q126741196","owner":"Fondation Pro Habitat Lausanne","owner:abbr":"FPHL","owner:type":"foundation","owner:website":"https://schl.ch","source":"Orthophotos Ville de Lausanne 2008","start_date":"1935","subsidized":"yes","addr":[{"addr:city":"Lausanne","addr:postcode":"1007","addr:street":"Chemin Auguste-Pidou","addr:housenumber":"10"},{"addr:city":"Lausanne","addr:postcode":"1007","addr:street":"Chemin Auguste-Pidou","addr:housenumber":"12"},{"addr:city":"Lausanne","addr:postcode":"1007","addr:street":"Chemin Auguste-Pidou","addr:housenumber":"14"},{"addr:city":"Lausanne","addr:postcode":"1007","addr:street":"Chemin Auguste-Pidou","addr:housenumber":"16"},{"addr:city":"Lausanne","addr:postcode":"1007","addr:street":"Avenue Frédéric-César-de-La-Harpe","addr:housenumber":"34"},{"addr:city":"Lausanne","addr:postcode":"1007","addr:street":"Chemin Auguste-Pidou","addr:housenumber":"18"}],"id":"way/44780642","start_date_parsed":"1935-01-01T00:00:00.000Z","last_renovation_parsed":"2022-01-01T00:00:00.000Z","operator:start_date":"1920-01-01T00:00:00Z","operator:swiss_business_uid":"CHE-107.036.838"},"geometry":{"type":"Polygon","coordinates":[[[6.6258321,46.508848],[6.6259427,46.5089851],[6.6258339,46.5090267],[6.6258676,46.5090677],[6.6251336,46.5093457],[6.6251064,46.5093118],[6.6250043,46.5093505],[6.6249015,46.509222],[6.6250098,46.509181],[6.6250766,46.5092644],[6.6258034,46.5089889],[6.6257232,46.5088896],[6.6258321,46.508848]]]}},{"type":"Feature","id":"way/44781089","properties":{"building":"apartments","building:flats":"71","building:flats:dog":"no","building:levels":"7","copyright":"OpenAddresses","heating":"gas","last_renovation":"2009","oa:imported_by":"sbrunner","oa:lat":"46.51027298","oa:lon":"6.62621498","oa:version":"oa2osm - 0.2 - sax","owner":"Société coopérative d'habitation Lausanne","owner:abbr":"SCHL","owner:type":"cooperative","owner:wikidata":"Q126741196","roof:levels":"0","roof:shape":"flat","source":"Orthophotos Ville de Lausanne 2008","start_date":"1970","addr":[{"addr:city":"Lausanne","addr:postcode":"1007","addr:street":"Avenue Frédéric-César-de-La-Harpe","addr:housenumber":"35"},{"addr:city":"Lausanne","addr:postcode":"1007","addr:street":"Avenue Frédéric-César-de-La-Harpe","addr:housenumber":"33"},{"addr:city":"Lausanne","addr:postcode":"1007","addr:street":"Avenue Frédéric-César-de-La-Harpe","addr:housenumber":"37"}],"id":"way/44781089","start_date_parsed":"1970-01-01T00:00:00.000Z","last_renovation_parsed":"2009-01-01T00:00:00.000Z","owner:website":"https://schl.ch/","owner:start_date":"1920-01-01T00:00:00Z","owner:swiss_business_uid":"CHE-107.036.838"},"geometry":{"type":"Polygon","coordinates":[[[6.626294,46.5103709],[6.6262903,46.5104096],[6.626147,46.5104037],[6.6261765,46.5101365],[6.6261559,46.5101353],[6.6261816,46.5098944],[6.626406,46.5099058],[6.6263936,46.5100126],[6.6263227,46.5100082],[6.6263063,46.5101432],[6.6264048,46.5101491],[6.6263865,46.5103752],[6.626294,46.5103709]]]}},{"type":"Feature","id":"way/44781091","properties":{"building":"apartments","building:flats":"50","building:flats:dog":"no","building:levels":"7","heating":"district_heating","last_renovation":"1977","owner":"Société coopérative d'habitation Lausanne","owner:abbr":"SCHL","owner:type":"cooperative","owner:wikidata":"Q126741196","roof:shape":"flat","source":"Orthophotos Ville de Lausanne 2008","start_date":"1933","addr":[{"addr:city":"Lausanne","addr:postcode":"1007","addr:street":"Avenue Frédéric-César-de-La-Harpe","addr:housenumber":"41"},{"addr:city":"Lausanne","addr:postcode":"1007","addr:street":"Avenue Frédéric-César-de-La-Harpe","addr:housenumber":"39"},{"addr:city":"Lausanne","addr:postcode":"1007","addr:street":"Avenue Frédéric-César-de-La-Harpe","addr:housenumber":"43"}],"id":"way/44781091","start_date_parsed":"1933-01-01T00:00:00.000Z","last_renovation_parsed":"1977-01-01T00:00:00.000Z","owner:website":"https://schl.ch/","owner:start_date":"1920-01-01T00:00:00Z","owner:swiss_business_uid":"CHE-107.036.838"},"geometry":{"type":"Polygon","coordinates":[[[6.6262053,46.5097058],[6.6262469,46.5093208],[6.626255,46.509299],[6.6262688,46.5092811],[6.6262997,46.5092638],[6.6263329,46.5092537],[6.6263703,46.5092526],[6.6264011,46.509256],[6.6266392,46.5093701],[6.6265666,46.5094578],[6.6265051,46.5094277],[6.6263834,46.5094196],[6.6263579,46.5096129],[6.6264718,46.5096174],[6.6264727,46.5096382],[6.6264624,46.5097545],[6.626234,46.5097418],[6.6262147,46.5097302],[6.626207,46.5097175],[6.6262053,46.5097058]]]}},{"type":"Feature","id":"way/44836292","properties":{"building":"apartments","building:levels":"4","heating":"gas","last_renovation":"1980","owner":"Société coopérative d'habitation Lausanne","owner:abbr":"SCHL","owner:type":"cooperative","owner:wikidata":"Q126741196","roof:levels":"0","roof:shape":"hipped","source":"Orthophotos Ville de Lausanne 2008","start_date":"1931","addr":[{"addr:city":"Lausanne","addr:postcode":"1006","addr:street":"Chemin Charles-Gide","addr:housenumber":"6"},{"addr:city":"Lausanne","addr:postcode":"1006","addr:street":"Chemin Charles-Gide","addr:housenumber":"5"}],"id":"way/44836292","start_date_parsed":"1931-01-01T00:00:00.000Z","last_renovation_parsed":"1980-01-01T00:00:00.000Z","owner:website":"https://schl.ch/","owner:start_date":"1920-01-01T00:00:00Z","owner:swiss_business_uid":"CHE-107.036.838"},"geometry":{"type":"Polygon","coordinates":[[[6.6393822,46.5116283],[6.6394316,46.5114899],[6.6394392,46.5114687],[6.6394325,46.5114677],[6.6394402,46.5114472],[6.639312,46.511426],[6.6393476,46.511326],[6.6396,46.5113677],[6.6396128,46.5113734],[6.6396165,46.511381],[6.6396158,46.5113893],[6.6395676,46.5115132],[6.639514,46.5116508],[6.6393822,46.5116283]]]}},{"type":"Feature","id":"way/44836296","properties":{"addr:city":"Lausanne","addr:country":"CH","addr:housenumber":"2","addr:postcode":"1006","addr:street":"Chemin Charles-Gide","building":"apartments","building:flats":"8","building:levels":"4","heating":"gas","owner":"Société coopérative d'habitation Lausanne","owner:abbr":"SCHL","owner:type":"cooperative","owner:wikidata":"Q126741196","roof:levels":"0","source":"Orthophotos Ville de Lausanne 2008","start_date":"1991","id":"way/44836296","start_date_parsed":"1991-01-01T00:00:00.000Z","owner:website":"https://schl.ch/","owner:start_date":"1920-01-01T00:00:00Z","owner:swiss_business_uid":"CHE-107.036.838"},"geometry":{"type":"Polygon","coordinates":[[[6.6385976,46.5114503],[6.6385779,46.5113582],[6.6386786,46.511348],[6.6386761,46.511336],[6.6387274,46.5113309],[6.63873,46.5113428],[6.6387592,46.5113398],[6.6387566,46.5113278],[6.638808,46.5113226],[6.6388105,46.5113346],[6.6389117,46.5113244],[6.6389314,46.5114165],[6.6385976,46.5114503]]]}},{"type":"Feature","id":"way/44836297","properties":{"addr:city":"Lausanne","addr:country":"CH","addr:housenumber":"1","addr:postcode":"1006","addr:street":"Chemin Charles-Gide","building":"apartments","building:levels":"3","copyright":"OpenAddresses","heating":"gas","last_renovation":"1980","oa:imported_by":"sbrunner","oa:lat":"46.51145935","oa:lon":"6.63828468","oa:version":"oa2osm - 0.2 - sax","owner":"Société coopérative d'habitation Lausanne","owner:abbr":"SCHL","owner:type":"cooperative","owner:wikidata":"Q126741196","roof:levels":"0","roof:shape":"hipped","source":"Orthophotos Ville de Lausanne 2008","start_date":"1931","id":"way/44836297","start_date_parsed":"1931-01-01T00:00:00.000Z","last_renovation_parsed":"1980-01-01T00:00:00.000Z","owner:website":"https://schl.ch/","owner:start_date":"1920-01-01T00:00:00Z","owner:swiss_business_uid":"CHE-107.036.838"},"geometry":{"type":"Polygon","coordinates":[[[6.638161,46.5114447],[6.6384106,46.5113869],[6.6384546,46.5114771],[6.638205,46.5115348],[6.638161,46.5114447]]]}},{"type":"Feature","id":"way/45124678","properties":{"building":"apartments","building:flats:dog":"no","heating":"gas","owner":"Société coopérative d'habitation Lausanne","owner:abbr":"SCHL","owner:type":"cooperative","owner:wikidata":"Q126741196","source":"Orthophotos de la Ville de Lausanne (2008)","start_date":"1994","subsidized":"yes","addr":[{"addr:city":"Lausanne","addr:postcode":"1010","addr:street":"Chemin de Praz-Séchaud","addr:housenumber":"34"},{"addr:city":"Lausanne","addr:postcode":"1010","addr:street":"Chemin de Praz-Séchaud","addr:housenumber":"32"}],"id":"way/45124678","start_date_parsed":"1994-01-01T00:00:00.000Z","owner:website":"https://schl.ch/","owner:start_date":"1920-01-01T00:00:00Z","owner:swiss_business_uid":"CHE-107.036.838"},"geometry":{"type":"Polygon","coordinates":[[[6.6656108,46.5399187],[6.6655713,46.5399221],[6.665535,46.5399252],[6.6655444,46.5399772],[6.6654679,46.5399838],[6.6654802,46.5400516],[6.6654392,46.5400551],[6.6654062,46.5400579],[6.665418,46.5401232],[6.6652902,46.5401341],[6.6652854,46.5401078],[6.6652083,46.5401145],[6.6651967,46.5400506],[6.6652696,46.5400444],[6.6652579,46.5399799],[6.6653324,46.5399735],[6.6653211,46.5399116],[6.6653984,46.5399049],[6.6653878,46.5398469],[6.6655946,46.5398291],[6.6656108,46.5399187]]]}},{"type":"Feature","id":"way/45124680","properties":{"addr:city":"Lausanne","addr:country":"CH","addr:housenumber":"36","addr:postcode":"1010","addr:street":"Chemin de Praz-Séchaud","building":"apartments","building:flats:dog":"no","heating":"gas","owner":"Société coopérative d'habitation Lausanne","owner:abbr":"SCHL","owner:type":"cooperative","owner:wikidata":"Q126741196","source":"Orthophotos de la Ville de Lausanne (2008)","start_date":"1994","subsidized":"yes","id":"way/45124680","start_date_parsed":"1994-01-01T00:00:00.000Z","owner:website":"https://schl.ch/","owner:start_date":"1920-01-01T00:00:00Z","owner:swiss_business_uid":"CHE-107.036.838"},"geometry":{"type":"Polygon","coordinates":[[[6.6657569,46.5396242],[6.6657574,46.5395977],[6.6656801,46.539597],[6.6656813,46.5395325],[6.6657123,46.5395328],[6.6657135,46.5394658],[6.6657479,46.5394661],[6.6657485,46.5394339],[6.6659315,46.5394356],[6.6659309,46.539466],[6.6659668,46.5394663],[6.6659655,46.5395307],[6.6658833,46.53953],[6.6658814,46.5396253],[6.6657569,46.5396242]]]}},{"type":"Feature","id":"way/45124681","properties":{"building":"apartments","building:flats:dog":"no","heating":"gas","owner":"Société coopérative d'habitation Lausanne","owner:abbr":"SCHL","owner:type":"cooperative","owner:wikidata":"Q126741196","source":"Orthophotos de la Ville de Lausanne (2008)","start_date":"1994","subsidized":"yes","addr":[{"addr:city":"Lausanne","addr:postcode":"1010","addr:street":"Chemin de Praz-Séchaud","addr:housenumber":"40"},{"addr:city":"Lausanne","addr:postcode":"1010","addr:street":"Chemin de Praz-Séchaud","addr:housenumber":"38"}],"id":"way/45124681","start_date_parsed":"1994-01-01T00:00:00.000Z","owner:website":"https://schl.ch/","owner:start_date":"1920-01-01T00:00:00Z","owner:swiss_business_uid":"CHE-107.036.838"},"geometry":{"type":"Polygon","coordinates":[[[6.66653,46.5395303],[6.666491,46.5395299],[6.6664613,46.5395296],[6.6664602,46.5395797],[6.6663847,46.5395789],[6.6663833,46.5396478],[6.6663402,46.5396474],[6.6663021,46.539647],[6.6663009,46.5397059],[6.6662184,46.5397051],[6.6662188,46.5396855],[6.6660952,46.5396843],[6.6660965,46.5396217],[6.6661761,46.5396224],[6.6661775,46.5395554],[6.6662525,46.5395562],[6.6662538,46.5394942],[6.6663289,46.5394949],[6.6663301,46.5394387],[6.6665319,46.5394407],[6.66653,46.5395303]]]}},{"type":"Feature","id":"way/45124684","properties":{"building":"apartments","building:flats:dog":"no","heating":"gas","owner":"Société coopérative d'habitation Lausanne","owner:abbr":"SCHL","owner:type":"cooperative","owner:wikidata":"Q126741196","source":"Orthophotos de la Ville de Lausanne (2008)","start_date":"1994","subsidized":"yes","addr":[{"addr:city":"Lausanne","addr:postcode":"1010","addr:street":"Chemin de Praz-Séchaud","addr:housenumber":"23"},{"addr:city":"Lausanne","addr:postcode":"1010","addr:street":"Chemin de Praz-Séchaud","addr:housenumber":"21"}],"id":"way/45124684","start_date_parsed":"1994-01-01T00:00:00.000Z","owner:website":"https://schl.ch/","owner:start_date":"1920-01-01T00:00:00Z","owner:swiss_business_uid":"CHE-107.036.838"},"geometry":{"type":"Polygon","coordinates":[[[6.6643949,46.540273],[6.664395,46.5402526],[6.6642694,46.5402524],[6.6642696,46.5401888],[6.6643403,46.5401889],[6.6643406,46.540125],[6.6644155,46.5401251],[6.6644158,46.5400629],[6.6644984,46.5400631],[6.6644986,46.5400061],[6.6647066,46.5400064],[6.6647064,46.5400947],[6.6646645,46.5400946],[6.6646268,46.5400946],[6.6646266,46.5401488],[6.6645493,46.5401487],[6.6645491,46.5402135],[6.6645022,46.5402134],[6.6644737,46.5402134],[6.6644735,46.5402731],[6.6643949,46.540273]]]}},{"type":"Feature","id":"way/45253941","properties":{"addr:city":"Lausanne","addr:country":"CH","addr:housenumber":"83 bis","addr:postcode":"1010","addr:street":"Chemin Isabelle-de-Montolieu","building":"apartments","building:flats":"15","building:flats:dog":"no","building:levels":"4","heating":"gas","operator":"Société coopérative d'habitation Lausanne","operator:abbr":"SCHL","operator:type":"cooperative","operator:website":"https://schl.ch/","operator:wikidata":"Q126741196","owner":"Fondation Pro Habitat Lausanne","owner:abbr":"FPHL","owner:type":"foundation","owner:website":"https://schl.ch","roof:levels":"0","roof:shape":"flat","source":"Orthophotos de la Ville de Lausanne (2008)","start_date":"1984","subsidized":"yes","id":"way/45253941","start_date_parsed":"1984-01-01T00:00:00.000Z","operator:start_date":"1920-01-01T00:00:00Z","operator:swiss_business_uid":"CHE-107.036.838"},"geometry":{"type":"Polygon","coordinates":[[[6.649174,46.5449915],[6.649027,46.5451147],[6.6490108,46.5451056],[6.6489564,46.5451512],[6.6489206,46.545131],[6.6488946,46.5451528],[6.648881,46.5451451],[6.6487264,46.5452748],[6.6485965,46.5452015],[6.6487589,46.5450654],[6.6488049,46.5450913],[6.6489904,46.5449358],[6.6490027,46.5449428],[6.6490369,46.5449141],[6.649174,46.5449915]]]}},{"type":"Feature","id":"way/45774270","properties":{"building":"apartments","building:flats":"87","building:flats:dog":"no","building:levels":"4","heating":"oil","last_renovation":"1998","owner":"Société coopérative d'habitation Lausanne","owner:abbr":"SCHL","owner:type":"cooperative","owner:wikidata":"Q126741196","roof:levels":"1","roof:shape":"hipped","source":"Orthophotos de la Ville de Lausanne (2008)","start_date":"1949","subsidized":"yes","addr":[{"addr:city":"Lausanne","addr:postcode":"1004","addr:street":"Chemin de Renens","addr:housenumber":"34"},{"addr:city":"Lausanne","addr:postcode":"1004","addr:street":"Chemin de Renens","addr:housenumber":"36"},{"addr:city":"Lausanne","addr:postcode":"1004","addr:street":"Chemin de Renens","addr:housenumber":"38"},{"addr:city":"Lausanne","addr:postcode":"1004","addr:street":"Chemin de Renens","addr:housenumber":"40"},{"addr:city":"Lausanne","addr:postcode":"1004","addr:street":"Chemin de Renens","addr:housenumber":"42"},{"addr:city":"Lausanne","addr:postcode":"1004","addr:street":"Chemin de Renens","addr:housenumber":"44"},{"addr:city":"Lausanne","addr:postcode":"1004","addr:street":"Chemin de Renens","addr:housenumber":"46"},{"addr:city":"Lausanne","addr:postcode":"1004","addr:street":"Chemin de Renens","addr:housenumber":"48"}],"id":"way/45774270","start_date_parsed":"1949-01-01T00:00:00.000Z","last_renovation_parsed":"1998-01-01T00:00:00.000Z","owner:website":"https://schl.ch/","owner:start_date":"1920-01-01T00:00:00Z","owner:swiss_business_uid":"CHE-107.036.838"},"geometry":{"type":"Polygon","coordinates":[[[6.6072669,46.5283347],[6.6071506,46.527966],[6.6070798,46.5279765],[6.6070851,46.5279933],[6.6070171,46.5280034],[6.6070117,46.5279864],[6.6068587,46.5280091],[6.606865,46.5280292],[6.6067939,46.5280398],[6.6067876,46.5280196],[6.6066464,46.5280406],[6.6066531,46.528062],[6.6065919,46.5280711],[6.6065839,46.5280456],[6.6064496,46.5280656],[6.6064581,46.5280923],[6.6063694,46.5281056],[6.6063618,46.5280817],[6.6062329,46.528101],[6.6062426,46.5281315],[6.6060463,46.5281609],[6.606004,46.5280269],[6.607134,46.527858],[6.6071439,46.5278893],[6.6073023,46.5278657],[6.607442,46.5283086],[6.6072669,46.5283347]]]}},{"type":"Feature","id":"way/46485578","properties":{"building":"apartments","building:flats":"12","building:flats:dog":"no","building:levels":"4","heating":"gas","owner":"Société coopérative d'habitation Lausanne","owner:abbr":"SCHL","owner:type":"cooperative","owner:wikidata":"Q126741196","roof:levels":"0","roof:shape":"hipped","source":"Orthophotos de la Ville de Lausanne (2008)","start_date":"2002","addr":[{"addr:city":"Lausanne","addr:postcode":"1018","addr:street":"Route des Plaines-du-Loup","addr:housenumber":"34"},{"addr:city":"Lausanne","addr:postcode":"1018","addr:street":"Route des Plaines-du-Loup","addr:housenumber":"36"}],"id":"way/46485578","start_date_parsed":"2002-01-01T00:00:00.000Z","owner:website":"https://schl.ch/","owner:start_date":"1920-01-01T00:00:00Z","owner:swiss_business_uid":"CHE-107.036.838"},"geometry":{"type":"Polygon","coordinates":[[[6.62387,46.537756],[6.6238912,46.5377589],[6.6238797,46.5378961],[6.6238146,46.5378932],[6.6234385,46.5378785],[6.623316,46.5378737],[6.6233711,46.5377374],[6.6234532,46.5377406],[6.62387,46.537756]]]}},{"type":"Feature","id":"way/46609164","properties":{"addr:city":"Lausanne","addr:country":"CH","addr:housenumber":"1","addr:postcode":"1007","addr:street":"Chemin du Reposoir","building":"apartments","building:flats":"9","building:flats:dog":"no","building:levels":"4","copyright":"OpenAddresses","heating":"oil","oa:imported_by":"sbrunner","oa:lat":"46.51845551","oa:lon":"6.61889267","oa:version":"oa2osm - 0.2 - sax","owner":"Société coopérative d'habitation Lausanne","owner:abbr":"SCHL","owner:type":"cooperative","owner:wikidata":"Q126741196","roof:levels":"1","roof:shape":"hipped","source":"Orthophoto Ville de Lausanne 2008","start_date":"2000","id":"way/46609164","start_date_parsed":"2000-01-01T00:00:00.000Z","owner:website":"https://schl.ch/","owner:start_date":"1920-01-01T00:00:00Z","owner:swiss_business_uid":"CHE-107.036.838"},"geometry":{"type":"Polygon","coordinates":[[[6.618972,46.5185147],[6.6187671,46.5184764],[6.6188079,46.5183733],[6.6188633,46.5183837],[6.6188666,46.5183748],[6.6189637,46.518393],[6.6189605,46.5184018],[6.6190127,46.5184116],[6.618972,46.5185147]]]}},{"type":"Feature","id":"way/46611484","properties":{"addr:city":"Lausanne","addr:country":"CH","addr:housenumber":"52","addr:postcode":"1007","addr:street":"Avenue Marc-Dufour","building":"apartments","building:flats:dog":"no","building:levels":"5","copyright":"OpenAddresses","heating":"gas","last_renovation":"1999","oa:imported_by":"sbrunner","oa:lat":"46.51735687","oa:lon":"6.61717606","oa:version":"oa2osm - 0.2 - sax","owner":"Société coopérative d'habitation Lausanne","owner:abbr":"SCHL","owner:type":"cooperative","owner:wikidata":"Q126741196","roof:levels":"1","roof:shape":"hipped","source":"Orthophoto Ville de Lausanne 2008","start_date":"1948","id":"way/46611484","start_date_parsed":"1948-01-01T00:00:00.000Z","last_renovation_parsed":"1999-01-01T00:00:00.000Z","owner:website":"https://schl.ch/","owner:start_date":"1920-01-01T00:00:00Z","owner:swiss_business_uid":"CHE-107.036.838"},"geometry":{"type":"Polygon","coordinates":[[[6.6171118,46.5174425],[6.6170005,46.5173524],[6.6170544,46.5173209],[6.6170625,46.5173267],[6.6171422,46.5172801],[6.617134,46.5172743],[6.617186,46.5172438],[6.6172973,46.5173338],[6.6172443,46.5173649],[6.6172336,46.5173571],[6.6172068,46.5173728],[6.6172175,46.5173813],[6.6172184,46.5173851],[6.6172171,46.5173884],[6.6172127,46.517392],[6.6172085,46.5173929],[6.6172038,46.5173927],[6.6172002,46.5173909],[6.6171899,46.5173827],[6.6171524,46.5174046],[6.6171631,46.5174124],[6.6171118,46.5174425]]]}},{"type":"Feature","id":"way/46612340","properties":{"addr:city":"Lausanne","addr:country":"CH","addr:housenumber":"3","addr:postcode":"1007","addr:street":"Chemin du Mont-Tendre","building":"apartments","building:flats:dog":"no","copyright":"OpenAddresses","heating":"oil","last_renovation":"1979","oa:imported_by":"sbrunner","oa:lat":"46.51757050","oa:lon":"6.62242222","oa:version":"oa2osm - 0.2 - sax","owner":"Société coopérative d'habitation Lausanne","owner:abbr":"SCHL","owner:type":"cooperative","owner:wikidata":"Q126741196","source":"Orthophoto Ville de Lausanne 2008","start_date":"1928","id":"way/46612340","start_date_parsed":"1928-01-01T00:00:00.000Z","last_renovation_parsed":"1979-01-01T00:00:00.000Z","owner:website":"https://schl.ch/","owner:start_date":"1920-01-01T00:00:00Z","owner:swiss_business_uid":"CHE-107.036.838"},"geometry":{"type":"Polygon","coordinates":[[[6.622339,46.5175081],[6.6225072,46.5174854],[6.622532,46.5175723],[6.6224761,46.5175798],[6.622485,46.517611],[6.6223726,46.5176262],[6.622339,46.5175081]]]}},{"type":"Feature","id":"way/46612385","properties":{"addr:city":"Lausanne","addr:country":"CH","addr:housenumber":"16","addr:postcode":"1007","addr:street":"Chemin du Mont-Tendre","building":"apartments","building:flats:dog":"no","copyright":"OpenAddresses","heating":"oil","last_renovation":"1979","oa:imported_by":"sbrunner","oa:lat":"46.51803207","oa:lon":"6.62153721","oa:version":"oa2osm - 0.2 - sax","owner":"Société coopérative d'habitation Lausanne","owner:abbr":"SCHL","owner:type":"cooperative","owner:wikidata":"Q126741196","source":"Orthophoto Ville de Lausanne 2008","start_date":"1928","id":"way/46612385","start_date_parsed":"1928-01-01T00:00:00.000Z","last_renovation_parsed":"1979-01-01T00:00:00.000Z","owner:website":"https://schl.ch/","owner:start_date":"1920-01-01T00:00:00Z","owner:swiss_business_uid":"CHE-107.036.838"},"geometry":{"type":"Polygon","coordinates":[[[6.6214706,46.5181017],[6.6214296,46.518009],[6.6216815,46.5179563],[6.6217225,46.518049],[6.6214706,46.5181017]]]}},{"type":"Feature","id":"way/46612387","properties":{"addr:city":"Lausanne","addr:country":"CH","addr:housenumber":"5","addr:postcode":"1007","addr:street":"Chemin du Mont-Tendre","building":"apartments","building:flats:dog":"no","copyright":"OpenAddresses","heating":"oil","last_renovation":"1979","oa:imported_by":"sbrunner","oa:lat":"46.51778793","oa:lon":"6.62152100","oa:version":"oa2osm - 0.2 - sax","owner":"Société coopérative d'habitation Lausanne","owner:abbr":"SCHL","owner:type":"cooperative","owner:wikidata":"Q126741196","source":"Orthophoto Ville de Lausanne 2008","start_date":"1928","id":"way/46612387","start_date_parsed":"1928-01-01T00:00:00.000Z","last_renovation_parsed":"1979-01-01T00:00:00.000Z","owner:website":"https://schl.ch/","owner:start_date":"1920-01-01T00:00:00Z","owner:swiss_business_uid":"CHE-107.036.838"},"geometry":{"type":"Polygon","coordinates":[[[6.6214648,46.517858],[6.6214262,46.5177681],[6.621662,46.5177201],[6.6217007,46.5178099],[6.6214648,46.517858]]]}},{"type":"Feature","id":"way/46764190","properties":{"building":"apartments","heating":"oil","last_renovation":"1977","owner":"Société coopérative d'habitation Lausanne","owner:abbr":"SCHL","owner:type":"cooperative","owner:wikidata":"Q126741196","start_date":"1926","addr":[{"addr:city":"Lausanne","addr:postcode":"1007","addr:street":"Avenue de Cour","addr:housenumber":"56"},{"addr:city":"Lausanne","addr:postcode":"1007","addr:street":"Avenue de Cour","addr:housenumber":"54"}],"id":"way/46764190","start_date_parsed":"1926-01-01T00:00:00.000Z","last_renovation_parsed":"1977-01-01T00:00:00.000Z","owner:website":"https://schl.ch/","owner:start_date":"1920-01-01T00:00:00Z","owner:swiss_business_uid":"CHE-107.036.838"},"geometry":{"type":"Polygon","coordinates":[[[6.6159359,46.5156586],[6.6159607,46.5157478],[6.6155651,46.5157999],[6.6155403,46.5157107],[6.6159359,46.5156586]]]}},{"type":"Feature","id":"way/46927439","properties":{"building":"apartments","building:flats":"66","heating":"district_heating","last_renovation":"1999","owner":"Société coopérative d'habitation Lausanne","owner:abbr":"SCHL","owner:type":"cooperative","owner:wikidata":"Q126741196","source":"Orthophoto Ville de Lausanne 2008","start_date":"1963","addr":[{"addr:city":"Lausanne","addr:postcode":"1004","addr:street":"Chemin du Boisy","addr:housenumber":"28"},{"addr:city":"Lausanne","addr:postcode":"1004","addr:street":"Chemin du Boisy","addr:housenumber":"30"},{"addr:city":"Lausanne","addr:postcode":"1004","addr:street":"Chemin du Boisy","addr:housenumber":"32"}],"id":"way/46927439","start_date_parsed":"1963-01-01T00:00:00.000Z","last_renovation_parsed":"1999-01-01T00:00:00.000Z","owner:website":"https://schl.ch/","owner:start_date":"1920-01-01T00:00:00Z","owner:swiss_business_uid":"CHE-107.036.838"},"geometry":{"type":"Polygon","coordinates":[[[6.6151308,46.535215],[6.6152203,46.5351065],[6.6153339,46.5351508],[6.6155073,46.5352185],[6.6158127,46.5353376],[6.6158643,46.5353578],[6.6157749,46.5354663],[6.6151308,46.535215]]]}},{"type":"Feature","id":"way/46927443","properties":{"building":"apartments","building:flats":"66","heating":"district_heating","last_renovation":"1999","owner":"Société coopérative d'habitation Lausanne","owner:abbr":"SCHL","owner:type":"cooperative","owner:wikidata":"Q126741196","source":"Orthophoto Ville de Lausanne 2008","start_date":"1963","addr":[{"addr:city":"Lausanne","addr:postcode":"1004","addr:street":"Chemin du Boisy","addr:housenumber":"22"},{"addr:city":"Lausanne","addr:postcode":"1004","addr:street":"Chemin du Boisy","addr:housenumber":"24"},{"addr:city":"Lausanne","addr:postcode":"1004","addr:street":"Chemin du Boisy","addr:housenumber":"26"}],"id":"way/46927443","start_date_parsed":"1963-01-01T00:00:00.000Z","last_renovation_parsed":"1999-01-01T00:00:00.000Z","owner:website":"https://schl.ch/","owner:start_date":"1920-01-01T00:00:00Z","owner:swiss_business_uid":"CHE-107.036.838"},"geometry":{"type":"Polygon","coordinates":[[[6.6154402,46.534856],[6.6155327,46.5347466],[6.615627,46.5347843],[6.6158217,46.5348622],[6.6161093,46.5349771],[6.6161797,46.5350053],[6.6160872,46.5351148],[6.615981,46.5350723],[6.6154402,46.534856]]]}},{"type":"Feature","id":"way/46927445","properties":{"building":"apartments","building:flats":"66","heating":"district_heating","last_renovation":"1999","owner":"Société coopérative d'habitation Lausanne","owner:abbr":"SCHL","owner:type":"cooperative","owner:wikidata":"Q126741196","source":"Orthophoto Ville de Lausanne 2008","start_date":"1963","addr":[{"addr:city":"Lausanne","addr:postcode":"1004","addr:street":"Chemin du Boisy","addr:housenumber":"16"},{"addr:city":"Lausanne","addr:postcode":"1004","addr:street":"Chemin du Boisy","addr:housenumber":"20"},{"addr:city":"Lausanne","addr:postcode":"1004","addr:street":"Chemin du Boisy","addr:housenumber":"18"},{"addr:city":"Lausanne","addr:postcode":"1004","addr:street":"Chemin Guillaume-de-Pierrefleur","addr:housenumber":"9b"}],"id":"way/46927445","start_date_parsed":"1963-01-01T00:00:00.000Z","last_renovation_parsed":"1999-01-01T00:00:00.000Z","owner:website":"https://schl.ch/","owner:start_date":"1920-01-01T00:00:00Z","owner:swiss_business_uid":"CHE-107.036.838"},"geometry":{"type":"Polygon","coordinates":[[[6.6157586,46.5344709],[6.6158627,46.5343676],[6.6159838,46.5344254],[6.6161421,46.5345009],[6.6163578,46.5346037],[6.6164905,46.534667],[6.6163864,46.5347703],[6.6157586,46.5344709]]]}},{"type":"Feature","id":"way/46929108","properties":{"building":"apartments","building:flats":"34","building:flats:dog":"no","building:levels":"6","heating":"district_heating","operator":"Société coopérative d'habitation Lausanne","operator:abbr":"SCHL","operator:type":"cooperative","operator:website":"https://schl.ch/","operator:wikidata":"Q126741196","owner":"Fondation Pro Habitat Lausanne","owner:abbr":"FPHL","owner:type":"foundation","owner:website":"https://schl.ch","roof:levels":"0","roof:shape":"flat","source":"Orthophotos de la Ville de Lausanne (2008)","start_date":"1990","addr":[{"addr:city":"Lausanne","addr:postcode":"1018","addr:street":"Avenue de Gratta-Paille","addr:housenumber":"18"},{"addr:city":"Lausanne","addr:postcode":"1018","addr:street":"Avenue de Gratta-Paille","addr:housenumber":"20"},{"addr:city":"Lausanne","addr:postcode":"1018","addr:street":"Avenue de Gratta-Paille","addr:housenumber":"19"}],"id":"way/46929108","start_date_parsed":"1990-01-01T00:00:00.000Z","operator:start_date":"1920-01-01T00:00:00Z","operator:swiss_business_uid":"CHE-107.036.838"},"geometry":{"type":"Polygon","coordinates":[[[6.619718,46.5357543],[6.6196775,46.535775],[6.6196603,46.5357609],[6.6196522,46.5357656],[6.6196554,46.5357695],[6.6196591,46.5357747],[6.6196591,46.5357808],[6.6196526,46.5357877],[6.619645,46.5357913],[6.6196342,46.5357918],[6.619625,46.5357896],[6.6196181,46.5357838],[6.6196097,46.5357877],[6.619625,46.5358029],[6.61958,46.5358269],[6.61957,46.5358191],[6.619483,46.5358656],[6.619493,46.5358734],[6.6194524,46.5358951],[6.6194384,46.5358821],[6.619428,46.5358876],[6.6194336,46.5358926],[6.619436,46.5359014],[6.6194308,46.5359086],[6.6194244,46.5359114],[6.6194195,46.5359135],[6.6194107,46.5359135],[6.6194015,46.5359111],[6.6193943,46.5359064],[6.6193862,46.5359105],[6.6194011,46.5359251],[6.6193613,46.5359463],[6.6193528,46.5359392],[6.6192661,46.5359854],[6.6192746,46.5359925],[6.6192286,46.536017],[6.6192141,46.5360043],[6.6192049,46.5360088],[6.6192097,46.5360132],[6.6192129,46.5360198],[6.6192113,46.5360264],[6.6192037,46.5360322],[6.6191937,46.536035],[6.6191844,46.536035],[6.619178,46.5360325],[6.6191704,46.536027],[6.619162,46.5360311],[6.6191788,46.5360463],[6.6191379,46.5360684],[6.6190677,46.5360068],[6.619048,46.5360154],[6.6190071,46.5359806],[6.6196229,46.5356464],[6.6196643,46.5356809],[6.6196466,46.5356905],[6.619718,46.5357543]]]}},{"type":"Feature","id":"way/46929109","properties":{"building":"apartments","operator":"Société coopérative d'habitation Lausanne","operator:abbr":"SCHL","operator:type":"cooperative","operator:website":"https://schl.ch/","operator:wikidata":"Q126741196","owner":"Fondation Pro Habitat Lausanne","owner:abbr":"FPHL","owner:type":"foundation","owner:website":"https://schl.ch","source":"Orthophotos de la Ville de Lausanne (2008)","addr":[{"addr:city":"Lausanne","addr:postcode":"1018","addr:street":"Avenue de Gratta-Paille","addr:housenumber":"21"}],"id":"way/46929109","operator:start_date":"1920-01-01T00:00:00Z","operator:swiss_business_uid":"CHE-107.036.838"},"geometry":{"type":"Polygon","coordinates":[[[6.6198339,46.5357891],[6.6197745,46.5357091],[6.6196946,46.5356014],[6.6198201,46.5355573],[6.6199594,46.5357451],[6.6198339,46.5357891]]]}},{"type":"Feature","id":"way/46988278","properties":{"addr:city":"Lausanne","addr:country":"CH","addr:housenumber":"60","addr:postcode":"1004","addr:street":"Avenue de France","building":"apartments","building:flats":"11","building:flats:dog":"no","building:levels":"5","copyright":"OpenAddresses","heating":"oil","last_renovation":"2012","oa:imported_by":"sbrunner","oa:lat":"46.52725601","oa:lon":"6.61963272","oa:version":"oa2osm - 0.2 - sax","operator":"Société coopérative d'habitation Lausanne","operator:abbr":"SCHL","operator:type":"cooperative","operator:website":"https://schl.ch/","operator:wikidata":"Q126741196","owner":"Fondation Pro Habitat Lausanne","owner:abbr":"FPHL","owner:type":"foundation","owner:website":"https://schl.ch","roof:levels":"0","source":"Orthophoto Ville de Lausanne 2008","start_date":"1932","subsidized":"yes","id":"way/46988278","start_date_parsed":"1932-01-01T00:00:00.000Z","last_renovation_parsed":"2012-01-01T00:00:00.000Z","operator:start_date":"1920-01-01T00:00:00Z","operator:swiss_business_uid":"CHE-107.036.838"},"geometry":{"type":"Polygon","coordinates":[[[6.6196243,46.5273248],[6.6195534,46.5272493],[6.6195481,46.5272404],[6.6195472,46.5272296],[6.6195514,46.5272209],[6.6195594,46.527213],[6.6197045,46.52712],[6.6198175,46.5272021],[6.6196243,46.5273248]]]}},{"type":"Feature","id":"way/47005678","properties":{"addr:city":"Lausanne","addr:country":"CH","addr:housenumber":"9","addr:postcode":"1018","addr:street":"Chemin de la Lisière","building":"apartments","building:flats":"15","building:flats:dog":"no","building:levels":"4","heating":"district_heating","owner":"Société coopérative d'habitation Lausanne","owner:abbr":"SCHL","owner:type":"cooperative","owner:wikidata":"Q126741196","roof:levels":"1","roof:shape":"mansard","source":"Orthophoto Ville de Lausanne 2008","start_date":"2001","id":"way/47005678","start_date_parsed":"2001-01-01T00:00:00.000Z","owner:website":"https://schl.ch/","owner:start_date":"1920-01-01T00:00:00Z","owner:swiss_business_uid":"CHE-107.036.838"},"geometry":{"type":"Polygon","coordinates":[[[6.6365407,46.5341694],[6.6364832,46.5342392],[6.6362932,46.5341651],[6.6364593,46.5339634],[6.6366461,46.5340362],[6.6365892,46.5341053],[6.6365191,46.534078],[6.6364674,46.5341408],[6.6365407,46.5341694]]]}},{"type":"Feature","id":"way/47262651","properties":{"building":"apartments","building:flats":"22","building:flats:dog":"no","building:levels":"4","heating":"district_heating","last_renovation":"1995","owner":"Société coopérative d'habitation Lausanne","owner:abbr":"SCHL","owner:type":"cooperative","owner:wikidata":"Q126741196","roof:levels":"0","roof:shape":"hipped","source":"Orthophoto Ville de Lausanne 2008","start_date":"1947","subsidized":"yes","addr":[{"addr:city":"Lausanne","addr:postcode":"1018","addr:street":"Chemin de la Forêt","addr:housenumber":"10"},{"addr:city":"Lausanne","addr:postcode":"1018","addr:street":"Chemin de la Forêt","addr:housenumber":"12"}],"id":"way/47262651","start_date_parsed":"1947-01-01T00:00:00.000Z","last_renovation_parsed":"1995-01-01T00:00:00.000Z","owner:website":"https://schl.ch/","owner:start_date":"1920-01-01T00:00:00Z","owner:swiss_business_uid":"CHE-107.036.838"},"geometry":{"type":"Polygon","coordinates":[[[6.6351792,46.5347501],[6.6351778,46.5348468],[6.6346525,46.5348431],[6.6346539,46.5347465],[6.6351792,46.5347501]]]}},{"type":"Feature","id":"way/47264599","properties":{"addr:city":"Lausanne","addr:country":"CH","addr:housenumber":"7","addr:postcode":"1018","addr:street":"Chemin de la Lisière","building":"apartments","building:flats":"12","building:flats:dog":"no","building:levels":"5","heating":"district_heating","owner":"Société coopérative d'habitation Lausanne","owner:abbr":"SCHL","owner:type":"cooperative","owner:wikidata":"Q126741196","roof:shape":"flat","source":"Orthophoto Ville de Lausanne 2008","start_date":"1982","id":"way/47264599","start_date_parsed":"1982-01-01T00:00:00.000Z","owner:website":"https://schl.ch/","owner:start_date":"1920-01-01T00:00:00Z","owner:swiss_business_uid":"CHE-107.036.838"},"geometry":{"type":"Polygon","coordinates":[[[6.636402,46.5337225],[6.6363417,46.5338493],[6.6360952,46.5337939],[6.6361554,46.533667],[6.636402,46.5337225]]]}},{"type":"Feature","id":"way/47317995","properties":{"addr:city":"Lausanne","addr:housenumber":"32","addr:postcode":"1018","addr:street":"Rue de la Borde","building":"apartments","building:levels":"9","heating":"district_heating","last_renovation":"1996","operator":"Société coopérative d'habitation Lausanne","operator:abbr":"SCHL","operator:type":"cooperative","operator:website":"https://schl.ch/","operator:wikidata":"Q126741196","owner":"Fondation Pro Habitat Lausanne","owner:abbr":"FPHL","owner:type":"foundation","owner:website":"https://schl.ch","roof:levels":"0","roof:shape":"flat","source":"Orthophoto Ville de Lausanne 2008","start_date":"1964","subsidized":"yes","id":"way/47317995","start_date_parsed":"1964-01-01T00:00:00.000Z","last_renovation_parsed":"1996-01-01T00:00:00.000Z","operator:start_date":"1920-01-01T00:00:00Z","operator:swiss_business_uid":"CHE-107.036.838"},"geometry":{"type":"Polygon","coordinates":[[[6.631398,46.5312779],[6.6313497,46.5312247],[6.6313925,46.5312047],[6.6313843,46.5311602],[6.6316046,46.5311083],[6.6318303,46.5310907],[6.6318503,46.5311333],[6.6319031,46.5311371],[6.6318885,46.5311903],[6.6317465,46.531221],[6.6317238,46.5311897],[6.6315481,46.5312178],[6.6315436,46.5312541],[6.631398,46.5312779]]]}},{"type":"Feature","id":"way/47317997","properties":{"addr:city":"Lausanne","addr:housenumber":"30","addr:postcode":"1018","addr:street":"Rue de la Borde","building":"apartments","building:flats":"45","building:flats:dog":"no","building:levels":"9","heating":"district_heating","last_renovation":"1999","operator":"Société coopérative d'habitation Lausanne","operator:abbr":"SCHL","operator:type":"cooperative","operator:website":"https://schl.ch/","operator:wikidata":"Q126741196","owner":"Fondation Pro Habitat Lausanne","owner:abbr":"FPHL","owner:type":"foundation","owner:website":"https://schl.ch","roof:levels":"0","roof:shape":"flat","source":"Orthophoto Ville de Lausanne 2008","start_date":"1967","subsidized":"yes","id":"way/47317997","start_date_parsed":"1967-01-01T00:00:00.000Z","last_renovation_parsed":"1999-01-01T00:00:00.000Z","operator:start_date":"1920-01-01T00:00:00Z","operator:swiss_business_uid":"CHE-107.036.838"},"geometry":{"type":"Polygon","coordinates":[[[6.631891,46.5308709],[6.6318246,46.5308252],[6.6318628,46.5307989],[6.6318246,46.5307494],[6.6319866,46.5306498],[6.6321823,46.5305841],[6.6322332,46.5306254],[6.6322833,46.530611],[6.6323224,46.5306736],[6.6321832,46.5307388],[6.6321249,46.5307156],[6.6320248,46.5307607],[6.6320366,46.5308076],[6.631891,46.5308709]]]}},{"type":"Feature","id":"way/47318003","properties":{"building":"apartments","building:flats:dog":"no","building:levels":"7","heating":"district_heating","operator":"Société coopérative d'habitation Lausanne","operator:abbr":"SCHL","operator:type":"cooperative","operator:website":"https://schl.ch/","operator:wikidata":"Q126741196","owner":"Fondation Pro Habitat Lausanne","owner:abbr":"FPHL","owner:type":"foundation","owner:website":"https://schl.ch","roof:levels":"0","roof:shape":"flat","source":"Orthophoto Ville de Lausanne 2012","start_date":"2011","subsidized":"yes","addr":[{"addr:city":"Lausanne","addr:postcode":"1018","addr:street":"Rue de la Borde","addr:housenumber":"40"},{"addr:city":"Lausanne","addr:postcode":"1018","addr:street":"Rue de la Borde","addr:housenumber":"42"},{"addr:city":"Lausanne","addr:postcode":"1018","addr:street":"Rue de la Borde","addr:housenumber":"44"}],"id":"way/47318003","start_date_parsed":"2011-01-01T00:00:00.000Z","operator:start_date":"1920-01-01T00:00:00Z","operator:swiss_business_uid":"CHE-107.036.838"},"geometry":{"type":"Polygon","coordinates":[[[6.6307228,46.5320795],[6.6303416,46.5318706],[6.6304182,46.5318044],[6.630619,46.531631],[6.6307061,46.5316787],[6.6305739,46.5318721],[6.630838,46.5319676],[6.6307228,46.5320795]]]}},{"type":"Feature","id":"way/47318005","properties":{"addr:city":"Lausanne","addr:housenumber":"38","addr:postcode":"1018","addr:street":"Rue de la Borde","building":"apartments","building:flats:dog":"no","building:levels":"7","heating":"district_heating","operator":"Société coopérative d'habitation Lausanne","operator:abbr":"SCHL","operator:type":"cooperative","operator:website":"https://schl.ch/","operator:wikidata":"Q126741196","owner":"Fondation Pro Habitat Lausanne","owner:abbr":"FPHL","owner:type":"foundation","owner:website":"https://schl.ch","roof:levels":"0","roof:shape":"flat","source":"Orthophoto Ville de Lausanne 2012","start_date":"2011","subsidized":"yes","id":"way/47318005","start_date_parsed":"2011-01-01T00:00:00.000Z","operator:start_date":"1920-01-01T00:00:00Z","operator:swiss_business_uid":"CHE-107.036.838"},"geometry":{"type":"Polygon","coordinates":[[[6.6309179,46.531861],[6.6308332,46.5318187],[6.6309881,46.5316261],[6.6310987,46.5316897],[6.6309179,46.531861]]]}},{"type":"Feature","id":"way/47318006","properties":{"building":"apartments","building:flats:dog":"no","building:levels":"7","heating":"district_heating","operator":"Société coopérative d'habitation Lausanne","operator:abbr":"SCHL","operator:type":"cooperative","operator:website":"https://schl.ch/","operator:wikidata":"Q126741196","owner":"Fondation Pro Habitat Lausanne","owner:abbr":"FPHL","owner:type":"foundation","owner:website":"https://schl.ch","roof:levels":"0","roof:shape":"flat","source":"Orthophoto Ville de Lausanne 2012","start_date":"2011","subsidized":"yes","addr":[{"addr:city":"Lausanne","addr:postcode":"1018","addr:street":"Rue de la Borde","addr:housenumber":"34"},{"addr:city":"Lausanne","addr:postcode":"1018","addr:street":"Rue de la Borde","addr:housenumber":"36"}],"id":"way/47318006","start_date_parsed":"2011-01-01T00:00:00.000Z","operator:start_date":"1920-01-01T00:00:00Z","operator:swiss_business_uid":"CHE-107.036.838"},"geometry":{"type":"Polygon","coordinates":[[[6.6310446,46.5312559],[6.6313968,46.5314576],[6.6312969,46.5315401],[6.6310287,46.5313865],[6.6308242,46.5315555],[6.6307403,46.5315075],[6.6310446,46.5312559]]]}},{"type":"Feature","id":"way/48454550","properties":{"building":"apartments","building:flats":"25","building:levels":"5","copyright":"OpenAddresses","heating":"oil","last_renovation":"2002","oa:imported_by":"sbrunner","oa:lat":"46.51733780","oa:lon":"6.64559650","oa:version":"oa2osm - 0.2 - sax","operator":"Société coopérative d'habitation Lausanne","operator:abbr":"SCHL","operator:type":"cooperative","operator:website":"https://schl.ch/","operator:wikidata":"Q126741196","owner":"Fondation Pro Habitat Lausanne","owner:abbr":"FPHL","owner:type":"foundation","owner:website":"https://schl.ch","roof:levels":"1","roof:shape":"mansard","source":"Orthophoto Ville de Lausanne 2008","start_date":"1946","addr":[{"addr:city":"Lausanne","addr:postcode":"1005","addr:street":"Avenue des Mousquines","addr:housenumber":"7"},{"addr:city":"Lausanne","addr:postcode":"1005","addr:street":"Chemin de Chandolin","addr:housenumber":"3"}],"id":"way/48454550","start_date_parsed":"1946-01-01T00:00:00.000Z","last_renovation_parsed":"2002-01-01T00:00:00.000Z","operator:start_date":"1920-01-01T00:00:00Z","operator:swiss_business_uid":"CHE-107.036.838"},"geometry":{"type":"Polygon","coordinates":[[[6.645711,46.5175309],[6.6456368,46.5174189],[6.6455517,46.5174455],[6.6454949,46.5173598],[6.6457303,46.5172859],[6.6458613,46.5174838],[6.645711,46.5175309]]]}},{"type":"Feature","id":"way/48544511","properties":{"addr:city":"Lausanne","addr:country":"CH","addr:housenumber":"17","addr:postcode":"1010","addr:street":"Chemin des Eterpeys","building":"apartments","owner":"Société coopérative d'habitation Lausanne","owner:abbr":"SCHL","owner:type":"cooperative","owner:wikidata":"Q126741196","source":"Orthophotos de la Ville de Lausanne (2008)","id":"way/48544511","owner:website":"https://schl.ch/","owner:start_date":"1920-01-01T00:00:00Z","owner:swiss_business_uid":"CHE-107.036.838"},"geometry":{"type":"Polygon","coordinates":[[[6.6611504,46.535572],[6.6612487,46.5354588],[6.6613795,46.5354235],[6.6613907,46.5354542],[6.6614479,46.5354797],[6.6613096,46.5356319],[6.6611504,46.535572]]]}},{"type":"Feature","id":"way/48544514","properties":{"addr:city":"Lausanne","addr:country":"CH","addr:housenumber":"6","addr:postcode":"1010","addr:street":"Chemin des Eterpeys","building":"apartments","building:flats:dog":"no","heating":"gas","operator":"Société coopérative d'habitation Lausanne","operator:abbr":"SCHL","operator:type":"cooperative","operator:website":"https://schl.ch/","operator:wikidata":"Q126741196","owner":"Fondation Pro Habitat Lausanne","owner:abbr":"FPHL","owner:type":"foundation","owner:website":"https://schl.ch","source":"Orthophotos de la Ville de Lausanne (2008)","start_date":"1998","subsidized":"yes","id":"way/48544514","start_date_parsed":"1998-01-01T00:00:00.000Z","operator:start_date":"1920-01-01T00:00:00Z","operator:swiss_business_uid":"CHE-107.036.838"},"geometry":{"type":"Polygon","coordinates":[[[6.6628052,46.5363976],[6.6628473,46.5363464],[6.662836,46.5363419],[6.6628669,46.5363053],[6.6628814,46.5363111],[6.6629207,46.5362645],[6.6629077,46.5362593],[6.6629377,46.5362236],[6.662953,46.5362297],[6.663014,46.5361573],[6.663102,46.5361947],[6.6631063,46.5361964],[6.663069,46.5362407],[6.6630624,46.5362381],[6.6630367,46.5362686],[6.6630716,46.5362825],[6.6630395,46.5363206],[6.6630672,46.5363317],[6.6630323,46.5363731],[6.6630038,46.5363617],[6.6629698,46.5364021],[6.662932,46.536387],[6.6629066,46.5364172],[6.6629131,46.5364198],[6.6628963,46.5364399],[6.6628052,46.5363976]]]}},{"type":"Feature","id":"way/48544552","properties":{"addr:city":"Lausanne","addr:country":"CH","addr:housenumber":"13","addr:postcode":"1010","addr:street":"Chemin des Eterpeys","building":"apartments","building:flats:dog":"no","heating":"gas","owner":"Société coopérative d'habitation Lausanne","owner:abbr":"SCHL","owner:type":"cooperative","owner:wikidata":"Q126741196","source":"Orthophotos de la Ville de Lausanne (2008)","start_date":"1987","subsidized":"yes","id":"way/48544552","start_date_parsed":"1987-01-01T00:00:00.000Z","owner:website":"https://schl.ch/","owner:start_date":"1920-01-01T00:00:00Z","owner:swiss_business_uid":"CHE-107.036.838"},"geometry":{"type":"Polygon","coordinates":[[[6.6617144,46.5358143],[6.6618364,46.535804],[6.6618852,46.5359407],[6.6618334,46.5359509],[6.6618435,46.5359824],[6.6617816,46.5359943],[6.6617793,46.5359779],[6.6617489,46.5359648],[6.661718,46.5359706],[6.6616668,46.5358323],[6.6617013,46.5358282],[6.6617081,46.535821],[6.6617144,46.5358143]]]}},{"type":"Feature","id":"way/48544574","properties":{"addr:city":"Lausanne","addr:country":"CH","addr:housenumber":"2","addr:postcode":"1010","addr:street":"Chemin des Eterpeys","building":"apartments","building:flats:dog":"no","building:levels":"6","heating":"gas","operator":"Société coopérative d'habitation Lausanne","operator:abbr":"SCHL","operator:type":"cooperative","operator:website":"https://schl.ch/","operator:wikidata":"Q126741196","owner":"Fondation Pro Habitat Lausanne","owner:abbr":"FPHL","owner:type":"foundation","owner:website":"https://schl.ch","source":"Orthophotos de la Ville de Lausanne (2008)","start_date":"1998","subsidized":"yes","id":"way/48544574","start_date_parsed":"1998-01-01T00:00:00.000Z","operator:start_date":"1920-01-01T00:00:00Z","operator:swiss_business_uid":"CHE-107.036.838"},"geometry":{"type":"Polygon","coordinates":[[[6.6635374,46.5358214],[6.6634838,46.5358008],[6.6634954,46.5357866],[6.663345,46.5357288],[6.6633604,46.5357098],[6.6633137,46.5356919],[6.6633557,46.5356402],[6.663385,46.5356514],[6.6634188,46.5356097],[6.6634034,46.5355996],[6.663442,46.5355529],[6.6634855,46.5355698],[6.6634972,46.5355556],[6.6636493,46.535615],[6.6636574,46.5356052],[6.6637035,46.5356232],[6.6636683,46.535666],[6.6636757,46.5356689],[6.6636432,46.5357087],[6.663612,46.5356966],[6.6635871,46.5357271],[6.6636176,46.5357389],[6.6635862,46.5357773],[6.6635764,46.5357735],[6.6635374,46.5358214]]]}},{"type":"Feature","id":"way/49580943","properties":{"addr:city":"Lausanne","addr:country":"CH","addr:housenumber":"7","addr:postcode":"1010","addr:street":"Route de Berne","building":"apartments","building:flats":"16","building:flats:dog":"no","heating":"district_heating","last_renovation":"2018","owner":"Société coopérative d'habitation Lausanne","owner:abbr":"SCHL","owner:type":"cooperative","owner:wikidata":"Q126741196","source":"Orthophotos de la Ville de Lausanne (2008)","start_date":"1906","id":"way/49580943","start_date_parsed":"1906-01-01T00:00:00.000Z","last_renovation_parsed":"2018-01-01T00:00:00.000Z","owner:website":"https://schl.ch/","owner:start_date":"1920-01-01T00:00:00Z","owner:swiss_business_uid":"CHE-107.036.838"},"geometry":{"type":"Polygon","coordinates":[[[6.6468723,46.5340564],[6.6468876,46.5338785],[6.6470522,46.5338852],[6.6470369,46.5340631],[6.6468723,46.5340564]]]}},{"type":"Feature","id":"way/51264694","properties":{"building:flats:dog":"no","building:levels":"4","building:part":"apartments","heating":"district_heating","operator":"Société coopérative d'habitation Lausanne","operator:abbr":"SCHL","operator:type":"cooperative","operator:website":"https://schl.ch/","operator:wikidata":"Q126741196","owner":"Fondation Pro Habitat Lausanne","owner:abbr":"FPHL","owner:type":"foundation","owner:website":"https://schl.ch","roof:levels":"0","roof:shape":"flat","source":"Lausanne - Orthophoto technique 2012","start_date":"2005","subsidized":"yes","addr":[{"addr:city":"Lausanne","addr:postcode":"1012","addr:street":"Avenue du Temple","addr:housenumber":"10f"},{"addr:city":"Lausanne","addr:postcode":"1012","addr:street":"Avenue du Temple","addr:housenumber":"10g"}],"id":"way/51264694","start_date_parsed":"2005-01-01T00:00:00.000Z","operator:start_date":"1920-01-01T00:00:00Z","operator:swiss_business_uid":"CHE-107.036.838"},"geometry":{"type":"Polygon","coordinates":[[[6.6528019,46.5300434],[6.6527075,46.5299322],[6.6527403,46.529919],[6.6529001,46.5298549],[6.6529182,46.5298762],[6.652952,46.5298626],[6.6529336,46.5298409],[6.653123,46.5297649],[6.6531982,46.5298536],[6.6532157,46.5298743],[6.6531378,46.5299056],[6.6530243,46.5299511],[6.6530111,46.5299356],[6.6529791,46.5299485],[6.6529942,46.5299663],[6.6529042,46.5300024],[6.6528019,46.5300434]]]}},{"type":"Feature","id":"way/51551710","properties":{"addr:city":"Lausanne","addr:country":"CH","addr:housenumber":"10c","addr:postcode":"1012","addr:street":"Avenue du Temple","building:flats:dog":"no","building:levels":"4","building:part":"apartments","heating":"district_heating","operator":"Société coopérative d'habitation Lausanne","operator:abbr":"SCHL","operator:type":"cooperative","operator:website":"https://schl.ch/","operator:wikidata":"Q126741196","owner":"Fondation Pro Habitat Lausanne","owner:abbr":"FPHL","owner:type":"foundation","owner:website":"https://schl.ch","roof:levels":"0","roof:shape":"flat","source":"Orthophotos de la Ville de Lausanne (2008)","start_date":"2005","subsidized":"yes","id":"way/51551710","start_date_parsed":"2005-01-01T00:00:00.000Z","operator:start_date":"1920-01-01T00:00:00Z","operator:swiss_business_uid":"CHE-107.036.838"},"geometry":{"type":"Polygon","coordinates":[[[6.6536844,46.5292771],[6.6535139,46.5292099],[6.6536582,46.5290367],[6.6538287,46.5291039],[6.6536844,46.5292771]]]}},{"type":"Feature","id":"way/51551711","properties":{"addr:city":"Lausanne","addr:country":"CH","addr:housenumber":"10b","addr:postcode":"1012","addr:street":"Avenue du Temple","building:flats:dog":"no","building:levels":"4","building:part":"apartments","heating":"district_heating","operator":"Société coopérative d'habitation Lausanne","operator:abbr":"SCHL","operator:type":"cooperative","operator:website":"https://schl.ch/","operator:wikidata":"Q126741196","owner":"Fondation Pro Habitat Lausanne","owner:abbr":"FPHL","owner:type":"foundation","owner:website":"https://schl.ch","roof:levels":"0","roof:shape":"flat","source":"Orthophotos de la Ville de Lausanne (2008)","start_date":"2005","subsidized":"yes","id":"way/51551711","start_date_parsed":"2005-01-01T00:00:00.000Z","operator:start_date":"1920-01-01T00:00:00Z","operator:swiss_business_uid":"CHE-107.036.838"},"geometry":{"type":"Polygon","coordinates":[[[6.6535052,46.5294977],[6.6533994,46.529456],[6.6533348,46.5294305],[6.653479,46.5292573],[6.6536495,46.5293245],[6.6535052,46.5294977]]]}},{"type":"Feature","id":"way/51551713","properties":{"building:flats:dog":"no","building:levels":"4","building:part":"apartments","heating":"district_heating","operator":"Société coopérative d'habitation Lausanne","operator:abbr":"SCHL","operator:type":"cooperative","operator:website":"https://schl.ch/","operator:wikidata":"Q126741196","owner":"Fondation Pro Habitat Lausanne","owner:abbr":"FPHL","owner:type":"foundation","owner:website":"https://schl.ch","roof:levels":"0","roof:shape":"flat","source":"Lausanne - Orthophoto technique 2012","start_date":"2005","subsidized":"yes","addr":[{"addr:city":"Lausanne","addr:postcode":"1012","addr:street":"Avenue du Temple","addr:housenumber":"10d"},{"addr:city":"Lausanne","addr:postcode":"1012","addr:street":"Avenue du Temple","addr:housenumber":"10e"}],"id":"way/51551713","start_date_parsed":"2005-01-01T00:00:00.000Z","operator:start_date":"1920-01-01T00:00:00Z","operator:swiss_business_uid":"CHE-107.036.838"},"geometry":{"type":"Polygon","coordinates":[[[6.6535817,46.5297302],[6.6535617,46.5297064],[6.6534868,46.5296169],[6.6537087,46.529529],[6.6537252,46.5295487],[6.6537549,46.5295369],[6.6537367,46.5295152],[6.6539536,46.5294291],[6.6540477,46.5295415],[6.6539498,46.5295803],[6.6538286,46.5296284],[6.6538187,46.5296166],[6.6537904,46.5296278],[6.6538027,46.5296426],[6.6537132,46.5296781],[6.6535817,46.5297302]]]}},{"type":"Feature","id":"way/52565755","properties":{"building":"apartments","building:flats":"121","building:levels":"6","owner":"Société coopérative d'habitation Lausanne","owner:abbr":"SCHL","owner:type":"cooperative","owner:wikidata":"Q126741196","roof:levels":"0","source":"Orthophoto Ville de Lausanne 2008","addr":[{"addr:city":"Lausanne","addr:postcode":"1004","addr:street":"Avenue de Morges","addr:housenumber":"157"},{"addr:city":"Lausanne","addr:postcode":"1004","addr:street":"Avenue de Morges","addr:housenumber":"155"},{"addr:city":"Lausanne","addr:postcode":"1004","addr:street":"Avenue de Morges","addr:housenumber":"153"},{"addr:city":"Lausanne","addr:postcode":"1004","addr:street":"Avenue de Morges","addr:housenumber":"151"},{"addr:city":"Lausanne","addr:postcode":"1004","addr:street":"Avenue de Morges","addr:housenumber":"159"},{"addr:city":"Lausanne","addr:postcode":"1004","addr:street":"Rue de Genève","addr:housenumber":"96"},{"addr:city":"Lausanne","addr:postcode":"1004","addr:street":"Rue de Genève","addr:housenumber":"94"},{"addr:city":"Lausanne","addr:postcode":"1004","addr:street":"Rue de Genève","addr:housenumber":"92"},{"addr:city":"Lausanne","addr:postcode":"1004","addr:street":"Avenue de Morges","addr:housenumber":"147"},{"addr:city":"Lausanne","addr:postcode":"1004","addr:street":"Avenue de Morges","addr:housenumber":"149"}],"id":"way/52565755","owner:website":"https://schl.ch/","owner:start_date":"1920-01-01T00:00:00Z","owner:swiss_business_uid":"CHE-107.036.838"},"geometry":{"type":"Polygon","coordinates":[[[6.6120628,46.5257627],[6.6120846,46.5262232],[6.6120205,46.5262246],[6.6120213,46.5262421],[6.6115227,46.5262532],[6.6115219,46.5262356],[6.6114621,46.526237],[6.6114403,46.5257766],[6.6120628,46.5257627]]]}},{"type":"Feature","id":"way/53647151","properties":{"building":"apartments","building:flats":"60","building:flats:dog":"no","building:levels":"5","copyright":"OpenAddresses","heating":"gas","last_renovation":"1999","oa:imported_by":"sbrunner","oa:lat":"46.52130890","oa:lon":"6.61889267","oa:version":"oa2osm - 0.2 - sax","operator":"Société coopérative d'habitation Lausanne","operator:abbr":"SCHL","operator:type":"cooperative","operator:website":"https://schl.ch/","operator:wikidata":"Q126741196","owner":"Fondation Pro Habitat Lausanne","owner:abbr":"FPHL","owner:type":"foundation","owner:website":"https://schl.ch","roof:levels":"0","source":"Orthophoto Ville de Lausanne 2008","start_date":"1933","subsidized":"yes","addr":[{"addr:city":"Lausanne","addr:postcode":"1007","addr:street":"Avenue de Tivoli","addr:housenumber":"38"},{"addr:city":"Lausanne","addr:postcode":"1007","addr:street":"Avenue de Tivoli","addr:housenumber":"40"},{"addr:city":"Lausanne","addr:postcode":"1007","addr:street":"Avenue de Tivoli","addr:housenumber":"42"},{"addr:city":"Lausanne","addr:postcode":"1007","addr:street":"Avenue de Tivoli","addr:housenumber":"34"},{"addr:city":"Lausanne","addr:postcode":"1007","addr:street":"Avenue de Tivoli","addr:housenumber":"36"}],"id":"way/53647151","start_date_parsed":"1933-01-01T00:00:00.000Z","last_renovation_parsed":"1999-01-01T00:00:00.000Z","operator:start_date":"1920-01-01T00:00:00Z","operator:swiss_business_uid":"CHE-107.036.838"},"geometry":{"type":"Polygon","coordinates":[[[6.6188175,46.5210871],[6.6189448,46.5210923],[6.6189285,46.5212816],[6.6189428,46.5212944],[6.6192211,46.5213014],[6.6192506,46.5212807],[6.6192748,46.521098],[6.6193982,46.5211049],[6.6193638,46.5214079],[6.6187913,46.5213909],[6.6188175,46.5210871]]]}},{"type":"Feature","id":"way/53746088","properties":{"building":"apartments","heating":"oil","last_renovation":"1977","owner":"Société coopérative d'habitation Lausanne","owner:abbr":"SCHL","owner:type":"cooperative","owner:wikidata":"Q126741196","start_date":"1926","addr":[{"addr:city":"Lausanne","addr:postcode":"1007","addr:street":"Avenue de Cour","addr:housenumber":"68"},{"addr:city":"Lausanne","addr:postcode":"1007","addr:street":"Avenue de Cour","addr:housenumber":"66"},{"addr:city":"Lausanne","addr:postcode":"1007","addr:street":"Avenue de Cour","addr:housenumber":"64"}],"id":"way/53746088","start_date_parsed":"1926-01-01T00:00:00.000Z","last_renovation_parsed":"1977-01-01T00:00:00.000Z","owner:website":"https://schl.ch/","owner:start_date":"1920-01-01T00:00:00Z","owner:swiss_business_uid":"CHE-107.036.838"},"geometry":{"type":"Polygon","coordinates":[[[6.6157816,46.5163033],[6.6156564,46.5163207],[6.615532,46.5158981],[6.6156573,46.5158806],[6.6157816,46.5163033]]]}},{"type":"Feature","id":"way/53746102","properties":{"building":"apartments","building:flats":"52","building:levels":"5","heating":"gas","last_renovation":"1998","owner":"Société coopérative d'habitation Lausanne","owner:abbr":"SCHL","owner:type":"cooperative","owner:wikidata":"Q126741196","roof:levels":"0","start_date":"1936","addr":[{"addr:city":"Lausanne","addr:postcode":"1007","addr:street":"Chemin de Fontenay","addr:housenumber":"6"},{"addr:city":"Lausanne","addr:postcode":"1007","addr:street":"Chemin de Fontenay","addr:housenumber":"8"},{"addr:city":"Lausanne","addr:postcode":"1007","addr:street":"Chemin de Fontenay","addr:housenumber":"10"},{"addr:city":"Lausanne","addr:postcode":"1007","addr:street":"Chemin de Fontenay","addr:housenumber":"12"},{"addr:city":"Lausanne","addr:postcode":"1007","addr:street":"Chemin de Fontenay","addr:housenumber":"14"}],"id":"way/53746102","start_date_parsed":"1936-01-01T00:00:00.000Z","last_renovation_parsed":"1998-01-01T00:00:00.000Z","owner:website":"https://schl.ch/","owner:start_date":"1920-01-01T00:00:00Z","owner:swiss_business_uid":"CHE-107.036.838"},"geometry":{"type":"Polygon","coordinates":[[[6.6191642,46.5176572],[6.6191702,46.5176415],[6.6191931,46.517582],[6.6191844,46.5175722],[6.6190893,46.5175887],[6.6190576,46.5175005],[6.6192442,46.5174656],[6.6192955,46.5175022],[6.619347,46.517539],[6.6192962,46.5176629],[6.619312,46.5176659],[6.6191919,46.517967],[6.6190676,46.5182788],[6.6189121,46.5182479],[6.6189476,46.5181692],[6.6189661,46.5181739],[6.6189695,46.518165],[6.6190184,46.5180374],[6.6190554,46.5179409],[6.6191642,46.5176572]]]}},{"type":"Feature","id":"way/53746105","properties":{"building":"apartments","building:flats:dog":"no","building:levels":"5","copyright":"OpenAddresses","heating":"gas","last_renovation":"1999","oa:imported_by":"sbrunner","oa:lat":"46.51752090","oa:lon":"6.61739588","oa:version":"oa2osm - 0.2 - sax","owner":"Société coopérative d'habitation Lausanne","owner:abbr":"SCHL","owner:type":"cooperative","owner:wikidata":"Q126741196","roof:levels":"1","roof:shape":"hipped","source":"Orthophoto Ville de Lausanne 2008","start_date":"1948","addr":[{"addr:city":"Lausanne","addr:postcode":"1007","addr:street":"Avenue Marc-Dufour","addr:housenumber":"60"},{"addr:city":"Lausanne","addr:postcode":"1007","addr:street":"Avenue Marc-Dufour","addr:housenumber":"58"},{"addr:city":"Lausanne","addr:postcode":"1007","addr:street":"Avenue Marc-Dufour","addr:housenumber":"56"},{"addr:city":"Lausanne","addr:postcode":"1007","addr:street":"Avenue Marc-Dufour","addr:housenumber":"54"}],"id":"way/53746105","start_date_parsed":"1948-01-01T00:00:00.000Z","last_renovation_parsed":"1999-01-01T00:00:00.000Z","owner:website":"https://schl.ch/","owner:start_date":"1920-01-01T00:00:00Z","owner:swiss_business_uid":"CHE-107.036.838"},"geometry":{"type":"Polygon","coordinates":[[[6.6172627,46.5175213],[6.6179831,46.5171022],[6.6180765,46.5171783],[6.617356,46.5175973],[6.6172627,46.5175213]]]}},{"type":"Feature","id":"way/53746116","properties":{"building":"apartments","building:flats":"36","building:flats:dog":"no","copyright":"OpenAddresses","heating":"oil","last_renovation":"2000","oa:imported_by":"sbrunner","oa:lat":"46.51793289","oa:lon":"6.61846876","oa:version":"oa2osm - 0.2 - sax","owner":"Société coopérative d'habitation Lausanne","owner:abbr":"SCHL","owner:type":"cooperative","owner:wikidata":"Q126741196","roof:levels":"1","roof:shape":"mansard","source":"Orthophoto Ville de Lausanne 2008","start_date":"1948","addr":[{"addr:city":"Lausanne","addr:postcode":"1007","addr:street":"Chemin du Reposoir","addr:housenumber":"3"},{"addr:city":"Lausanne","addr:postcode":"1007","addr:street":"Chemin du Reposoir","addr:housenumber":"5"},{"addr:city":"Lausanne","addr:postcode":"1007","addr:street":"Chemin du Reposoir","addr:housenumber":"5bis"}],"id":"way/53746116","start_date_parsed":"1948-01-01T00:00:00.000Z","last_renovation_parsed":"2000-01-01T00:00:00.000Z","owner:website":"https://schl.ch/","owner:start_date":"1920-01-01T00:00:00Z","owner:swiss_business_uid":"CHE-107.036.838"},"geometry":{"type":"Polygon","coordinates":[[[6.6186604,46.5183242],[6.6185362,46.5183418],[6.6184875,46.5181783],[6.6184381,46.5180124],[6.6183858,46.517837],[6.6185101,46.5178195],[6.6185623,46.5179947],[6.6186116,46.5181605],[6.6186604,46.5183242]]]}},{"type":"Feature","id":"way/55341974","properties":{"building":"apartments","building:flats":"22","building:flats:dog":"no","building:levels":"4","copyright":"OpenAddresses","heating":"oil","last_renovation":"1995","oa:imported_by":"sbrunner","oa:lat":"46.50881195","oa:lon":"6.62461090","oa:version":"oa2osm - 0.2 - sax","operator":"Société coopérative d'habitation Lausanne","operator:abbr":"SCHL","operator:type":"cooperative","operator:website":"https://schl.ch/","operator:wikidata":"Q126741196","owner":"Fondation Pro Habitat Lausanne","owner:abbr":"FPHL","owner:type":"foundation","owner:website":"https://schl.ch","roof:levels":"1","roof:shape":"hipped","source":"Orthophotos Ville de Lausanne 2008","start_date":"1947","subsidized":"yes","addr":[{"addr:city":"Lausanne","addr:postcode":"1007","addr:street":"Avenue Frédéric-César-de-La-Harpe","addr:housenumber":"46"},{"addr:city":"Lausanne","addr:postcode":"1007","addr:street":"Avenue Frédéric-César-de-La-Harpe","addr:housenumber":"44"}],"id":"way/55341974","start_date_parsed":"1947-01-01T00:00:00.000Z","last_renovation_parsed":"1995-01-01T00:00:00.000Z","operator:start_date":"1920-01-01T00:00:00Z","operator:swiss_business_uid":"CHE-107.036.838"},"geometry":{"type":"Polygon","coordinates":[[[6.6249066,46.5089603],[6.6247766,46.5090098],[6.6245582,46.5087383],[6.6246881,46.5086888],[6.6249066,46.5089603]]]}},{"type":"Feature","id":"way/55341975","properties":{"building":"apartments","building:flats":"22","building:flats:dog":"no","building:levels":"4","copyright":"OpenAddresses","heating":"oil","last_renovation":"1995","oa:imported_by":"sbrunner","oa:lat":"46.50899124","oa:lon":"6.62432146","oa:version":"oa2osm - 0.2 - sax","operator":"Société coopérative d'habitation Lausanne","operator:abbr":"SCHL","operator:type":"cooperative","operator:website":"https://schl.ch/","operator:wikidata":"Q126741196","owner":"Fondation Pro Habitat Lausanne","owner:abbr":"FPHL","owner:type":"foundation","owner:website":"https://schl.ch","roof:levels":"1","roof:shape":"hipped","source":"Orthophotos Ville de Lausanne 2008","start_date":"1947","subsidized":"yes","addr":[{"addr:city":"Lausanne","addr:postcode":"1007","addr:street":"Avenue Frédéric-César-de-La-Harpe","addr:housenumber":"50"},{"addr:city":"Lausanne","addr:postcode":"1007","addr:street":"Avenue Frédéric-César-de-La-Harpe","addr:housenumber":"48"}],"id":"way/55341975","start_date_parsed":"1947-01-01T00:00:00.000Z","last_renovation_parsed":"1995-01-01T00:00:00.000Z","operator:start_date":"1920-01-01T00:00:00Z","operator:swiss_business_uid":"CHE-107.036.838"},"geometry":{"type":"Polygon","coordinates":[[[6.6245905,46.5091256],[6.624457,46.5091773],[6.6242351,46.5089056],[6.6243685,46.5088539],[6.6245905,46.5091256]]]}},{"type":"Feature","id":"way/55341996","properties":{"building":"apartments","building:flats":"22","building:flats:dog":"no","building:levels":"4","copyright":"OpenAddresses","heating":"oil","last_renovation":"1995","oa:imported_by":"sbrunner","oa:lat":"46.50865173","oa:lon":"6.62495995","oa:version":"oa2osm - 0.2 - sax","operator":"Société coopérative d'habitation Lausanne","operator:abbr":"SCHL","operator:type":"cooperative","operator:website":"https://schl.ch/","operator:wikidata":"Q126741196","owner":"Fondation Pro Habitat Lausanne","owner:abbr":"FPHL","owner:type":"foundation","owner:website":"https://schl.ch","roof:levels":"1","roof:shape":"hipped","source":"Orthophotos Ville de Lausanne 2008","start_date":"1947","subsidized":"yes","addr":[{"addr:city":"Lausanne","addr:postcode":"1007","addr:street":"Avenue Frédéric-César-de-La-Harpe","addr:housenumber":"42"},{"addr:city":"Lausanne","addr:postcode":"1007","addr:street":"Avenue Frédéric-César-de-La-Harpe","addr:housenumber":"40"}],"id":"way/55341996","start_date_parsed":"1947-01-01T00:00:00.000Z","last_renovation_parsed":"1995-01-01T00:00:00.000Z","operator:start_date":"1920-01-01T00:00:00Z","operator:swiss_business_uid":"CHE-107.036.838"},"geometry":{"type":"Polygon","coordinates":[[[6.6252264,46.5087924],[6.625097,46.5088423],[6.6248745,46.508569],[6.6250038,46.5085191],[6.6252264,46.5087924]]]}},{"type":"Feature","id":"way/55341997","properties":{"building":"apartments","building:flats":"22","building:flats:dog":"no","building:levels":"4","copyright":"OpenAddresses","heating":"oil","last_renovation":"1995","oa:imported_by":"sbrunner","oa:lat":"46.50845718","oa:lon":"6.62526560","oa:version":"oa2osm - 0.2 - sax","operator":"Société coopérative d'habitation Lausanne","operator:abbr":"SCHL","operator:type":"cooperative","operator:website":"https://schl.ch/","operator:wikidata":"Q126741196","owner":"Fondation Pro Habitat Lausanne","owner:abbr":"FPHL","owner:type":"foundation","owner:website":"https://schl.ch","roof:levels":"1","roof:shape":"hipped","source":"Orthophotos Ville de Lausanne 2008","start_date":"1947","subsidized":"yes","addr":[{"addr:city":"Lausanne","addr:postcode":"1007","addr:street":"Avenue Frédéric-César-de-La-Harpe","addr:housenumber":"36"},{"addr:city":"Lausanne","addr:postcode":"1007","addr:street":"Avenue Frédéric-César-de-La-Harpe","addr:housenumber":"38"}],"id":"way/55341997","start_date_parsed":"1947-01-01T00:00:00.000Z","last_renovation_parsed":"1995-01-01T00:00:00.000Z","operator:start_date":"1920-01-01T00:00:00Z","operator:swiss_business_uid":"CHE-107.036.838"},"geometry":{"type":"Polygon","coordinates":[[[6.6255457,46.5086221],[6.625413,46.5086722],[6.6251884,46.5083905],[6.6253211,46.5083404],[6.6255457,46.5086221]]]}},{"type":"Feature","id":"way/67381374","properties":{"building":"apartments","building:flats":"22","building:flats:dog":"no","heating":"gas","last_renovation":"2003","owner":"Société coopérative d'habitation Lausanne","owner:abbr":"SCHL","owner:type":"cooperative","owner:wikidata":"Q126741196","roof:shape":"hipped","source":"Orthophoto Ville de Lausanne 2008","start_date":"1958","subsidized":"yes","addr":[{"addr:city":"Lausanne","addr:postcode":"1004","addr:street":"Chemin de la Tour-Grise","addr:housenumber":"10"},{"addr:city":"Lausanne","addr:postcode":"1004","addr:street":"Chemin de la Tour-Grise","addr:housenumber":"12"}],"id":"way/67381374","start_date_parsed":"1958-01-01T00:00:00.000Z","last_renovation_parsed":"2003-01-01T00:00:00.000Z","owner:website":"https://schl.ch/","owner:start_date":"1920-01-01T00:00:00Z","owner:swiss_business_uid":"CHE-107.036.838"},"geometry":{"type":"Polygon","coordinates":[[[6.6150128,46.5200352],[6.6151753,46.5200161],[6.6152414,46.5202827],[6.6150789,46.5203018],[6.6150128,46.5200352]]]}},{"type":"Feature","id":"way/67381377","properties":{"building":"apartments","building:flats":"22","building:flats:dog":"no","heating":"gas","last_renovation":"2003","owner":"Société coopérative d'habitation Lausanne","owner:abbr":"SCHL","owner:type":"cooperative","owner:wikidata":"Q126741196","roof:shape":"hipped","source":"Orthophoto Ville de Lausanne 2008","start_date":"1958","subsidized":"yes","addr":[{"addr:city":"Lausanne","addr:postcode":"1004","addr:street":"Chemin de la Tour-Grise","addr:housenumber":"18"},{"addr:city":"Lausanne","addr:postcode":"1004","addr:street":"Chemin de la Tour-Grise","addr:housenumber":"20"}],"id":"way/67381377","start_date_parsed":"1958-01-01T00:00:00.000Z","last_renovation_parsed":"2003-01-01T00:00:00.000Z","owner:website":"https://schl.ch/","owner:start_date":"1920-01-01T00:00:00Z","owner:swiss_business_uid":"CHE-107.036.838"},"geometry":{"type":"Polygon","coordinates":[[[6.6140901,46.5201447],[6.614246,46.520127],[6.6143091,46.5203908],[6.6141533,46.5204084],[6.6140901,46.5201447]]]}},{"type":"Feature","id":"way/67381379","properties":{"building":"apartments","building:flats":"22","building:flats:dog":"no","heating":"gas","last_renovation":"2003","owner":"Société coopérative d'habitation Lausanne","owner:abbr":"SCHL","owner:type":"cooperative","owner:wikidata":"Q126741196","roof:shape":"hipped","source":"Orthophoto Ville de Lausanne 2008","start_date":"1958","subsidized":"yes","addr":[{"addr:city":"Lausanne","addr:postcode":"1004","addr:street":"Chemin de la Tour-Grise","addr:housenumber":"16"},{"addr:city":"Lausanne","addr:postcode":"1004","addr:street":"Chemin de la Tour-Grise","addr:housenumber":"14"}],"id":"way/67381379","start_date_parsed":"1958-01-01T00:00:00.000Z","last_renovation_parsed":"2003-01-01T00:00:00.000Z","owner:website":"https://schl.ch/","owner:start_date":"1920-01-01T00:00:00Z","owner:swiss_business_uid":"CHE-107.036.838"},"geometry":{"type":"Polygon","coordinates":[[[6.614772,46.5203345],[6.6146096,46.5203516],[6.6145503,46.5200852],[6.6147126,46.520068],[6.614772,46.5203345]]]}},{"type":"Feature","id":"way/71188320","properties":{"building":"apartments","building:flats":"46","building:flats:dog":"no","building:levels":"6","heating":"district_heating","last_renovation":"2011","owner":"Société coopérative d'habitation Lausanne","owner:abbr":"SCHL","owner:type":"cooperative","owner:wikidata":"Q126741196","roof:levels":"0","roof:shape":"flat","source":"Orthophotos de la Ville de Lausanne (2008)","start_date":"1975","addr":[{"addr:city":"Lausanne","addr:postcode":"1010","addr:street":"Chemin Isabelle-de-Montolieu","addr:housenumber":"121"},{"addr:city":"Lausanne","addr:postcode":"1010","addr:street":"Chemin Isabelle-de-Montolieu","addr:housenumber":"123"},{"addr:city":"Lausanne","addr:postcode":"1010","addr:street":"Chemin Isabelle-de-Montolieu","addr:housenumber":"125"},{"addr:city":"Lausanne","addr:postcode":"1010","addr:street":"Chemin Isabelle-de-Montolieu","addr:housenumber":"127"}],"id":"way/71188320","start_date_parsed":"1975-01-01T00:00:00.000Z","last_renovation_parsed":"2011-01-01T00:00:00.000Z","owner:website":"https://schl.ch/","owner:start_date":"1920-01-01T00:00:00Z","owner:swiss_business_uid":"CHE-107.036.838"},"geometry":{"type":"Polygon","coordinates":[[[6.646687,46.5438202],[6.6467035,46.5437938],[6.6467182,46.5437981],[6.6467362,46.5437691],[6.6468602,46.543805],[6.6469123,46.5438215],[6.6468317,46.5439511],[6.6468797,46.5439599],[6.6468053,46.5440709],[6.6468357,46.5440775],[6.6467364,46.5442309],[6.6467591,46.5442374],[6.6467097,46.5443283],[6.6465149,46.5442678],[6.646526,46.5442505],[6.6465136,46.5442443],[6.6465288,46.5442159],[6.646543,46.5442189],[6.6465705,46.544171],[6.6465579,46.5441671],[6.6465983,46.5441064],[6.6466099,46.5441086],[6.6466479,46.5440611],[6.6466282,46.5440536],[6.6466505,46.5440219],[6.6466292,46.5440155],[6.6466426,46.5439883],[6.646658,46.5439923],[6.6466857,46.5439419],[6.6466705,46.5439363],[6.6466873,46.5439087],[6.6466515,46.5438993],[6.6466339,46.5438851],[6.6466524,46.5438602],[6.6466688,46.5438649],[6.6467007,46.5438242],[6.646687,46.5438202]]]}},{"type":"Feature","id":"way/87524997","properties":{"addr:city":"Pully","addr:housenumber":"19","addr:postcode":"1009","addr:street":"Chemin des Ramiers","building":"apartments","building:flats:dog":"no","building:levels":"4","heating":"gas","owner":"Société coopérative d'habitation Lausanne","owner:abbr":"SCHL","owner:type":"cooperative","owner:wikidata":"Q126741196","roof:levels":"1","roof:shape":"mansard","source":"Digitalisation on orthophoto Swisstopo level 2","start_date":"1998","id":"way/87524997","start_date_parsed":"1998-01-01T00:00:00.000Z","owner:website":"https://schl.ch/","owner:start_date":"1920-01-01T00:00:00Z","owner:swiss_business_uid":"CHE-107.036.838"},"geometry":{"type":"Polygon","coordinates":[[[6.663668,46.5206801],[6.6636142,46.5205571],[6.6637922,46.5205202],[6.663846,46.5206433],[6.663668,46.5206801]]]}},{"type":"Feature","id":"way/87524998","properties":{"addr:city":"Pully","addr:housenumber":"17","addr:postcode":"1009","addr:street":"Chemin des Ramiers","building":"apartments","building:flats:dog":"no","building:levels":"4","heating":"gas","owner":"Société coopérative d'habitation Lausanne","owner:abbr":"SCHL","owner:type":"cooperative","owner:wikidata":"Q126741196","roof:levels":"1","roof:shape":"mansard","source":"Digitalisation on orthophoto Swisstopo level 2","start_date":"1998","id":"way/87524998","start_date_parsed":"1998-01-01T00:00:00.000Z","owner:website":"https://schl.ch/","owner:start_date":"1920-01-01T00:00:00Z","owner:swiss_business_uid":"CHE-107.036.838"},"geometry":{"type":"Polygon","coordinates":[[[6.6636079,46.52041],[6.6635657,46.5203259],[6.6637083,46.5202959],[6.6637476,46.52038],[6.6636997,46.5203913],[6.6636985,46.5204005],[6.6636925,46.5204082],[6.663679,46.5204139],[6.6636678,46.5204135],[6.6636573,46.5204091],[6.6636519,46.5204013],[6.6636079,46.52041]]]}},{"type":"Feature","id":"way/88441795","properties":{"addr:city":"Romanel-sur-Lausanne","addr:country":"CH","addr:housenumber":"18","addr:postcode":"1032","addr:street":"Chemin de la Covatannaz","building":"apartments","building:flats":"16","building:flats:dog":"no","building:levels":"5","heating":"oil","last_renovation":"2005","owner":"Société coopérative d'habitation Lausanne","owner:abbr":"SCHL","owner:type":"cooperative","owner:wikidata":"Q126741196","roof:levels":"0","source":"Bing 2007","start_date":"1972","id":"way/88441795","start_date_parsed":"1972-01-01T00:00:00.000Z","last_renovation_parsed":"2005-01-01T00:00:00.000Z","owner:website":"https://schl.ch/","owner:start_date":"1920-01-01T00:00:00Z","owner:swiss_business_uid":"CHE-107.036.838"},"geometry":{"type":"Polygon","coordinates":[[[6.6036373,46.5673242],[6.6035769,46.5670997],[6.6037573,46.5670768],[6.6038178,46.5673013],[6.6036373,46.5673242]]]}},{"type":"Feature","id":"way/90683402","properties":{"addr:city":"Pully","addr:housenumber":"36","addr:postcode":"1009","addr:street":"Chemin du Liaudoz","building":"apartments","building:flats:dog":"no","building:levels":"5","heating":"gas","owner":"Société coopérative d'habitation Lausanne","owner:abbr":"SCHL","owner:type":"cooperative","owner:wikidata":"Q126741196","roof:levels":"2","roof:shape":"gabled","source":"Digitaliser sur Orthophoto Swisstopo","start_date":"2002","id":"way/90683402","start_date_parsed":"2002-01-01T00:00:00.000Z","owner:website":"https://schl.ch/","owner:start_date":"1920-01-01T00:00:00Z","owner:swiss_business_uid":"CHE-107.036.838"},"geometry":{"type":"Polygon","coordinates":[[[6.6578049,46.5145619],[6.6578049,46.5144452],[6.6581499,46.5144453],[6.6581499,46.514562],[6.6578049,46.5145619]]]}},{"type":"Feature","id":"way/90685233","properties":{"addr:city":"Pully","addr:housenumber":"34","addr:postcode":"1009","addr:street":"Chemin du Liaudoz","building":"apartments","building:flats:dog":"no","building:levels":"5","heating":"gas","owner":"Société coopérative d'habitation Lausanne","owner:abbr":"SCHL","owner:type":"cooperative","owner:wikidata":"Q126741196","roof:levels":"2","roof:shape":"gabled","source":"Digitaliser sur Orthophoto Swisstopo","start_date":"2002","id":"way/90685233","start_date_parsed":"2002-01-01T00:00:00.000Z","owner:website":"https://schl.ch/","owner:start_date":"1920-01-01T00:00:00Z","owner:swiss_business_uid":"CHE-107.036.838"},"geometry":{"type":"Polygon","coordinates":[[[6.6576566,46.5142682],[6.6577109,46.5141509],[6.6579028,46.5141929],[6.6578486,46.5143102],[6.6576566,46.5142682]]]}},{"type":"Feature","id":"way/90685237","properties":{"addr:city":"Pully","addr:housenumber":"5","addr:postcode":"1009","addr:street":"Chemin du Montillier","building":"apartments","building:flats":"27","building:flats:dog":"no","building:levels":"5","heating":"gas","owner":"Société coopérative d'habitation Lausanne","owner:abbr":"SCHL","owner:type":"cooperative","owner:wikidata":"Q126741196","roof:levels":"1","roof:shape":"hipped","source":"Digitaliser sur Orthophoto Swisstopo","start_date":"1995","id":"way/90685237","start_date_parsed":"1995-01-01T00:00:00.000Z","owner:website":"https://schl.ch/","owner:start_date":"1920-01-01T00:00:00Z","owner:swiss_business_uid":"CHE-107.036.838"},"geometry":{"type":"Polygon","coordinates":[[[6.6585161,46.514126],[6.6580063,46.5140498],[6.6580501,46.5139111],[6.65819,46.513932],[6.6581809,46.513961],[6.65824,46.5139698],[6.6582447,46.513955],[6.6583513,46.513971],[6.6583471,46.5139843],[6.6584073,46.5139933],[6.6584172,46.5139622],[6.658561,46.5139837],[6.6585161,46.514126]]]}},{"type":"Feature","id":"way/93530142","properties":{"addr:city":"Pully","addr:housenumber":"1","addr:postcode":"1009","addr:street":"Chemin du Ruisselet","building":"apartments","building:flats":"16","building:flats:dog":"no","building:levels":"4","heating":"gas","owner":"Société coopérative d'habitation Lausanne","owner:abbr":"SCHL","owner:type":"cooperative","owner:wikidata":"Q126741196","roof:levels":"1","roof:shape":"gabled","source":"Digitaliser sur Orthophoto Swisstopo;Digitaliser sur Orthophoto Swisstopo;Digitaliser sur Orthophoto Swisstopo","start_date":"1986","id":"way/93530142","start_date_parsed":"1986-01-01T00:00:00.000Z","owner:website":"https://schl.ch/","owner:start_date":"1920-01-01T00:00:00Z","owner:swiss_business_uid":"CHE-107.036.838"},"geometry":{"type":"Polygon","coordinates":[[[6.6647603,46.513562],[6.6647625,46.5134069],[6.6651755,46.5134097],[6.6651733,46.5135649],[6.6647603,46.513562]]]}},{"type":"Feature","id":"way/93530144","properties":{"addr:city":"Pully","addr:housenumber":"3","addr:postcode":"1009","addr:street":"Chemin du Ruisselet","building":"apartments","building:flats":"16","building:flats:dog":"no","building:levels":"4","heating":"gas","owner":"Société coopérative d'habitation Lausanne","owner:abbr":"SCHL","owner:type":"cooperative","owner:wikidata":"Q126741196","roof:levels":"1","roof:shape":"gabled","source":"Digitaliser sur Orthophoto Swisstopo;Digitaliser sur Orthophoto Swisstopo;Digitaliser sur Orthophoto Swisstopo","start_date":"1986","id":"way/93530144","start_date_parsed":"1986-01-01T00:00:00.000Z","owner:website":"https://schl.ch/","owner:start_date":"1920-01-01T00:00:00Z","owner:swiss_business_uid":"CHE-107.036.838"},"geometry":{"type":"Polygon","coordinates":[[[6.6641295,46.5137762],[6.6641326,46.5136302],[6.664544,46.5136344],[6.6645409,46.5137804],[6.6641295,46.5137762]]]}},{"type":"Feature","id":"way/98624128","properties":{"addr:city":"Lausanne","addr:country":"CH","addr:housenumber":"113","addr:postcode":"1018","addr:street":"Chemin de Maillefer","building":"apartments","building:flats":"18","building:flats:dog":"no","building:levels":"6","heating":"district_heating","owner":"Société coopérative d'habitation Lausanne","owner:abbr":"SCHL","owner:type":"cooperative","owner:wikidata":"Q126741196","roof:levels":"0","roof:shape":"flat","start_date":"2009","id":"way/98624128","start_date_parsed":"2009-01-01T00:00:00.000Z","owner:website":"https://schl.ch/","owner:start_date":"1920-01-01T00:00:00Z","owner:swiss_business_uid":"CHE-107.036.838"},"geometry":{"type":"Polygon","coordinates":[[[6.6271693,46.5411448],[6.6270595,46.5409779],[6.6273109,46.5408997],[6.627424,46.5410687],[6.6271693,46.5411448]]]}},{"type":"Feature","id":"way/98624130","properties":{"addr:city":"Lausanne","addr:country":"CH","addr:housenumber":"115","addr:postcode":"1018","addr:street":"Chemin de Maillefer","building":"apartments","building:flats":"18","building:flats:dog":"no","building:levels":"6","heating":"district_heating","owner":"Société coopérative d'habitation Lausanne","owner:abbr":"SCHL","owner:type":"cooperative","owner:wikidata":"Q126741196","roof:levels":"0","roof:shape":"flat","start_date":"2009","id":"way/98624130","start_date_parsed":"2009-01-01T00:00:00.000Z","owner:website":"https://schl.ch/","owner:start_date":"1920-01-01T00:00:00Z","owner:swiss_business_uid":"CHE-107.036.838"},"geometry":{"type":"Polygon","coordinates":[[[6.6269803,46.540846],[6.6268694,46.5406779],[6.6271168,46.5406008],[6.6272276,46.5407689],[6.6269803,46.540846]]]}},{"type":"Feature","id":"way/98624132","properties":{"addr:city":"Lausanne","addr:housenumber":"117","addr:postcode":"1018","addr:street":"Chemin de Maillefer","building":"apartments","building:flats":"18","building:flats:dog":"no","building:levels":"6","heating":"district_heating","owner":"Société coopérative d'habitation Lausanne","owner:abbr":"SCHL","owner:type":"cooperative","owner:wikidata":"Q126741196","roof:levels":"0","roof:shape":"flat","source":"Bing","start_date":"2009","id":"way/98624132","start_date_parsed":"2009-01-01T00:00:00.000Z","owner:website":"https://schl.ch/","owner:start_date":"1920-01-01T00:00:00Z","owner:swiss_business_uid":"CHE-107.036.838"},"geometry":{"type":"Polygon","coordinates":[[[6.6267807,46.5405464],[6.6266699,46.5403774],[6.6269182,46.5403004],[6.627029,46.5404694],[6.6267807,46.5405464]]]}},{"type":"Feature","id":"way/98624133","properties":{"addr:city":"Lausanne","addr:country":"CH","addr:housenumber":"107","addr:postcode":"1018","addr:street":"Chemin de Maillefer","building":"apartments","building:flats":"18","building:flats:dog":"no","building:levels":"6","heating":"district_heating","owner":"Société coopérative d'habitation Lausanne","owner:abbr":"SCHL","owner:type":"cooperative","owner:wikidata":"Q126741196","roof:shape":"flat","source":"Bing","start_date":"2009","id":"way/98624133","start_date_parsed":"2009-01-01T00:00:00.000Z","owner:website":"https://schl.ch/","owner:start_date":"1920-01-01T00:00:00Z","owner:swiss_business_uid":"CHE-107.036.838"},"geometry":{"type":"Polygon","coordinates":[[[6.6275397,46.5408494],[6.627419,46.5406779],[6.6276682,46.5405997],[6.6277822,46.5407739],[6.6275397,46.5408494]]]}},{"type":"Feature","id":"way/98624136","properties":{"addr:city":"Lausanne","addr:housenumber":"119","addr:postcode":"1018","addr:street":"Chemin de Maillefer","building":"apartments","building:flats":"17","building:flats:dog":"no","building:levels":"6","heating":"district_heating","owner":"Société coopérative d'habitation Lausanne","owner:abbr":"SCHL","owner:type":"cooperative","owner:wikidata":"Q126741196","roof:shape":"flat","source":"Bing","start_date":"2009","id":"way/98624136","start_date_parsed":"2009-01-01T00:00:00.000Z","owner:website":"https://schl.ch/","owner:start_date":"1920-01-01T00:00:00Z","owner:swiss_business_uid":"CHE-107.036.838"},"geometry":{"type":"Polygon","coordinates":[[[6.6266868,46.5399941],[6.6265771,46.5398177],[6.6268357,46.5397391],[6.6269497,46.5399126],[6.6266868,46.5399941]]]}},{"type":"Feature","id":"way/100528131","properties":{"addr:city":"Epalinges","addr:country":"CH","addr:housenumber":"2","addr:postcode":"1066","addr:street":"Chemin de Moulins","building":"apartments","building:flats":"8","building:flats:dog":"no","building:levels":"3","heating":"oil","owner":"Société coopérative d'habitation Lausanne","owner:abbr":"SCHL","owner:type":"cooperative","owner:wikidata":"Q126741196","roof:levels":"2","roof:shape":"gabled","source":"OrthoPhoto PULLY swisstopo Level 2","start_date":"2002","id":"way/100528131","start_date_parsed":"2002-01-01T00:00:00.000Z","owner:website":"https://schl.ch/","owner:start_date":"1920-01-01T00:00:00Z","owner:swiss_business_uid":"CHE-107.036.838"},"geometry":{"type":"Polygon","coordinates":[[[6.6583679,46.5480651],[6.6585494,46.5479613],[6.6586698,46.5480615],[6.6584884,46.5481653],[6.6583679,46.5480651]]]}},{"type":"Feature","id":"way/100528203","properties":{"addr:city":"Epalinges","addr:country":"CH","addr:housenumber":"14","addr:postcode":"1066","addr:street":"Chemin de Moulins","building":"apartments","building:flats":"8","building:flats:dog":"no","building:levels":"3","heating":"oil","owner":"Société coopérative d'habitation Lausanne","owner:abbr":"SCHL","owner:type":"cooperative","owner:wikidata":"Q126741196","roof:levels":"2","roof:shape":"gabled","source":"OrthoPhoto PULLY swisstopo Level 2","start_date":"2002","id":"way/100528203","start_date_parsed":"2002-01-01T00:00:00.000Z","owner:website":"https://schl.ch/","owner:start_date":"1920-01-01T00:00:00Z","owner:swiss_business_uid":"CHE-107.036.838"},"geometry":{"type":"Polygon","coordinates":[[[6.6578951,46.5487096],[6.6578599,46.5485352],[6.6580642,46.5485155],[6.6580994,46.54869],[6.6578951,46.5487096]]]}},{"type":"Feature","id":"way/100528205","properties":{"addr:city":"Epalinges","addr:country":"CH","addr:housenumber":"12","addr:postcode":"1066","addr:street":"Chemin de Moulins","building":"apartments","building:flats":"8","building:flats:dog":"no","building:levels":"3","heating":"oil","owner":"Société coopérative d'habitation Lausanne","owner:abbr":"SCHL","owner:type":"cooperative","owner:wikidata":"Q126741196","roof:levels":"2","roof:shape":"gabled","source":"OrthoPhoto PULLY swisstopo Level 2","start_date":"2002","id":"way/100528205","start_date_parsed":"2002-01-01T00:00:00.000Z","owner:website":"https://schl.ch/","owner:start_date":"1920-01-01T00:00:00Z","owner:swiss_business_uid":"CHE-107.036.838"},"geometry":{"type":"Polygon","coordinates":[[[6.6578184,46.5482584],[6.6579999,46.5481546],[6.6581203,46.5482548],[6.6579389,46.5483586],[6.6578184,46.5482584]]]}},{"type":"Feature","id":"way/100528231","properties":{"addr:city":"Epalinges","addr:country":"CH","addr:housenumber":"10","addr:postcode":"1066","addr:street":"Chemin de Moulins","building":"apartments","building:flats":"8","building:flats:dog":"no","building:levels":"3","heating":"oil","owner":"Société coopérative d'habitation Lausanne","owner:abbr":"SCHL","owner:type":"cooperative","owner:wikidata":"Q126741196","roof:levels":"2","roof:shape":"gabled","source":"OrthoPhoto PULLY swisstopo Level 2","start_date":"2002","id":"way/100528231","start_date_parsed":"2002-01-01T00:00:00.000Z","owner:website":"https://schl.ch/","owner:start_date":"1920-01-01T00:00:00Z","owner:swiss_business_uid":"CHE-107.036.838"},"geometry":{"type":"Polygon","coordinates":[[[6.6581918,46.549078],[6.6581566,46.5489035],[6.6583609,46.5488839],[6.6583961,46.5490583],[6.6581918,46.549078]]]}},{"type":"Feature","id":"way/100528264","properties":{"addr:city":"Epalinges","addr:country":"CH","addr:housenumber":"6","addr:postcode":"1066","addr:street":"Chemin de Moulins","building":"apartments","building:flats":"8","building:flats:dog":"no","building:levels":"3","heating":"oil","owner":"Société coopérative d'habitation Lausanne","owner:abbr":"SCHL","owner:type":"cooperative","owner:wikidata":"Q126741196","roof:levels":"2","roof:shape":"gabled","source":"OrthoPhoto PULLY swisstopo Level 2","start_date":"2002","id":"way/100528264","start_date_parsed":"2002-01-01T00:00:00.000Z","owner:website":"https://schl.ch/","owner:start_date":"1920-01-01T00:00:00Z","owner:swiss_business_uid":"CHE-107.036.838"},"geometry":{"type":"Polygon","coordinates":[[[6.6585841,46.5484718],[6.6587655,46.548368],[6.658886,46.5484682],[6.6587045,46.548572],[6.6585841,46.5484718]]]}},{"type":"Feature","id":"way/100528395","properties":{"addr:city":"Epalinges","addr:country":"CH","addr:housenumber":"4","addr:postcode":"1066","addr:street":"Chemin de Moulins","building":"apartments","building:flats":"8","building:flats:dog":"no","building:levels":"3","heating":"oil","owner":"Société coopérative d'habitation Lausanne","owner:abbr":"SCHL","owner:type":"cooperative","owner:wikidata":"Q126741196","roof:levels":"2","roof:shape":"gabled","source":"OrthoPhoto PULLY swisstopo Level 2","start_date":"2002","id":"way/100528395","start_date_parsed":"2002-01-01T00:00:00.000Z","owner:website":"https://schl.ch/","owner:start_date":"1920-01-01T00:00:00Z","owner:swiss_business_uid":"CHE-107.036.838"},"geometry":{"type":"Polygon","coordinates":[[[6.6582226,46.5483399],[6.658404,46.5482361],[6.6585245,46.5483363],[6.658389,46.5484138],[6.6583431,46.5484401],[6.6582226,46.5483399]]]}},{"type":"Feature","id":"way/100528407","properties":{"addr:city":"Epalinges","addr:country":"CH","addr:housenumber":"8","addr:postcode":"1066","addr:street":"Chemin de Moulins","building":"apartments","building:flats":"8","building:flats:dog":"no","building:levels":"3","heating":"oil","owner":"Société coopérative d'habitation Lausanne","owner:abbr":"SCHL","owner:type":"cooperative","owner:wikidata":"Q126741196","roof:levels":"2","roof:shape":"gabled","source":"OrthoPhoto PULLY swisstopo Level 2","start_date":"2002","id":"way/100528407","start_date_parsed":"2002-01-01T00:00:00.000Z","owner:website":"https://schl.ch/","owner:start_date":"1920-01-01T00:00:00Z","owner:swiss_business_uid":"CHE-107.036.838"},"geometry":{"type":"Polygon","coordinates":[[[6.658378,46.5487519],[6.6585594,46.5486481],[6.6586799,46.5487483],[6.6584985,46.5488521],[6.658378,46.5487519]]]}},{"type":"Feature","id":"way/104370530","properties":{"addr:city":"Ecublens (VD)","addr:country":"CH","addr:housenumber":"3b","addr:postcode":"1024","addr:street":"Chemin de la Cocarde","building":"apartments","building:flats":"16","building:flats:dog":"no","heating":"gas","owner":"Société coopérative d'habitation Lausanne","owner:abbr":"SCHL","owner:type":"cooperative","owner:wikidata":"Q126741196","source":"Bing","start_date":"1984","id":"way/104370530","start_date_parsed":"1984-01-01T00:00:00.000Z","owner:website":"https://schl.ch/","owner:start_date":"1920-01-01T00:00:00Z","owner:swiss_business_uid":"CHE-107.036.838"},"geometry":{"type":"Polygon","coordinates":[[[6.562491,46.5277781],[6.5627652,46.5277845],[6.5627597,46.5278979],[6.5626483,46.5278953],[6.562642,46.5280257],[6.5624791,46.5280219],[6.562491,46.5277781]]]}},{"type":"Feature","id":"way/104370536","properties":{"addr:city":"Ecublens (VD)","addr:country":"CH","addr:housenumber":"4","addr:postcode":"1024","addr:street":"Chemin de Chantemerle","building":"apartments","building:flats":"16","building:flats:dog":"no","heating":"gas","owner":"Société coopérative d'habitation Lausanne","owner:abbr":"SCHL","owner:type":"cooperative","owner:wikidata":"Q126741196","source":"Bing","start_date":"1984","id":"way/104370536","start_date_parsed":"1984-01-01T00:00:00.000Z","owner:website":"https://schl.ch/","owner:start_date":"1920-01-01T00:00:00Z","owner:swiss_business_uid":"CHE-107.036.838"},"geometry":{"type":"Polygon","coordinates":[[[6.5618979,46.5279293],[6.5621625,46.5279313],[6.5621607,46.5280414],[6.5620597,46.5280407],[6.5620576,46.5281668],[6.561894,46.5281655],[6.5618979,46.5279293]]]}},{"type":"Feature","id":"way/130001183","properties":{"building":"apartments","building:flats":"24","building:flats:dog":"no","building:levels":"3","copyright":"OpenAddresses","heating":"gas","last_renovation":"1997","oa:imported_by":"sbrunner","oa:lat":"46.51163101","oa:lon":"6.63847780","oa:version":"oa2osm - 0.2 - sax","owner":"Société coopérative d'habitation Lausanne","owner:abbr":"SCHL","owner:type":"cooperative","owner:wikidata":"Q126741196","roof:levels":"1","roof:shape":"mansard","source":"Orthophotos Ville de Lausanne 2008","start_date":"1931","addr":[{"addr:city":"Lausanne","addr:postcode":"1006","addr:street":"Chemin des Paleyres","addr:housenumber":"4"},{"addr:city":"Lausanne","addr:postcode":"1006","addr:street":"Chemin des Paleyres","addr:housenumber":"2"},{"addr:city":"Lausanne","addr:postcode":"1006","addr:street":"Chemin des Paleyres","addr:housenumber":"6"}],"id":"way/130001183","start_date_parsed":"1931-01-01T00:00:00.000Z","last_renovation_parsed":"1997-01-01T00:00:00.000Z","owner:website":"https://schl.ch/","owner:start_date":"1920-01-01T00:00:00Z","owner:swiss_business_uid":"CHE-107.036.838"},"geometry":{"type":"Polygon","coordinates":[[[6.6391231,46.5115344],[6.6391445,46.5116322],[6.6384036,46.5117089],[6.6383822,46.5116112],[6.6391231,46.5115344]]]}},{"type":"Feature","id":"way/150067371","properties":{"building":"apartments","building:flats":"43","building:flats:dog":"no","building:levels":"6","heating":"district_heating","owner":"Société coopérative d'habitation Lausanne","owner:abbr":"SCHL","owner:type":"cooperative","owner:wikidata":"Q126741196","roof:levels":"0","roof:shape":"flat","start_date":"2012","addr":[{"addr:city":"Lausanne","addr:postcode":"1018","addr:street":"Chemin de Maillefer","addr:housenumber":"135"},{"addr:city":"Lausanne","addr:postcode":"1018","addr:street":"Chemin de Maillefer","addr:housenumber":"133"},{"addr:city":"Lausanne","addr:postcode":"1018","addr:street":"Chemin de Maillefer","addr:housenumber":"131"},{"addr:city":"Lausanne","addr:postcode":"1018","addr:street":"Chemin de Maillefer","addr:housenumber":"129"}],"id":"way/150067371","start_date_parsed":"2012-01-01T00:00:00.000Z","owner:website":"https://schl.ch/","owner:start_date":"1920-01-01T00:00:00Z","owner:swiss_business_uid":"CHE-107.036.838"},"geometry":{"type":"Polygon","coordinates":[[[6.626643,46.5415041],[6.627352,46.5412792],[6.6274419,46.5414134],[6.6274535,46.5414307],[6.6273567,46.5414614],[6.6273255,46.5414713],[6.6272106,46.5415077],[6.6270509,46.5415584],[6.6268335,46.5416273],[6.6267445,46.5416555],[6.6267325,46.5416376],[6.626643,46.5415041]]]}},{"type":"Feature","id":"way/150067372","properties":{"addr:city":"Lausanne","addr:housenumber":"103","addr:postcode":"1018","addr:street":"Chemin de Maillefer","building":"apartments","building:flats":"16","building:flats:dog":"no","building:levels":"6","heating":"district_heating","owner":"Société coopérative d'habitation Lausanne","owner:abbr":"SCHL","owner:type":"cooperative","owner:wikidata":"Q126741196","roof:shape":"flat","source":"Bing","start_date":"2009","id":"way/150067372","start_date_parsed":"2009-01-01T00:00:00.000Z","owner:website":"https://schl.ch/","owner:start_date":"1920-01-01T00:00:00Z","owner:swiss_business_uid":"CHE-107.036.838"},"geometry":{"type":"Polygon","coordinates":[[[6.6276108,46.5401503],[6.6274809,46.5399575],[6.6277331,46.5398771],[6.627863,46.5400699],[6.6276108,46.5401503]]]}},{"type":"Feature","id":"way/150067374","properties":{"addr:city":"Lausanne","addr:country":"CH","addr:housenumber":"123","addr:postcode":"1018","addr:street":"Chemin de Maillefer","building":"apartments","building:flats":"21","building:flats:dog":"no","building:levels":"6","heating":"district_heating","owner":"Société coopérative d'habitation Lausanne","owner:abbr":"SCHL","owner:type":"cooperative","owner:wikidata":"Q126741196","roof:levels":"0","roof:shape":"flat","start_date":"2009","id":"way/150067374","start_date_parsed":"2009-01-01T00:00:00.000Z","owner:website":"https://schl.ch/","owner:start_date":"1920-01-01T00:00:00Z","owner:swiss_business_uid":"CHE-107.036.838"},"geometry":{"type":"Polygon","coordinates":[[[6.6264227,46.5408417],[6.6263012,46.5406588],[6.6265547,46.5405792],[6.6266761,46.5407621],[6.6264227,46.5408417]]]}},{"type":"Feature","id":"way/150067376","properties":{"addr:city":"Lausanne","addr:country":"CH","addr:housenumber":"111","addr:postcode":"1018","addr:street":"Chemin de Maillefer","building":"apartments","building:flats":"18","building:flats:dog":"no","building:levels":"6","heating":"district_heating","owner":"Société coopérative d'habitation Lausanne","owner:abbr":"SCHL","owner:type":"cooperative","owner:wikidata":"Q126741196","roof:shape":"flat","source":"Bing","start_date":"2009","id":"way/150067376","start_date_parsed":"2009-01-01T00:00:00.000Z","owner:website":"https://schl.ch/","owner:start_date":"1920-01-01T00:00:00Z","owner:swiss_business_uid":"CHE-107.036.838"},"geometry":{"type":"Polygon","coordinates":[[[6.6271322,46.5402577],[6.6270156,46.5400851],[6.6272711,46.5400035],[6.6273876,46.5401761],[6.6271322,46.5402577]]]}},{"type":"Feature","id":"way/150067381","properties":{"addr:city":"Lausanne","addr:country":"CH","addr:housenumber":"125","addr:postcode":"1018","addr:street":"Chemin de Maillefer","building":"sheltered_housing","building:flats":"24","building:flats:dog":"no","building:levels":"5","heating":"district_heating","owner":"Société coopérative d'habitation Lausanne","owner:abbr":"SCHL","owner:type":"cooperative","owner:wikidata":"Q126741196","roof:levels":"0","roof:shape":"flat","source":"R-Pod","start_date":"2009","id":"way/150067381","start_date_parsed":"2009-01-01T00:00:00.000Z","owner:website":"https://schl.ch/","owner:start_date":"1920-01-01T00:00:00Z","owner:swiss_business_uid":"CHE-107.036.838"},"geometry":{"type":"Polygon","coordinates":[[[6.6259724,46.5411313],[6.6258415,46.5409343],[6.6261322,46.5408429],[6.6262631,46.5410399],[6.6260784,46.5410977],[6.6260205,46.5411145],[6.6259724,46.5411313]]]}},{"type":"Feature","id":"way/150067383","properties":{"addr:city":"Lausanne","addr:country":"CH","addr:housenumber":"109","addr:postcode":"1018","addr:street":"Chemin de Maillefer","building":"apartments","building:flats":"18","building:flats:dog":"no","building:levels":"6","heating":"district_heating","owner":"Société coopérative d'habitation Lausanne","owner:abbr":"SCHL","owner:type":"cooperative","owner:wikidata":"Q126741196","roof:shape":"flat","source":"Bing","start_date":"2009","id":"way/150067383","start_date_parsed":"2009-01-01T00:00:00.000Z","owner:website":"https://schl.ch/","owner:start_date":"1920-01-01T00:00:00Z","owner:swiss_business_uid":"CHE-107.036.838"},"geometry":{"type":"Polygon","coordinates":[[[6.6273093,46.5405459],[6.6271866,46.5403724],[6.6274561,46.5402816],[6.6275788,46.5404551],[6.6273093,46.5405459]]]}},{"type":"Feature","id":"way/150067385","properties":{"addr:city":"Lausanne","addr:country":"CH","addr:housenumber":"121","addr:postcode":"1018","addr:street":"Chemin de Maillefer","building":"apartments","building:flats":"15","building:flats:dog":"no","building:levels":"6","heating":"district_heating","owner":"Société coopérative d'habitation Lausanne","owner:abbr":"SCHL","owner:type":"cooperative","owner:wikidata":"Q126741196","roof:levels":"0","roof:shape":"flat","start_date":"2009","id":"way/150067385","start_date_parsed":"2009-01-01T00:00:00.000Z","owner:website":"https://schl.ch/","owner:start_date":"1920-01-01T00:00:00Z","owner:swiss_business_uid":"CHE-107.036.838"},"geometry":{"type":"Polygon","coordinates":[[[6.6266175,46.54114],[6.626509,46.5409732],[6.6267592,46.5408961],[6.6268678,46.5410629],[6.6266175,46.54114]]]}},{"type":"Feature","id":"way/150067387","properties":{"addr:city":"Lausanne","addr:housenumber":"101","addr:postcode":"1018","addr:street":"Chemin de Maillefer","building":"apartments","building:flats":"17","building:flats:dog":"no","building:levels":"6","heating":"district_heating","owner":"Société coopérative d'habitation Lausanne","owner:abbr":"SCHL","owner:type":"cooperative","owner:wikidata":"Q126741196","roof:shape":"flat","source":"Bing","start_date":"2009","id":"way/150067387","start_date_parsed":"2009-01-01T00:00:00.000Z","owner:website":"https://schl.ch/","owner:start_date":"1920-01-01T00:00:00Z","owner:swiss_business_uid":"CHE-107.036.838"},"geometry":{"type":"Polygon","coordinates":[[[6.6278146,46.5404719],[6.6276884,46.5402762],[6.627942,46.5401957],[6.6280677,46.5403881],[6.6278146,46.5404719]]]}},{"type":"Feature","id":"way/150067393","properties":{"addr:city":"Lausanne","addr:housenumber":"105","addr:postcode":"1018","addr:street":"Chemin de Maillefer","building":"apartments","building:flats":"14","building:flats:dog":"no","building:levels":"6","heating":"district_heating","owner":"Société coopérative d'habitation Lausanne","owner:abbr":"SCHL","owner:type":"cooperative","owner:wikidata":"Q126741196","roof:shape":"flat","source":"Bing","start_date":"2009","id":"way/150067393","start_date_parsed":"2009-01-01T00:00:00.000Z","owner:website":"https://schl.ch/","owner:start_date":"1920-01-01T00:00:00Z","owner:swiss_business_uid":"CHE-107.036.838"},"geometry":{"type":"Polygon","coordinates":[[[6.62718,46.5399055],[6.6270573,46.539732],[6.6273232,46.5396475],[6.6274386,46.5398222],[6.62718,46.5399055]]]}},{"type":"Feature","id":"way/167104891","properties":{"building":"apartments","building:flats":"40","building:flats:dog":"no","building:levels":"5","heating":"oil","last_renovation":"2002","owner":"Société coopérative d'habitation Lausanne","owner:abbr":"SCHL","owner:type":"cooperative","owner:wikidata":"Q126741196","roof:levels":"0","roof:shape":"hipped","start_date":"1955","addr":[{"addr:city":"Prilly","addr:postcode":"1008","addr:street":"Chemin de la Suettaz","addr:housenumber":"8"},{"addr:city":"Prilly","addr:postcode":"1008","addr:street":"Chemin de la Suettaz","addr:housenumber":"10"},{"addr:city":"Prilly","addr:postcode":"1008","addr:street":"Chemin de la Suettaz","addr:housenumber":"12"}],"id":"way/167104891","start_date_parsed":"1955-01-01T00:00:00.000Z","last_renovation_parsed":"2002-01-01T00:00:00.000Z","owner:website":"https://schl.ch/","owner:start_date":"1920-01-01T00:00:00Z","owner:swiss_business_uid":"CHE-107.036.838"},"geometry":{"type":"Polygon","coordinates":[[[6.6099481,46.5341927],[6.6097916,46.534131],[6.6101507,46.5336997],[6.6103073,46.5337614],[6.6099481,46.5341927]]]}},{"type":"Feature","id":"way/167107066","properties":{"building":"apartments","building:flats":"40","building:flats:dog":"no","building:levels":"5","heating":"oil","last_renovation":"2002","owner":"Société coopérative d'habitation Lausanne","owner:abbr":"SCHL","owner:type":"cooperative","owner:wikidata":"Q126741196","roof:levels":"0","roof:shape":"hipped","start_date":"1955","addr":[{"addr:city":"Prilly","addr:postcode":"1008","addr:street":"Chemin de la Suettaz","addr:housenumber":"6"},{"addr:city":"Prilly","addr:postcode":"1008","addr:street":"Chemin de la Suettaz","addr:housenumber":"4"},{"addr:city":"Prilly","addr:postcode":"1008","addr:street":"Chemin de la Suettaz","addr:housenumber":"2"}],"id":"way/167107066","start_date_parsed":"1955-01-01T00:00:00.000Z","last_renovation_parsed":"2002-01-01T00:00:00.000Z","owner:website":"https://schl.ch/","owner:start_date":"1920-01-01T00:00:00Z","owner:swiss_business_uid":"CHE-107.036.838"},"geometry":{"type":"Polygon","coordinates":[[[6.6101742,46.5335279],[6.6105327,46.5331002],[6.6106815,46.5331592],[6.6103229,46.5335869],[6.6101742,46.5335279]]]}},{"type":"Feature","id":"way/167109172","properties":{"building":"apartments","building:flats":"40","building:flats:dog":"no","building:levels":"5","heating":"oil","last_renovation":"2002","owner":"Société coopérative d'habitation Lausanne","owner:abbr":"SCHL","owner:type":"cooperative","owner:wikidata":"Q126741196","roof:levels":"0","roof:shape":"hipped","start_date":"1955","addr":[{"addr:city":"Prilly","addr:postcode":"1008","addr:street":"Chemin de la Suettaz","addr:housenumber":"1"},{"addr:city":"Prilly","addr:postcode":"1008","addr:street":"Chemin de la Suettaz","addr:housenumber":"3"},{"addr:city":"Prilly","addr:postcode":"1008","addr:street":"Chemin de la Suettaz","addr:housenumber":"5"}],"id":"way/167109172","start_date_parsed":"1955-01-01T00:00:00.000Z","last_renovation_parsed":"2002-01-01T00:00:00.000Z","owner:website":"https://schl.ch/","owner:start_date":"1920-01-01T00:00:00Z","owner:swiss_business_uid":"CHE-107.036.838"},"geometry":{"type":"Polygon","coordinates":[[[6.6100099,46.532893],[6.6101745,46.5329591],[6.6098034,46.5333965],[6.6096388,46.5333304],[6.6100099,46.532893]]]}},{"type":"Feature","id":"way/203759775","properties":{"building":"apartments","building:flats":"15","building:flats:dog":"no","building:levels":"4","heating":"gas","operator":"Société coopérative d'habitation Lausanne","operator:abbr":"SCHL","operator:type":"cooperative","operator:website":"https://schl.ch/","operator:wikidata":"Q126741196","owner":"Fondation Pro Habitat Lausanne","owner:abbr":"FPHL","owner:type":"foundation","owner:website":"https://schl.ch","roof:levels":"0","roof:shape":"flat","start_date":"2001","subsidized":"yes","addr":[{"addr:city":"Crissier","addr:postcode":"1023","addr:street":"Quartier Pré-Fontaine","addr:housenumber":"57"},{"addr:city":"Crissier","addr:postcode":"1023","addr:street":"Quartier Pré-Fontaine","addr:housenumber":"59"}],"id":"way/203759775","start_date_parsed":"2001-01-01T00:00:00.000Z","operator:start_date":"1920-01-01T00:00:00Z","operator:swiss_business_uid":"CHE-107.036.838"},"geometry":{"type":"Polygon","coordinates":[[[6.5768389,46.5466623],[6.5769472,46.546391],[6.5771312,46.5464258],[6.5770228,46.546697],[6.5768389,46.5466623]]]}},{"type":"Feature","id":"way/203759797","properties":{"building":"apartments","building:flats":"18","building:flats:dog":"no","building:levels":"5","heating":"gas","operator":"Société coopérative d'habitation Lausanne","operator:abbr":"SCHL","operator:type":"cooperative","operator:website":"https://schl.ch/","operator:wikidata":"Q126741196","owner":"Fondation Pro Habitat Lausanne","owner:abbr":"FPHL","owner:type":"foundation","owner:website":"https://schl.ch","roof:shape":"flat","subsidized":"yes","addr":[{"addr:city":"Crissier","addr:postcode":"1023","addr:street":"Quartier Pré-Fontaine","addr:housenumber":"98"},{"addr:city":"Crissier","addr:postcode":"1023","addr:street":"Quartier Pré-Fontaine","addr:housenumber":"100"}],"id":"way/203759797","operator:start_date":"1920-01-01T00:00:00Z","operator:swiss_business_uid":"CHE-107.036.838"},"geometry":{"type":"Polygon","coordinates":[[[6.577179,46.5455915],[6.5772994,46.5452772],[6.5774772,46.5453094],[6.5773568,46.5456237],[6.577179,46.5455915]]]}},{"type":"Feature","id":"way/217481385","properties":{"addr:city":"Chavannes-près-Renens","addr:housenumber":"7","addr:postcode":"1022","addr:street":"Rue de la Blancherie","building":"apartments","building:flats":"28","building:flats:dog":"no","building:levels":"7","heating":"gas","last_renovation":"2005","owner":"Société coopérative d'habitation Lausanne","owner:abbr":"SCHL","owner:type":"cooperative","owner:wikidata":"Q126741196","roof:shape":"flat","start_date":"1975","id":"way/217481385","start_date_parsed":"1975-01-01T00:00:00.000Z","last_renovation_parsed":"2005-01-01T00:00:00.000Z","owner:website":"https://schl.ch/","owner:start_date":"1920-01-01T00:00:00Z","owner:swiss_business_uid":"CHE-107.036.838"},"geometry":{"type":"Polygon","coordinates":[[[6.5799232,46.5316243],[6.5801164,46.5316272],[6.5801127,46.5317422],[6.5800407,46.5317412],[6.5800391,46.5317894],[6.5800608,46.5317898],[6.5800578,46.5318817],[6.579885,46.531879],[6.5798891,46.5317533],[6.579919,46.5317537],[6.5799232,46.5316243]]]}},{"type":"Feature","id":"way/222000305","properties":{"addr:city":"Le Mont-sur-Lausanne","addr:housenumber":"4A","addr:postcode":"1052","addr:street":"Chemin de Longeraie","building":"apartments","building:flats":"7","building:flats:dog":"no","building:levels":"1","heating":"gas","owner":"Société coopérative d'habitation Lausanne","owner:abbr":"SCHL","owner:type":"cooperative","owner:wikidata":"Q126741196","roof:levels":"1","roof:shape":"gabled","start_date":"1993","subsidized":"yes","id":"way/222000305","start_date_parsed":"1993-01-01T00:00:00.000Z","owner:website":"https://schl.ch/","owner:start_date":"1920-01-01T00:00:00Z","owner:swiss_business_uid":"CHE-107.036.838"},"geometry":{"type":"Polygon","coordinates":[[[6.6310985,46.5633148],[6.6311754,46.5631997],[6.6311771,46.5631971],[6.631218,46.56321],[6.6312215,46.5632047],[6.6312688,46.5632196],[6.6313648,46.5632499],[6.6313618,46.5632544],[6.6313901,46.5632634],[6.6313995,46.5632664],[6.6313204,46.5633849],[6.6313145,46.563383],[6.6312635,46.5633669],[6.6312389,46.5633591],[6.6311796,46.5633404],[6.6310985,46.5633148]]]}},{"type":"Feature","id":"way/222000307","properties":{"addr:city":"Le Mont-sur-Lausanne","addr:housenumber":"4","addr:postcode":"1052","addr:street":"Chemin de Longeraie","building":"apartments","building:flats":"7","building:flats:dog":"no","building:levels":"2","heating":"gas","owner":"Société coopérative d'habitation Lausanne","owner:abbr":"SCHL","owner:type":"cooperative","owner:wikidata":"Q126741196","roof:levels":"1","roof:shape":"gabled","start_date":"1993","subsidized":"yes","id":"way/222000307","start_date_parsed":"1993-01-01T00:00:00.000Z","owner:website":"https://schl.ch/","owner:start_date":"1920-01-01T00:00:00Z","owner:swiss_business_uid":"CHE-107.036.838"},"geometry":{"type":"Polygon","coordinates":[[[6.6311789,46.5630551],[6.6311758,46.5629268],[6.6312169,46.5629263],[6.6312167,46.5629203],[6.6312769,46.5629196],[6.6313767,46.5629184],[6.6313768,46.5629234],[6.6314148,46.562923],[6.6314202,46.5629229],[6.6314233,46.5630523],[6.6313579,46.5630533],[6.6313332,46.5630536],[6.6312678,46.5630539],[6.6312506,46.5630544],[6.6311789,46.5630551]]]}},{"type":"Feature","id":"way/225672780","properties":{"addr:city":"Bussigny","addr:country":"CH","addr:housenumber":"36","addr:postcode":"1030","addr:street":"Rue Saint-Germain","building":"apartments","building:flats":"30","building:flats:dog":"no","building:levels":"6","heating":"gas","owner":"Société coopérative d'habitation Lausanne","owner:abbr":"SCHL","owner:type":"cooperative","owner:wikidata":"Q126741196","roof:levels":"0","roof:shape":"gabled","start_date":"1991","id":"way/225672780","start_date_parsed":"1991-01-01T00:00:00.000Z","owner:website":"https://schl.ch/","owner:start_date":"1920-01-01T00:00:00Z","owner:swiss_business_uid":"CHE-107.036.838"},"geometry":{"type":"Polygon","coordinates":[[[6.5458195,46.5514482],[6.5456847,46.5513603],[6.5457519,46.5513121],[6.5459036,46.5512032],[6.5459634,46.5512016],[6.5460351,46.5511997],[6.5461967,46.5513062],[6.5462675,46.5513528],[6.5461455,46.5514398],[6.5460918,46.5514034],[6.5459742,46.5513237],[6.5458689,46.5514085],[6.5458195,46.5514482]]]}},{"type":"Feature","id":"way/225672781","properties":{"addr:city":"Bussigny","addr:country":"CH","addr:housenumber":"34","addr:postcode":"1030","addr:street":"Rue Saint-Germain","building":"apartments","building:flats":"30","building:flats:dog":"no","building:levels":"6","heating":"gas","owner":"Société coopérative d'habitation Lausanne","owner:abbr":"SCHL","owner:type":"cooperative","owner:wikidata":"Q126741196","roof:levels":"0","roof:shape":"gabled","start_date":"1991","id":"way/225672781","start_date_parsed":"1991-01-01T00:00:00.000Z","owner:website":"https://schl.ch/","owner:start_date":"1920-01-01T00:00:00Z","owner:swiss_business_uid":"CHE-107.036.838"},"geometry":{"type":"Polygon","coordinates":[[[6.5467108,46.5513017],[6.5465776,46.551217],[6.5466432,46.5511688],[6.5467932,46.5510586],[6.5468635,46.5510574],[6.5469229,46.5510563],[6.5470912,46.551156],[6.5471646,46.5511994],[6.5470466,46.5512917],[6.5469866,46.5512542],[6.546866,46.5511788],[6.5467617,46.5512614],[6.5467108,46.5513017]]]}},{"type":"Feature","id":"way/228240171","properties":{"addr:city":"Le Mont-sur-Lausanne","addr:housenumber":"2","addr:postcode":"1052","addr:street":"Chemin de Longeraie","building":"apartments","building:flats":"7","building:flats:dog":"no","building:levels":"3","heating":"gas","owner":"Société coopérative d'habitation Lausanne","owner:abbr":"SCHL","owner:type":"cooperative","owner:wikidata":"Q126741196","roof:levels":"1","roof:shape":"gabled","start_date":"1993","subsidized":"yes","id":"way/228240171","start_date_parsed":"1993-01-01T00:00:00.000Z","owner:website":"https://schl.ch/","owner:start_date":"1920-01-01T00:00:00Z","owner:swiss_business_uid":"CHE-107.036.838"},"geometry":{"type":"Polygon","coordinates":[[[6.6309339,46.5627347],[6.6309311,46.5626056],[6.6309734,46.5626052],[6.6309733,46.5626004],[6.6309823,46.5626003],[6.6311328,46.5625987],[6.6311329,46.5626031],[6.63117,46.5626027],[6.6311724,46.5627141],[6.6311728,46.5627324],[6.6311019,46.5627332],[6.6310899,46.5627333],[6.6310243,46.5627335],[6.630999,46.5627345],[6.6309339,46.5627347]]]}},{"type":"Feature","id":"way/228240173","properties":{"addr:city":"Le Mont-sur-Lausanne","addr:housenumber":"2B","addr:postcode":"1052","addr:street":"Chemin de Longeraie","building":"apartments","building:flats":"7","building:flats:dog":"no","building:levels":"3","heating":"gas","owner":"Société coopérative d'habitation Lausanne","owner:abbr":"SCHL","owner:type":"cooperative","owner:wikidata":"Q126741196","roof:levels":"1","roof:shape":"gabled","start_date":"1993","subsidized":"yes","id":"way/228240173","start_date_parsed":"1993-01-01T00:00:00.000Z","owner:website":"https://schl.ch/","owner:start_date":"1920-01-01T00:00:00Z","owner:swiss_business_uid":"CHE-107.036.838"},"geometry":{"type":"Polygon","coordinates":[[[6.6314075,46.5627117],[6.6314049,46.5626002],[6.63144,46.5625999],[6.6314399,46.5625952],[6.6315957,46.5625936],[6.6316027,46.5625935],[6.6316028,46.5625978],[6.6316442,46.5625974],[6.631647,46.5627264],[6.6316437,46.5627265],[6.6315822,46.562727],[6.6315583,46.5627273],[6.6314931,46.5627275],[6.631483,46.562728],[6.6314077,46.5627285],[6.6314075,46.5627117]]]}},{"type":"Feature","id":"way/228240175","properties":{"addr:city":"Le Mont-sur-Lausanne","addr:housenumber":"2A","addr:postcode":"1052","addr:street":"Chemin de Longeraie","building":"apartments","building:flats":"7","building:flats:dog":"no","building:levels":"2","heating":"gas","owner":"Société coopérative d'habitation Lausanne","owner:abbr":"SCHL","owner:type":"cooperative","owner:wikidata":"Q126741196","roof:levels":"1","roof:shape":"gabled","start_date":"1993","subsidized":"yes","id":"way/228240175","start_date_parsed":"1993-01-01T00:00:00.000Z","owner:website":"https://schl.ch/","owner:start_date":"1920-01-01T00:00:00Z","owner:swiss_business_uid":"CHE-107.036.838"},"geometry":{"type":"Polygon","coordinates":[[[6.6311724,46.5627141],[6.63117,46.5626027],[6.6311696,46.5625845],[6.6312061,46.5625841],[6.631206,46.5625793],[6.63137,46.5625776],[6.6313701,46.5625825],[6.6314045,46.5625822],[6.6314049,46.5626002],[6.6314075,46.5627117],[6.6313488,46.5627121],[6.6313236,46.5627125],[6.6312585,46.5627131],[6.6312345,46.5627134],[6.6311724,46.5627141]]]}},{"type":"Feature","id":"way/236991965","properties":{"addr:city":"Le Mont-sur-Lausanne","addr:country":"CH","addr:housenumber":"127","addr:postcode":"1052","addr:street":"Chemin de Maillefer","building":"apartments","building:flats":"26","building:flats:dog":"no","building:levels":"5","heating":"district_heating","owner":"Société coopérative d'habitation Lausanne","owner:abbr":"SCHL","owner:type":"cooperative","owner:wikidata":"Q126741196","roof:levels":"0","roof:shape":"flat","start_date":"2012","id":"way/236991965","start_date_parsed":"2012-01-01T00:00:00.000Z","owner:website":"https://schl.ch/","owner:start_date":"1920-01-01T00:00:00Z","owner:swiss_business_uid":"CHE-107.036.838"},"geometry":{"type":"Polygon","coordinates":[[[6.626518,46.541423],[6.6262229,46.5415188],[6.6260917,46.5413274],[6.6263868,46.5412317],[6.626518,46.541423]]]}},{"type":"Feature","id":"way/239912249","properties":{"addr:city":"Lausanne","addr:country":"CH","addr:housenumber":"2","addr:postcode":"1012","addr:street":"Chemin de Rovéréaz","architect":"R. Deveau architect","building":"apartments","building:flats":"9","building:flats:dog":"no","last_renovation":"1986","owner":"Société coopérative d'habitation Lausanne","owner:abbr":"SCHL","owner:type":"cooperative","owner:wikidata":"Q126741196","source":"Orthophotos de la Ville de Lausanne (2008)","start_date":"1931","id":"way/239912249","start_date_parsed":"1931-01-01T00:00:00.000Z","last_renovation_parsed":"1986-01-01T00:00:00.000Z","owner:website":"https://schl.ch/","owner:start_date":"1920-01-01T00:00:00Z","owner:swiss_business_uid":"CHE-107.036.838"},"geometry":{"type":"Polygon","coordinates":[[[6.6519093,46.5267986],[6.6519266,46.5268143],[6.6519409,46.5268068],[6.6519676,46.5268309],[6.6520785,46.526931],[6.6519648,46.5269907],[6.6519243,46.5269567],[6.6518105,46.5268514],[6.6519093,46.5267986]]]}},{"type":"Feature","id":"way/247390000","properties":{"building":"apartments","building:flats:dog":"no","heating":"gas","owner":"Société coopérative d'habitation Lausanne","owner:abbr":"SCHL","owner:type":"cooperative","owner:wikidata":"Q126741196","roof:shape":"hipped","source":"Orthophotos de la Ville de Lausanne (2008)","start_date":"1987","subsidized":"yes","addr":[{"addr:city":"Lausanne","addr:postcode":"1010","addr:street":"Chemin des Eterpeys","addr:housenumber":"9"},{"addr:city":"Lausanne","addr:postcode":"1010","addr:street":"Chemin des Eterpeys","addr:housenumber":"11"}],"id":"way/247390000","start_date_parsed":"1987-01-01T00:00:00.000Z","owner:website":"https://schl.ch/","owner:start_date":"1920-01-01T00:00:00Z","owner:swiss_business_uid":"CHE-107.036.838"},"geometry":{"type":"Polygon","coordinates":[[[6.66205,46.5355561],[6.6618364,46.535804],[6.6617144,46.5358143],[6.6616889,46.5357402],[6.6618987,46.5354926],[6.66205,46.5355561]]]}},{"type":"Feature","id":"way/247390005","properties":{"addr:city":"Lausanne","addr:country":"CH","addr:housenumber":"15","addr:postcode":"1010","addr:street":"Chemin des Eterpeys","building":"apartments","owner":"Société coopérative d'habitation Lausanne","owner:abbr":"SCHL","owner:type":"cooperative","owner:wikidata":"Q126741196","source":"Orthophotos de la Ville de Lausanne (2008)","id":"way/247390005","owner:website":"https://schl.ch/","owner:start_date":"1920-01-01T00:00:00Z","owner:swiss_business_uid":"CHE-107.036.838"},"geometry":{"type":"Polygon","coordinates":[[[6.6613795,46.5354235],[6.6612487,46.5354588],[6.6611921,46.5352997],[6.6613661,46.5352726],[6.6613916,46.535338],[6.6614219,46.5354158],[6.6613795,46.5354235]]]}},{"type":"Feature","id":"way/247390010","properties":{"addr:city":"Lausanne","addr:country":"CH","addr:housenumber":"19","addr:postcode":"1010","addr:street":"Chemin des Eterpeys","building":"apartments","owner":"Société coopérative d'habitation Lausanne","owner:abbr":"SCHL","owner:type":"cooperative","owner:wikidata":"Q126741196","source":"Orthophotos de la Ville de Lausanne (2008)","id":"way/247390010","owner:website":"https://schl.ch/","owner:start_date":"1920-01-01T00:00:00Z","owner:swiss_business_uid":"CHE-107.036.838"},"geometry":{"type":"Polygon","coordinates":[[[6.6611504,46.535572],[6.6613096,46.5356319],[6.661207,46.5357534],[6.6611513,46.5357314],[6.6611237,46.5357575],[6.6610739,46.5357345],[6.6610858,46.5357222],[6.6610769,46.5356966],[6.6610524,46.5356874],[6.6611504,46.535572]]]}},{"type":"Feature","id":"way/247390032","properties":{"addr:city":"Lausanne","addr:country":"CH","addr:housenumber":"4","addr:postcode":"1010","addr:street":"Chemin des Eterpeys","building":"apartments","building:flats:dog":"no","heating":"gas","operator":"Société coopérative d'habitation Lausanne","operator:abbr":"SCHL","operator:type":"cooperative","operator:website":"https://schl.ch/","operator:wikidata":"Q126741196","owner":"Fondation Pro Habitat Lausanne","owner:abbr":"FPHL","owner:type":"foundation","owner:website":"https://schl.ch","source":"Orthophotos de la Ville de Lausanne (2008)","start_date":"1998","subsidized":"yes","id":"way/247390032","start_date_parsed":"1998-01-01T00:00:00.000Z","operator:start_date":"1920-01-01T00:00:00Z","operator:swiss_business_uid":"CHE-107.036.838"},"geometry":{"type":"Polygon","coordinates":[[[6.663014,46.5361573],[6.6630401,46.5361264],[6.6630279,46.5361215],[6.6630576,46.5360861],[6.6630745,46.5360928],[6.6631132,46.5360469],[6.6630987,46.5360411],[6.663131,46.5360027],[6.6631461,46.5360087],[6.6631887,46.5359581],[6.6632827,46.5359955],[6.6632369,46.5360499],[6.6632654,46.5360613],[6.6632322,46.5361008],[6.6632613,46.5361124],[6.6632264,46.536154],[6.6631954,46.5361416],[6.6631614,46.536182],[6.6631249,46.5361674],[6.663102,46.5361947],[6.663014,46.5361573]]]}},{"type":"Feature","id":"way/247390050","properties":{"addr:city":"Lausanne","addr:country":"CH","addr:housenumber":"8","addr:postcode":"1010","addr:street":"Chemin des Eterpeys","building":"apartments","building:flats:dog":"no","heating":"gas","operator":"Société coopérative d'habitation Lausanne","operator:abbr":"SCHL","operator:type":"cooperative","operator:website":"https://schl.ch/","operator:wikidata":"Q126741196","owner":"Fondation Pro Habitat Lausanne","owner:abbr":"FPHL","owner:type":"foundation","owner:website":"https://schl.ch","source":"Orthophotos de la Ville de Lausanne (2008)","start_date":"1998","subsidized":"yes","id":"way/247390050","start_date_parsed":"1998-01-01T00:00:00.000Z","operator:start_date":"1920-01-01T00:00:00Z","operator:swiss_business_uid":"CHE-107.036.838"},"geometry":{"type":"Polygon","coordinates":[[[6.6628052,46.5363976],[6.6628963,46.5364399],[6.6628765,46.5364633],[6.6628697,46.5364606],[6.662845,46.5364899],[6.6628793,46.5365036],[6.6628468,46.5365423],[6.6628766,46.5365542],[6.6628417,46.5365956],[6.6628095,46.5365827],[6.6627756,46.536623],[6.6627385,46.5366082],[6.6627146,46.5366366],[6.6627173,46.5366377],[6.6626965,46.5366624],[6.662607,46.5366267],[6.6626559,46.5365686],[6.6626428,46.5365634],[6.6626738,46.5365266],[6.6626886,46.5365325],[6.6627276,46.5364862],[6.6627149,46.5364811],[6.6627454,46.536445],[6.6627595,46.5364507],[6.6628052,46.5363976]]]}},{"type":"Feature","id":"way/554046591","properties":{"building":"apartments","building:flats":"18","building:flats:dog":"no","building:levels":"3","heating":"pellet","owner":"Société coopérative d'habitation Lausanne","owner:abbr":"SCHL","owner:type":"cooperative","owner:wikidata":"Q126741196","roof:levels":"1","start_date":"2015","addr":[{"addr:city":"Cheseaux-sur-Lausanne","addr:postcode":"1033","addr:street":"Rue du Grand Pré","addr:housenumber":"4"},{"addr:city":"Cheseaux-sur-Lausanne","addr:postcode":"1033","addr:street":"Rue du Grand Pré","addr:housenumber":"8"},{"addr:city":"Cheseaux-sur-Lausanne","addr:postcode":"1033","addr:street":"Rue du Grand Pré","addr:housenumber":"6"}],"id":"way/554046591","start_date_parsed":"2015-01-01T00:00:00.000Z","owner:website":"https://schl.ch/","owner:start_date":"1920-01-01T00:00:00Z","owner:swiss_business_uid":"CHE-107.036.838"},"geometry":{"type":"Polygon","coordinates":[[[6.6044122,46.5827803],[6.6043545,46.5826838],[6.6046117,46.5825506],[6.6048841,46.582454],[6.604981,46.5825462],[6.604655,46.5827118],[6.6044122,46.5827803]]]}},{"type":"Feature","id":"way/760235895","properties":{"building":"apartments","building:flats":"58","building:flats:dog":"no","heating":"district_heating","owner":"Société coopérative d'habitation Lausanne","owner:abbr":"SCHL","owner:type":"cooperative","owner:wikidata":"Q126741196","start_date":"2019","addr":[{"addr:city":"Lausanne 25","addr:postcode":"1000","addr:street":"Route de Berne","addr:housenumber":"321"},{"addr:city":"Lausanne 25","addr:postcode":"1000","addr:street":"Route de Berne","addr:housenumber":"323"},{"addr:city":"Lausanne 25","addr:postcode":"1000","addr:street":"Route de Berne","addr:housenumber":"325"}],"id":"way/760235895","start_date_parsed":"2019-01-01T00:00:00.000Z","owner:website":"https://schl.ch/","owner:start_date":"1920-01-01T00:00:00Z","owner:swiss_business_uid":"CHE-107.036.838"},"geometry":{"type":"Polygon","coordinates":[[[6.687221,46.5639787],[6.687398,46.563877],[6.6873814,46.5638633],[6.6877132,46.5636726],[6.6878326,46.5637708],[6.6875065,46.5639581],[6.6875185,46.563968],[6.6873357,46.564073],[6.687221,46.5639787]]]}},{"type":"Feature","id":"way/861165811","properties":{"building":"apartments","building:flats":"33","building:flats:dog":"no","building:levels":"5","heating":"heat_pump","owner":"Société coopérative d'habitation Lausanne","owner:abbr":"SCHL","owner:type":"cooperative","owner:wikidata":"Q126741196","roof:levels":"0","roof:shape":"flat","start_date":"2020","addr":[{"addr:city":"Orbe","addr:postcode":"1350","addr:street":"Route des Granges-Saint-Martin","addr:housenumber":"12"},{"addr:city":"Orbe","addr:postcode":"1350","addr:street":"Route des Granges-Saint-Martin","addr:housenumber":"10"}],"id":"way/861165811","start_date_parsed":"2020-01-01T00:00:00.000Z","owner:website":"https://schl.ch/","owner:start_date":"1920-01-01T00:00:00Z","owner:swiss_business_uid":"CHE-107.036.838"},"geometry":{"type":"Polygon","coordinates":[[[6.5360056,46.7209313],[6.5357925,46.7208899],[6.5358138,46.7208384],[6.5358944,46.7206439],[6.5359708,46.7204595],[6.5361839,46.720501],[6.5361076,46.7206852],[6.5360257,46.7208828],[6.5360056,46.7209313]]]}},{"type":"Feature","id":"way/878853242","properties":{"addr:city":"Bussigny","addr:housenumber":"2","addr:postcode":"1030","addr:street":"Chemin Champ-aux-Oies","building":"apartments","building:flats":"20","building:flats:dog":"no","building:levels":"4","heating":"pellet","owner":"Société coopérative d'habitation Lausanne","owner:abbr":"SCHL","owner:type":"cooperative","owner:wikidata":"Q126741196","roof:levels":"0","roof:shape":"flat","start_date":"2020","id":"way/878853242","start_date_parsed":"2020-01-01T00:00:00.000Z","owner:website":"https://schl.ch/","owner:start_date":"1920-01-01T00:00:00Z","owner:swiss_business_uid":"CHE-107.036.838"},"geometry":{"type":"Polygon","coordinates":[[[6.5462928,46.5517397],[6.5463463,46.5516162],[6.546493,46.5515762],[6.5466038,46.5516653],[6.5467235,46.5517615],[6.5465938,46.5518656],[6.5462928,46.5517397]]]}},{"type":"Feature","id":"way/878853243","properties":{"addr:city":"Bussigny","addr:housenumber":"4","addr:postcode":"1030","addr:street":"Chemin Champ-aux-Oies","building":"apartments","building:flats":"19","building:flats:dog":"no","building:levels":"4","heating":"pellet","owner":"Société coopérative d'habitation Lausanne","owner:abbr":"SCHL","owner:type":"cooperative","owner:wikidata":"Q126741196","roof:levels":"0","roof:shape":"flat","start_date":"2020","id":"way/878853243","start_date_parsed":"2020-01-01T00:00:00.000Z","owner:website":"https://schl.ch/","owner:start_date":"1920-01-01T00:00:00Z","owner:swiss_business_uid":"CHE-107.036.838"},"geometry":{"type":"Polygon","coordinates":[[[6.5468351,46.5517764],[6.5469842,46.5517312],[6.5471234,46.5516889],[6.5472159,46.5517863],[6.5469805,46.5519275],[6.5468568,46.551878],[6.5468351,46.5517764]]]}},{"type":"Feature","id":"way/1053448685","properties":{"building":"apartments","building:flats":"45","building:flats:dog":"no","heating":"district_heating","last_renovation":"1999","operator":"Société coopérative d'habitation Lausanne","operator:abbr":"SCHL","operator:type":"cooperative","operator:website":"https://schl.ch/","operator:wikidata":"Q126741196","owner":"Fondation Pro Habitat Lausanne","owner:abbr":"FPHL","owner:type":"foundation","owner:website":"https://schl.ch","start_date":"1967","addr":[{"addr:city":"Lausanne","addr:postcode":"1018","addr:street":"Rue de la Borde","addr:housenumber":"26b"}],"id":"way/1053448685","start_date_parsed":"1967-01-01T00:00:00.000Z","last_renovation_parsed":"1999-01-01T00:00:00.000Z","operator:start_date":"1920-01-01T00:00:00Z","operator:swiss_business_uid":"CHE-107.036.838"},"geometry":{"type":"Polygon","coordinates":[[[6.6323405,46.5300081],[6.6326152,46.5300659],[6.632573,46.5301685],[6.6324346,46.5302375],[6.6323828,46.5302116],[6.6322867,46.530255],[6.6322985,46.5302981],[6.6321618,46.5303674],[6.6321134,46.5304255],[6.6319461,46.5303958],[6.6320687,46.5300719],[6.6320875,46.5300659],[6.6321013,46.5300614],[6.6321158,46.5300803],[6.6323405,46.5300081]]]}},{"type":"Feature","id":"way/1053448686","properties":{"addr:city":"Lausanne","addr:country":"CH","addr:housenumber":"26","addr:postcode":"1018","addr:street":"Rue de la Borde","building":"apartments","building:flats":"45","building:flats:dog":"no","heating":"district_heating","last_renovation":"1999","operator":"Société coopérative d'habitation Lausanne","operator:abbr":"SCHL","operator:type":"cooperative","operator:website":"https://schl.ch/","operator:wikidata":"Q126741196","owner":"Fondation Pro Habitat Lausanne","owner:abbr":"FPHL","owner:type":"foundation","owner:website":"https://schl.ch","start_date":"1967","id":"way/1053448686","start_date_parsed":"1967-01-01T00:00:00.000Z","last_renovation_parsed":"1999-01-01T00:00:00.000Z","operator:start_date":"1920-01-01T00:00:00Z","operator:swiss_business_uid":"CHE-107.036.838"},"geometry":{"type":"Polygon","coordinates":[[[6.6321546,46.5298535],[6.6323315,46.5294482],[6.6323497,46.5294083],[6.6327921,46.5294894],[6.6327647,46.529575],[6.6327466,46.529596],[6.632623,46.529676],[6.6325559,46.5296553],[6.6324755,46.5297042],[6.6324947,46.5297516],[6.6323637,46.5298363],[6.6323534,46.5298935],[6.6322342,46.5298696],[6.6321546,46.5298535]]]}},{"type":"Feature","id":"way/1119785603","properties":{"building":"apartments","building:flats":"33","building:flats:dog":"no","building:levels":"5","heating":"district_heating","operator":"Société coopérative d'habitation Lausanne","operator:abbr":"SCHL","operator:type":"cooperative","operator:website":"https://schl.ch/","operator:wikidata":"Q126741196","owner":"Fondation Pro Habitat Lausanne","owner:abbr":"FPHL","owner:type":"foundation","owner:website":"https://schl.ch/","owner:wikidata":"Q126741196","ref":"C","roof:levels":"0","start_date":"2021","subsidized":"yes","addr":[{"addr:city":"Lausanne","addr:postcode":"1018","addr:street":"Route du Pavement","addr:housenumber":"57"},{"addr:city":"Lausanne","addr:postcode":"1018","addr:street":"Route du Pavement","addr:housenumber":"55"},{"addr:city":"Lausanne","addr:postcode":"1018","addr:street":"Route du Pavement","addr:housenumber":"59"}],"id":"way/1119785603","start_date_parsed":"2021-01-01T00:00:00.000Z","owner:start_date":"1920-01-01T00:00:00Z","owner:swiss_business_uid":"CHE-107.036.838","operator:start_date":"1920-01-01T00:00:00Z","operator:swiss_business_uid":"CHE-107.036.838"},"geometry":{"type":"Polygon","coordinates":[[[6.6345836,46.5341219],[6.6353299,46.5341243],[6.635329,46.5342659],[6.6345826,46.5342634],[6.6345836,46.5341219]]]}},{"type":"Feature","id":"way/1231417544","properties":{"building":"apartments","building:flats":"38","building:flats:dog":"no","building:levels":"6","heating":"heat_pump","owner":"Société coopérative d'habitation Lausanne","owner:abbr":"SCHL","owner:type":"cooperative","owner:wikidata":"Q126741196","roof:levels":"0","roof:shape":"flat","start_date":"2023-08","addr":[{"addr:city":"Lausanne","addr:postcode":"1018","addr:street":"Rue Germaine-Ernst","addr:housenumber":"12"},{"addr:city":"Lausanne","addr:postcode":"1018","addr:street":"Chemin des Bossons","addr:housenumber":"50"}],"id":"way/1231417544","start_date_parsed":"2023-08-01T00:00:00.000Z","owner:website":"https://schl.ch/","owner:start_date":"1920-01-01T00:00:00Z","owner:swiss_business_uid":"CHE-107.036.838"},"geometry":{"type":"Polygon","coordinates":[[[6.6185582,46.5392055],[6.6186081,46.5391012],[6.6186504,46.5391108],[6.6186942,46.5390191],[6.6191621,46.5391249],[6.6191085,46.539237],[6.6191513,46.5392467],[6.6191027,46.5393484],[6.6189263,46.5393085],[6.6189852,46.5391853],[6.6187975,46.5391428],[6.6187471,46.5392483],[6.6185582,46.5392055]]]}},{"type":"Feature","id":"way/1231417546","properties":{"building":"apartments","building:flats":"43","building:flats:dog":"no","building:levels":"6","heating":"heat_pump","operator":"Société coopérative d'habitation Lausanne","operator:abbr":"SCHL","operator:type":"cooperative","operator:website":"https://schl.ch/","operator:wikidata":"Q126741196","owner":"Fondation Pro Habitat Lausanne","owner:abbr":"FPHL","owner:type":"foundation","owner:website":"https://schl.ch","roof:levels":"0","roof:shape":"flat","start_date":"2023-08","subsidized":"yes","addr":[{"addr:city":"Lausanne","addr:postcode":"1018","addr:street":"Rue Germaine-Ernst","addr:housenumber":"8"},{"addr:city":"Lausanne","addr:postcode":"1018","addr:street":"Rue Germaine-Ernst","addr:housenumber":"10"}],"id":"way/1231417546","start_date_parsed":"2023-08-01T00:00:00.000Z","operator:start_date":"1920-01-01T00:00:00Z","operator:swiss_business_uid":"CHE-107.036.838"},"geometry":{"type":"Polygon","coordinates":[[[6.6192378,46.5393751],[6.6192849,46.5392799],[6.6193226,46.5392887],[6.6193798,46.5391734],[6.6198563,46.5392851],[6.6198013,46.539396],[6.6198419,46.5394056],[6.6197926,46.5395052],[6.6196073,46.5394617],[6.619671,46.5393331],[6.6194865,46.5392899],[6.6194228,46.5394184],[6.6192378,46.5393751]]]}},{"type":"Feature","id":"way/1337328800","properties":{"building":"apartments","building:flats":"65","building:flats:dog":"no","building:levels":"8","heating":"district_heating","last_renovation":"2011","owner":"Société coopérative d'habitation Lausanne","owner:abbr":"SCHL","owner:type":"cooperative","owner:wikidata":"Q126741196","roof:levels":"0","roof:shape":"flat","source":"Orthophoto Ville de Lausanne 2008","start_date":"1974","addr":[{"addr:city":"Lausanne","addr:postcode":"1004","addr:street":"Chemin Guillaume-de-Pierrefleur","addr:housenumber":"50"},{"addr:city":"Lausanne","addr:postcode":"1004","addr:street":"Chemin Guillaume-de-Pierrefleur","addr:housenumber":"52"},{"addr:city":"Lausanne","addr:postcode":"1004","addr:street":"Chemin Guillaume-de-Pierrefleur","addr:housenumber":"52a"},{"addr:city":"Lausanne","addr:postcode":"1004","addr:street":"Chemin Guillaume-de-Pierrefleur","addr:housenumber":"50a"}],"id":"way/1337328800","start_date_parsed":"1974-01-01T00:00:00.000Z","last_renovation_parsed":"2011-01-01T00:00:00.000Z","owner:website":"https://schl.ch/","owner:start_date":"1920-01-01T00:00:00Z","owner:swiss_business_uid":"CHE-107.036.838"},"geometry":{"type":"Polygon","coordinates":[[[6.6146967,46.5378194],[6.6145074,46.5377677],[6.6146168,46.537578],[6.6147736,46.5373066],[6.6149628,46.5373583],[6.6148063,46.5376296],[6.6146967,46.5378194]]]}},{"type":"Feature","id":"way/1361521443","properties":{"building":"apartments","heating":"oil","last_renovation":"1977","owner":"Société coopérative d'habitation Lausanne","owner:abbr":"SCHL","owner:type":"cooperative","owner:wikidata":"Q126741196","start_date":"1926","addr":[{"addr:city":"Lausanne","addr:postcode":"1007","addr:street":"Avenue de Cour","addr:housenumber":"58"},{"addr:city":"Lausanne","addr:postcode":"1007","addr:street":"Avenue de Cour","addr:housenumber":"60"},{"addr:city":"Lausanne","addr:postcode":"1007","addr:street":"Avenue de Cour","addr:housenumber":"62"}],"id":"way/1361521443","start_date_parsed":"1926-01-01T00:00:00.000Z","last_renovation_parsed":"1977-01-01T00:00:00.000Z","owner:website":"https://schl.ch/","owner:start_date":"1920-01-01T00:00:00Z","owner:swiss_business_uid":"CHE-107.036.838"},"geometry":{"type":"Polygon","coordinates":[[[6.6161576,46.5162509],[6.6160325,46.5162683],[6.6159081,46.5158457],[6.6160333,46.5158282],[6.6161576,46.5162509]]]}},{"type":"Feature","id":"way/1361530181","properties":{"building":"apartments","building:flats":"22","building:flats:dog":"no","building:levels":"4","heating":"district_heating","last_renovation":"1995","owner":"Société coopérative d'habitation Lausanne","owner:abbr":"SCHL","owner:type":"cooperative","owner:wikidata":"Q126741196","roof:levels":"0","roof:shape":"hipped","source":"Orthophoto Ville de Lausanne 2008","start_date":"1947","subsidized":"yes","addr":[{"addr:city":"Lausanne","addr:postcode":"1018","addr:street":"Route du Pavement","addr:housenumber":"67"},{"addr:city":"Lausanne","addr:postcode":"1018","addr:street":"Route du Pavement","addr:housenumber":"65"}],"id":"way/1361530181","start_date_parsed":"1947-01-01T00:00:00.000Z","last_renovation_parsed":"1995-01-01T00:00:00.000Z","owner:website":"https://schl.ch/","owner:start_date":"1920-01-01T00:00:00Z","owner:swiss_business_uid":"CHE-107.036.838"},"geometry":{"type":"Polygon","coordinates":[[[6.63518,46.5344448],[6.6351786,46.5345415],[6.6346534,46.5345379],[6.6346548,46.5344413],[6.63518,46.5344448]]]}},{"type":"Feature","id":"way/1363148267","properties":{"building":"apartments","building:flats":"33","building:flats:dog":"no","building:levels":"5","heating":"district_heating","operator":"Société coopérative d'habitation Lausanne","operator:abbr":"SCHL","operator:type":"cooperative","operator:website":"https://schl.ch/","operator:wikidata":"Q126741196","owner":"Fondation Pro Habitat Lausanne","owner:abbr":"FPHL","owner:type":"foundation","owner:website":"https://schl.ch/","owner:wikidata":"Q126741196","ref":"B","roof:levels":"0","start_date":"2021","subsidized":"yes","addr":[{"addr:city":"Lausanne","addr:postcode":"1018","addr:street":"Route du Pavement","addr:housenumber":"53"},{"addr:city":"Lausanne","addr:postcode":"1018","addr:street":"Route du Pavement","addr:housenumber":"51"},{"addr:city":"Lausanne","addr:postcode":"1018","addr:street":"Route du Pavement","addr:housenumber":"49"}],"id":"way/1363148267","start_date_parsed":"2021-01-01T00:00:00.000Z","owner:start_date":"1920-01-01T00:00:00Z","owner:swiss_business_uid":"CHE-107.036.838","operator:start_date":"1920-01-01T00:00:00Z","operator:swiss_business_uid":"CHE-107.036.838"},"geometry":{"type":"Polygon","coordinates":[[[6.6345938,46.5338251],[6.6353401,46.5338275],[6.6353392,46.5339691],[6.6345928,46.5339666],[6.6345938,46.5338251]]]}},{"type":"Feature","id":"way/1363148268","properties":{"building":"apartments","building:flats":"33","building:flats:dog":"no","building:levels":"5","heating":"district_heating","operator":"Société coopérative d'habitation Lausanne","operator:abbr":"SCHL","operator:type":"cooperative","operator:website":"https://schl.ch/","operator:wikidata":"Q126741196","owner":"Fondation Pro Habitat Lausanne","owner:abbr":"FPHL","owner:type":"foundation","owner:website":"https://schl.ch/","owner:wikidata":"Q126741196","ref":"A","roof:levels":"0","start_date":"2021","subsidized":"yes","addr":[{"addr:city":"Lausanne","addr:postcode":"1018","addr:street":"Route du Pavement","addr:housenumber":"47"},{"addr:city":"Lausanne","addr:postcode":"1018","addr:street":"Route du Pavement","addr:housenumber":"45"},{"addr:city":"Lausanne","addr:postcode":"1018","addr:street":"Route du Pavement","addr:housenumber":"43"}],"id":"way/1363148268","start_date_parsed":"2021-01-01T00:00:00.000Z","owner:start_date":"1920-01-01T00:00:00Z","owner:swiss_business_uid":"CHE-107.036.838","operator:start_date":"1920-01-01T00:00:00Z","operator:swiss_business_uid":"CHE-107.036.838"},"geometry":{"type":"Polygon","coordinates":[[[6.6345996,46.5335301],[6.635346,46.5335325],[6.635345,46.5336741],[6.6345986,46.5336716],[6.6345996,46.5335301]]]}},{"type":"Feature","id":"way/1363914264","properties":{"building":"apartments","building:flats":"18","building:flats:dog":"no","building:levels":"5","heating":"gas","operator":"Société coopérative d'habitation Lausanne","operator:abbr":"SCHL","operator:type":"cooperative","operator:website":"https://schl.ch/","operator:wikidata":"Q126741196","owner":"Fondation Pro Habitat Lausanne","owner:abbr":"FPHL","owner:type":"foundation","owner:website":"https://schl.ch","roof:shape":"flat","subsidized":"yes","addr":[{"addr:city":"Crissier","addr:postcode":"1023","addr:street":"Quartier Pré-Fontaine","addr:housenumber":"102"},{"addr:city":"Crissier","addr:postcode":"1023","addr:street":"Quartier Pré-Fontaine","addr:housenumber":"104"}],"id":"way/1363914264","operator:start_date":"1920-01-01T00:00:00Z","operator:swiss_business_uid":"CHE-107.036.838"},"geometry":{"type":"Polygon","coordinates":[[[6.5773102,46.5452596],[6.5774191,46.5449791],[6.5775951,46.5450114],[6.5774862,46.5452919],[6.5773102,46.5452596]]]}}]}