{"type":"FeatureCollection","features": [{"type":"Feature","id":"way/205894208","properties":{"building":"apartments","building:flats":"15","owner":"Société coopérative d'habitation Renens et agglomération","owner:abbr":"SCHR","owner:type":"cooperative","owner:wikidata":"Q133284313","start_date":"1969","addr":[{"addr:city":"Renens","addr:postcode":"1020","addr:street":"Rue de l'Industrie","addr:housenumber":"5"},{"addr:city":"Renens","addr:postcode":"1020","addr:street":"Rue de l'Industrie","addr:housenumber":"7"}],"id":"way/205894208","start_date_parsed":"1969-01-01T00:00:00.000Z","owner:website":"https://schrenens.ch/","owner:swiss_business_uid":"CHE-103.323.546"},"geometry":{"type":"Polygon","coordinates":[[[6.5812934,46.5402956],[6.5814572,46.5399826],[6.5816182,46.5400251],[6.5814657,46.5403363],[6.5812934,46.5402956]]]}},{"type":"Feature","id":"way/283905480","properties":{"addr:city":"Renens","addr:housenumber":"11C","addr:postcode":"1020","addr:street":"Avenue du 1er Mai","building":"apartments","building:flats":"12","last_renovation":"2015","owner":"Société coopérative d'habitation Renens et agglomération","owner:abbr":"SCHR","owner:type":"cooperative","owner:wikidata":"Q133284313","start_date":"1985","id":"way/283905480","start_date_parsed":"1985-01-01T00:00:00.000Z","last_renovation_parsed":"2015-01-01T00:00:00.000Z","owner:website":"https://schrenens.ch/","owner:swiss_business_uid":"CHE-103.323.546"},"geometry":{"type":"Polygon","coordinates":[[[6.5832646,46.5412188],[6.5833734,46.5410355],[6.5835418,46.5410828],[6.583433,46.5412661],[6.5832646,46.5412188]]]}},{"type":"Feature","id":"way/283905481","properties":{"addr:city":"Renens","addr:housenumber":"11B","addr:postcode":"1020","addr:street":"Avenue du 1er Mai","building":"apartments","building:flats":"12","last_renovation":"2015","owner":"Société coopérative d'habitation Renens et agglomération","owner:abbr":"SCHR","owner:type":"cooperative","owner:wikidata":"Q133284313","start_date":"1985","id":"way/283905481","start_date_parsed":"1985-01-01T00:00:00.000Z","last_renovation_parsed":"2015-01-01T00:00:00.000Z","owner:website":"https://schrenens.ch/","owner:swiss_business_uid":"CHE-103.323.546"},"geometry":{"type":"Polygon","coordinates":[[[6.5834802,46.541471],[6.5835891,46.5412904],[6.5837544,46.5413376],[6.5836455,46.5415182],[6.5834802,46.541471]]]}},{"type":"Feature","id":"way/283906916","properties":{"addr:city":"Renens","addr:housenumber":"3","addr:postcode":"1020","addr:street":"Rue Neuve","building":"apartments","building:levels":"5","last_renovation":"2014","owner":"Société coopérative d'habitation Renens et agglomération","owner:abbr":"SCHR","owner:type":"cooperative","owner:wikidata":"Q133284313","roof:levels":"1","roof:shape":"mansard","id":"way/283906916","last_renovation_parsed":"2014-01-01T00:00:00.000Z","owner:website":"https://schrenens.ch/","owner:swiss_business_uid":"CHE-103.323.546"},"geometry":{"type":"Polygon","coordinates":[[[6.5819889,46.537277],[6.582067,46.5371659],[6.582207,46.5372122],[6.5821293,46.5373236],[6.5820385,46.5372936],[6.5819889,46.537277]]]}},{"type":"Feature","id":"way/283906918","properties":{"addr:city":"Renens","addr:housenumber":"5","addr:postcode":"1020","addr:street":"Rue Neuve","building":"apartments","building:levels":"5","last_renovation":"2014","owner":"Société coopérative d'habitation Renens et agglomération","owner:abbr":"SCHR","owner:type":"cooperative","owner:wikidata":"Q133284313","roof:levels":"1","roof:shape":"mansard","id":"way/283906918","last_renovation_parsed":"2014-01-01T00:00:00.000Z","owner:website":"https://schrenens.ch/","owner:swiss_business_uid":"CHE-103.323.546"},"geometry":{"type":"Polygon","coordinates":[[[6.5821051,46.5373584],[6.5820149,46.537488],[6.5818687,46.5374399],[6.5819589,46.5373102],[6.5820143,46.5373287],[6.5821051,46.5373584]]]}},{"type":"Feature","id":"way/293553154","properties":{"addr:city":"Renens","addr:housenumber":"18a","addr:postcode":"1020","addr:street":"Rue du Lac","building":"apartments","building:flats":"20","owner":"Société coopérative d'habitation Renens et agglomération","owner:abbr":"SCHR","owner:type":"cooperative","owner:wikidata":"Q133284313","start_date":"1990","id":"way/293553154","start_date_parsed":"1990-01-01T00:00:00.000Z","owner:website":"https://schrenens.ch/","owner:swiss_business_uid":"CHE-103.323.546"},"geometry":{"type":"Polygon","coordinates":[[[6.5883176,46.5282503],[6.588322,46.5281684],[6.5883445,46.528169],[6.5883502,46.5280635],[6.5886016,46.5280699],[6.588595,46.5281914],[6.5886178,46.528192],[6.5886132,46.5282776],[6.5884517,46.5282735],[6.5884528,46.5282538],[6.5883176,46.5282503]]]}},{"type":"Feature","id":"way/307168552","properties":{"addr:city":"Renens","addr:housenumber":"4","addr:postcode":"1020","addr:street":"Rue du Midi","building":"apartments","building:levels":"1","last_renovation":"2014","owner":"Société coopérative d'habitation Renens et agglomération","owner:abbr":"SCHR","owner:type":"cooperative","owner:wikidata":"Q133284313","roof:levels":"0","id":"way/307168552","last_renovation_parsed":"2014-01-01T00:00:00.000Z","owner:website":"https://schrenens.ch/","owner:swiss_business_uid":"CHE-103.323.546"},"geometry":{"type":"Polygon","coordinates":[[[6.5817329,46.5374009],[6.5818332,46.5372498],[6.5819412,46.5372838],[6.5818409,46.5374348],[6.5817329,46.5374009]]]}},{"type":"Feature","id":"way/338130402","properties":{"addr:city":"Renens","addr:housenumber":"4","addr:postcode":"1020","addr:street":"Chemin de Borjod","building":"apartments","building:flats":"6","building:levels":"4","last_renovation":"2020","owner":"Société coopérative d'habitation Renens et agglomération","owner:abbr":"SCHR","owner:type":"cooperative","owner:wikidata":"Q133284313","roof:levels":"0","roof:shape":"hipped","start_date":"1946","id":"way/338130402","start_date_parsed":"1946-01-01T00:00:00.000Z","last_renovation_parsed":"2020-01-01T00:00:00.000Z","owner:website":"https://schrenens.ch/","owner:swiss_business_uid":"CHE-103.323.546"},"geometry":{"type":"Polygon","coordinates":[[[6.5895279,46.5394132],[6.5894116,46.539378],[6.5895079,46.5392277],[6.5896242,46.539263],[6.5895279,46.5394132]]]}},{"type":"Feature","id":"way/338130404","properties":{"addr:city":"Renens","addr:housenumber":"3","addr:postcode":"1020","addr:street":"Chemin de Corbettes","building":"apartments","building:flats":"8","building:levels":"4","last_renovation":"2010","owner":"Société coopérative d'habitation Renens et agglomération","owner:abbr":"SCHR","owner:type":"cooperative","owner:wikidata":"Q133284313","roof:levels":"1","roof:shape":"hipped","start_date":"1955","id":"way/338130404","start_date_parsed":"1955-01-01T00:00:00.000Z","last_renovation_parsed":"2010-01-01T00:00:00.000Z","owner:website":"https://schrenens.ch/","owner:swiss_business_uid":"CHE-103.323.546"},"geometry":{"type":"Polygon","coordinates":[[[6.5896939,46.5373471],[6.589743,46.5372636],[6.5898228,46.5372858],[6.5898435,46.5372505],[6.5899818,46.5372889],[6.5898916,46.5374425],[6.5897502,46.5374032],[6.5897707,46.5373685],[6.5896939,46.5373471]]]}},{"type":"Feature","id":"way/338130406","properties":{"addr:city":"Renens","addr:housenumber":"9","addr:postcode":"1020","addr:street":"Chemin de Corbettes","building":"apartments","building:flats":"8","building:levels":"4","last_renovation":"2010","owner":"Société coopérative d'habitation Renens et agglomération","owner:abbr":"SCHR","owner:type":"cooperative","owner:wikidata":"Q133284313","roof:levels":"1","roof:shape":"hipped","start_date":"1955","id":"way/338130406","start_date_parsed":"1955-01-01T00:00:00.000Z","last_renovation_parsed":"2010-01-01T00:00:00.000Z","owner:website":"https://schrenens.ch/","owner:swiss_business_uid":"CHE-103.323.546"},"geometry":{"type":"Polygon","coordinates":[[[6.5892228,46.5380994],[6.5892718,46.5380159],[6.5893517,46.5380381],[6.5893724,46.5380028],[6.5895107,46.5380412],[6.5894204,46.5381948],[6.5892791,46.5381556],[6.5892995,46.5381208],[6.5892228,46.5380994]]]}},{"type":"Feature","id":"way/338130409","properties":{"addr:city":"Renens","addr:housenumber":"7","addr:postcode":"1020","addr:street":"Chemin de Corbettes","building":"apartments","building:flats":"8","building:levels":"4","last_renovation":"2010","owner":"Société coopérative d'habitation Renens et agglomération","owner:abbr":"SCHR","owner:type":"cooperative","owner:wikidata":"Q133284313","roof:levels":"1","roof:shape":"hipped","start_date":"1955","id":"way/338130409","start_date_parsed":"1955-01-01T00:00:00.000Z","last_renovation_parsed":"2010-01-01T00:00:00.000Z","owner:website":"https://schrenens.ch/","owner:swiss_business_uid":"CHE-103.323.546"},"geometry":{"type":"Polygon","coordinates":[[[6.5893765,46.5378468],[6.5894255,46.5377633],[6.5895054,46.5377855],[6.5895261,46.5377501],[6.5896644,46.5377886],[6.5895742,46.5379422],[6.5894328,46.5379029],[6.5894532,46.5378681],[6.5893765,46.5378468]]]}},{"type":"Feature","id":"way/338130411","properties":{"addr:city":"Renens","addr:housenumber":"5","addr:postcode":"1020","addr:street":"Chemin de Corbettes","building":"apartments","building:flats":"8","building:levels":"4","last_renovation":"2010","owner":"Société coopérative d'habitation Renens et agglomération","owner:abbr":"SCHR","owner:type":"cooperative","owner:wikidata":"Q133284313","roof:levels":"1","roof:shape":"hipped","start_date":"1955","id":"way/338130411","start_date_parsed":"1955-01-01T00:00:00.000Z","last_renovation_parsed":"2010-01-01T00:00:00.000Z","owner:website":"https://schrenens.ch/","owner:swiss_business_uid":"CHE-103.323.546"},"geometry":{"type":"Polygon","coordinates":[[[6.5895342,46.5375976],[6.5895833,46.5375141],[6.5896631,46.5375363],[6.5896839,46.537501],[6.5898221,46.5375394],[6.5897319,46.537693],[6.5895905,46.5376537],[6.589611,46.5376189],[6.5895342,46.5375976]]]}},{"type":"Feature","id":"way/338130413","properties":{"addr:city":"Renens","addr:housenumber":"1","addr:postcode":"1020","addr:street":"Chemin de Corbettes","building":"apartments","building:flats":"8","building:levels":"4","last_renovation":"2010","owner":"Société coopérative d'habitation Renens et agglomération","owner:abbr":"SCHR","owner:type":"cooperative","owner:wikidata":"Q133284313","roof:levels":"1","roof:shape":"hipped","start_date":"1955","id":"way/338130413","start_date_parsed":"1955-01-01T00:00:00.000Z","last_renovation_parsed":"2010-01-01T00:00:00.000Z","owner:website":"https://schrenens.ch/","owner:swiss_business_uid":"CHE-103.323.546"},"geometry":{"type":"Polygon","coordinates":[[[6.5898497,46.5370966],[6.5898987,46.5370131],[6.5899786,46.5370353],[6.5899993,46.537],[6.5901376,46.5370384],[6.5900474,46.537192],[6.589906,46.5371528],[6.5899264,46.537118],[6.5898497,46.5370966]]]}},{"type":"Feature","id":"way/384557550","properties":{"addr:city":"Renens","addr:housenumber":"13","addr:postcode":"1020","addr:street":"Chemin d'Arzillier","building":"apartments","building:flats":"6","owner":"Société coopérative d'habitation Renens et agglomération","owner:abbr":"SCHR","owner:type":"cooperative","owner:wikidata":"Q133284313","start_date":"1971","id":"way/384557550","start_date_parsed":"1971-01-01T00:00:00.000Z","owner:website":"https://schrenens.ch/","owner:swiss_business_uid":"CHE-103.323.546"},"geometry":{"type":"Polygon","coordinates":[[[6.5865747,46.5418596],[6.5867534,46.5417242],[6.5868606,46.5417911],[6.5866819,46.5419265],[6.5865747,46.5418596]]]}},{"type":"Feature","id":"way/1265538640","properties":{"addr:city":"Renens","addr:housenumber":"14","addr:postcode":"1020","addr:street":"Avenue des Paudex","building":"apartments","owner":"Société coopérative d'habitation Renens et agglomération","owner:abbr":"SCHR","owner:type":"cooperative","owner:wikidata":"Q133284313","start_date":"2023","id":"way/1265538640","start_date_parsed":"2023-01-01T00:00:00.000Z","owner:website":"https://schrenens.ch/","owner:swiss_business_uid":"CHE-103.323.546"},"geometry":{"type":"Polygon","coordinates":[[[6.5961547,46.5372362],[6.5960096,46.5371434],[6.5960942,46.5370807],[6.5958816,46.5369449],[6.5960492,46.5368207],[6.5962613,46.5369561],[6.5962174,46.5369887],[6.5963631,46.5370818],[6.5961547,46.5372362]]]}},{"type":"Feature","id":"way/1265538641","properties":{"addr:city":"Renens","addr:housenumber":"12","addr:postcode":"1020","addr:street":"Avenue des Paudex","building":"apartments","owner":"Société coopérative d'habitation Renens et agglomération","owner:abbr":"SCHR","owner:type":"cooperative","owner:wikidata":"Q133284313","start_date":"2022","id":"way/1265538641","start_date_parsed":"2022-01-01T00:00:00.000Z","owner:website":"https://schrenens.ch/","owner:swiss_business_uid":"CHE-103.323.546"},"geometry":{"type":"Polygon","coordinates":[[[6.5952583,46.5371772],[6.5954433,46.5370415],[6.5954966,46.5370759],[6.5955116,46.5370649],[6.5956555,46.5369593],[6.5958497,46.5370846],[6.5957175,46.5371816],[6.5956076,46.5371107],[6.5953959,46.537266],[6.5952583,46.5371772]]]}},{"type":"Feature","id":"way/1265538642","properties":{"addr:city":"Renens","addr:housenumber":"10","addr:postcode":"1020","addr:street":"Avenue des Paudex","building":"apartments","owner":"Société coopérative d'habitation Renens et agglomération","owner:abbr":"SCHR","owner:type":"cooperative","owner:wikidata":"Q133284313","start_date":"2022","id":"way/1265538642","start_date_parsed":"2022-01-01T00:00:00.000Z","owner:website":"https://schrenens.ch/","owner:swiss_business_uid":"CHE-103.323.546"},"geometry":{"type":"Polygon","coordinates":[[[6.595558,46.5374063],[6.5956914,46.5373087],[6.5958801,46.5374309],[6.5957194,46.5375484],[6.5957754,46.5375847],[6.5955906,46.5377198],[6.5954567,46.5376332],[6.5956055,46.5375244],[6.5956689,46.5374781],[6.595558,46.5374063]]]}},{"type":"Feature","id":"way/1305386459","properties":{"addr:city":"Renens","addr:housenumber":"34","addr:postcode":"1020","addr:street":"Chemin de Biondes","building":"apartments","building:flats":"15","last_renovation":"2011","owner":"Société coopérative d'habitation Renens et agglomération","owner:abbr":"SCHR","owner:type":"cooperative","owner:wikidata":"Q133284313","start_date":"1973","id":"way/1305386459","start_date_parsed":"1973-01-01T00:00:00.000Z","last_renovation_parsed":"2011-01-01T00:00:00.000Z","owner:website":"https://schrenens.ch/","owner:swiss_business_uid":"CHE-103.323.546"},"geometry":{"type":"Polygon","coordinates":[[[6.583399,46.54462],[6.583403,46.5446402],[6.583422,46.5447337],[6.5832135,46.5447536],[6.5831906,46.5446398],[6.583399,46.54462]]]}},{"type":"Feature","id":"way/1305386460","properties":{"addr:city":"Renens","addr:housenumber":"36","addr:postcode":"1020","addr:street":"Chemin de Biondes","building":"apartments","building:flats":"15","last_renovation":"2011","owner":"Société coopérative d'habitation Renens et agglomération","owner:abbr":"SCHR","owner:type":"cooperative","owner:wikidata":"Q133284313","start_date":"1973","id":"way/1305386460","start_date_parsed":"1973-01-01T00:00:00.000Z","last_renovation_parsed":"2011-01-01T00:00:00.000Z","owner:website":"https://schrenens.ch/","owner:swiss_business_uid":"CHE-103.323.546"},"geometry":{"type":"Polygon","coordinates":[[[6.583422,46.5447337],[6.583403,46.5446402],[6.5836119,46.54462],[6.5836303,46.5447089],[6.5836353,46.5447342],[6.5834262,46.5447543],[6.583422,46.5447337]]]}},{"type":"Feature","id":"way/1305386461","properties":{"addr:city":"Renens","addr:housenumber":"38","addr:postcode":"1020","addr:street":"Chemin de Biondes","building":"apartments","building:flats":"15","last_renovation":"2011","owner":"Société coopérative d'habitation Renens et agglomération","owner:abbr":"SCHR","owner:type":"cooperative","owner:wikidata":"Q133284313","start_date":"1973","id":"way/1305386461","start_date_parsed":"1973-01-01T00:00:00.000Z","last_renovation_parsed":"2011-01-01T00:00:00.000Z","owner:website":"https://schrenens.ch/","owner:swiss_business_uid":"CHE-103.323.546"},"geometry":{"type":"Polygon","coordinates":[[[6.5836303,46.5447089],[6.5836119,46.54462],[6.583607,46.5445961],[6.5838201,46.5445753],[6.5838394,46.5446678],[6.5838435,46.544688],[6.5836303,46.5447089]]]}},{"type":"Feature","id":"way/1305386462","properties":{"addr:city":"Renens","addr:housenumber":"40","addr:postcode":"1020","addr:street":"Chemin de Biondes","building":"apartments","building:flats":"15","last_renovation":"2011","owner":"Société coopérative d'habitation Renens et agglomération","owner:abbr":"SCHR","owner:type":"cooperative","owner:wikidata":"Q133284313","start_date":"1973","id":"way/1305386462","start_date_parsed":"1973-01-01T00:00:00.000Z","last_renovation_parsed":"2011-01-01T00:00:00.000Z","owner:website":"https://schrenens.ch/","owner:swiss_business_uid":"CHE-103.323.546"},"geometry":{"type":"Polygon","coordinates":[[[6.5838394,46.5446678],[6.5838201,46.5445753],[6.5838158,46.5445544],[6.5840271,46.5445336],[6.5840462,46.5446252],[6.5840508,46.5446469],[6.5838394,46.5446678]]]}},{"type":"Feature","id":"way/1305386463","properties":{"addr:city":"Renens","addr:housenumber":"42","addr:postcode":"1020","addr:street":"Chemin de Biondes","building":"apartments","building:flats":"15","last_renovation":"2011","owner":"Société coopérative d'habitation Renens et agglomération","owner:abbr":"SCHR","owner:type":"cooperative","owner:wikidata":"Q133284313","start_date":"1973","id":"way/1305386463","start_date_parsed":"1973-01-01T00:00:00.000Z","last_renovation_parsed":"2011-01-01T00:00:00.000Z","owner:website":"https://schrenens.ch/","owner:swiss_business_uid":"CHE-103.323.546"},"geometry":{"type":"Polygon","coordinates":[[[6.5840462,46.5446252],[6.5840271,46.5445336],[6.5840225,46.5445113],[6.5842317,46.5444906],[6.5842555,46.5446046],[6.5840462,46.5446252]]]}},{"type":"Feature","id":"way/1305386464","properties":{"addr:city":"Renens","addr:housenumber":"48","addr:postcode":"1020","addr:street":"Chemin de Biondes","building":"apartments","building:flats":"15","last_renovation":"2011","owner":"Société coopérative d'habitation Renens et agglomération","owner:abbr":"SCHR","owner:type":"cooperative","owner:wikidata":"Q133284313","start_date":"1973","id":"way/1305386464","start_date_parsed":"1973-01-01T00:00:00.000Z","last_renovation_parsed":"2011-01-01T00:00:00.000Z","owner:website":"https://schrenens.ch/","owner:swiss_business_uid":"CHE-103.323.546"},"geometry":{"type":"Polygon","coordinates":[[[6.5839112,46.5442687],[6.5838884,46.5441552],[6.5840991,46.5441352],[6.5841033,46.5441559],[6.5841219,46.5442486],[6.5839112,46.5442687]]]}},{"type":"Feature","id":"way/1305386465","properties":{"addr:city":"Renens","addr:housenumber":"46","addr:postcode":"1020","addr:street":"Chemin de Biondes","building":"apartments","building:flats":"15","last_renovation":"2011","owner":"Société coopérative d'habitation Renens et agglomération","owner:abbr":"SCHR","owner:type":"cooperative","owner:wikidata":"Q133284313","start_date":"1973","id":"way/1305386465","start_date_parsed":"1973-01-01T00:00:00.000Z","last_renovation_parsed":"2011-01-01T00:00:00.000Z","owner:website":"https://schrenens.ch/","owner:swiss_business_uid":"CHE-103.323.546"},"geometry":{"type":"Polygon","coordinates":[[[6.5841219,46.5442486],[6.5841033,46.5441559],[6.5843143,46.5441357],[6.5843187,46.5441577],[6.5843371,46.5442482],[6.584126,46.5442684],[6.5841219,46.5442486]]]}},{"type":"Feature","id":"way/1305386466","properties":{"addr:city":"Renens","addr:housenumber":"44","addr:postcode":"1020","addr:street":"Chemin de Biondes","building":"apartments","building:flats":"15","last_renovation":"2011","owner":"Société coopérative d'habitation Renens et agglomération","owner:abbr":"SCHR","owner:type":"cooperative","owner:wikidata":"Q133284313","start_date":"1973","id":"way/1305386466","start_date_parsed":"1973-01-01T00:00:00.000Z","last_renovation_parsed":"2011-01-01T00:00:00.000Z","owner:website":"https://schrenens.ch/","owner:swiss_business_uid":"CHE-103.323.546"},"geometry":{"type":"Polygon","coordinates":[[[6.5843371,46.5442482],[6.5843187,46.5441577],[6.584527,46.5441376],[6.5845501,46.5442502],[6.5843417,46.5442704],[6.5843371,46.5442482]]]}},{"type":"Feature","id":"way/1379268728","properties":{"addr:city":"Renens","addr:housenumber":"2","addr:postcode":"1020","addr:street":"Chemin de Borjod","building":"apartments","building:flats":"6","building:levels":"4","owner":"Société coopérative d'habitation Renens et agglomération","owner:abbr":"SCHR","owner:type":"cooperative","owner:wikidata":"Q133284313","roof:levels":"0","roof:shape":"hipped","id":"way/1379268728","owner:website":"https://schrenens.ch/","owner:swiss_business_uid":"CHE-103.323.546"},"geometry":{"type":"Polygon","coordinates":[[[6.5893666,46.5396659],[6.5892503,46.5396306],[6.5893466,46.5394804],[6.5894629,46.5395156],[6.5893666,46.5396659]]]}},{"type":"Feature","id":"way/1379268729","properties":{"addr:city":"Renens","addr:housenumber":"6","addr:postcode":"1020","addr:street":"Chemin de Borjod","building":"apartments","building:flats":"6","building:levels":"4","last_renovation":"2020","owner":"Société coopérative d'habitation Renens et agglomération","owner:abbr":"SCHR","owner:type":"cooperative","owner:wikidata":"Q133284313","roof:levels":"0","roof:shape":"hipped","start_date":"1946","id":"way/1379268729","start_date_parsed":"1946-01-01T00:00:00.000Z","last_renovation_parsed":"2020-01-01T00:00:00.000Z","owner:website":"https://schrenens.ch/","owner:swiss_business_uid":"CHE-103.323.546"},"geometry":{"type":"Polygon","coordinates":[[[6.5896846,46.5391625],[6.5895684,46.5391272],[6.5896647,46.5389769],[6.589781,46.5390122],[6.5896846,46.5391625]]]}},{"type":"Feature","id":"way/1379268730","properties":{"addr:city":"Renens","addr:housenumber":"8","addr:postcode":"1020","addr:street":"Chemin de Borjod","building":"apartments","building:flats":"6","building:levels":"4","last_renovation":"2020","owner":"Société coopérative d'habitation Renens et agglomération","owner:abbr":"SCHR","owner:type":"cooperative","owner:wikidata":"Q133284313","roof:levels":"0","roof:shape":"hipped","start_date":"1946","id":"way/1379268730","start_date_parsed":"1946-01-01T00:00:00.000Z","last_renovation_parsed":"2020-01-01T00:00:00.000Z","owner:website":"https://schrenens.ch/","owner:swiss_business_uid":"CHE-103.323.546"},"geometry":{"type":"Polygon","coordinates":[[[6.5898437,46.5389173],[6.5897274,46.5388821],[6.5898237,46.5387318],[6.58994,46.5387671],[6.5898437,46.5389173]]]}},{"type":"Feature","id":"way/1379268731","properties":{"addr:city":"Renens","addr:housenumber":"10","addr:postcode":"1020","addr:street":"Chemin de Borjod","building":"apartments","building:flats":"6","building:levels":"4","last_renovation":"2020","owner":"Société coopérative d'habitation Renens et agglomération","owner:abbr":"SCHR","owner:type":"cooperative","owner:wikidata":"Q133284313","roof:levels":"0","roof:shape":"hipped","start_date":"1946","id":"way/1379268731","start_date_parsed":"1946-01-01T00:00:00.000Z","last_renovation_parsed":"2020-01-01T00:00:00.000Z","owner:website":"https://schrenens.ch/","owner:swiss_business_uid":"CHE-103.323.546"},"geometry":{"type":"Polygon","coordinates":[[[6.5899984,46.5386695],[6.5898821,46.5386342],[6.5899784,46.5384839],[6.5900947,46.5385192],[6.5899984,46.5386695]]]}}]}