{"type":"FeatureCollection","features": [{"type":"Feature","id":"way/44365339","properties":{"addr:city":"Lausanne","addr:country":"CH","addr:housenumber":"24","addr:postcode":"1007","addr:street":"Chemin de Malley","building":"apartments","building:levels":"7","owner":"Coopelia","owner:type":"cooperative","owner:wikidata":"Q133282712","roof:levels":"0","roof:shape":"flat","start_date":"2005","id":"way/44365339","start_date_parsed":"2005-01-01T00:00:00.000Z","owner:website":"https://coopelia.ch/","owner:swiss_business_uid":"CHE-102.797.120"},"geometry":{"type":"Polygon","coordinates":[[[6.6042162,46.524956],[6.6041459,46.5249553],[6.6039137,46.5249528],[6.6038676,46.5249523],[6.6038708,46.5248122],[6.6042194,46.524816],[6.6042162,46.524956]]]}},{"type":"Feature","id":"way/44365344","properties":{"addr:city":"Lausanne","addr:country":"CH","addr:housenumber":"22","addr:postcode":"1007","addr:street":"Chemin de Malley","building":"apartments","owner":"Coopelia","owner:type":"cooperative","owner:wikidata":"Q133282712","source":"Orthophoto Ville de Lausanne 2008","start_date":"2005","id":"way/44365344","start_date_parsed":"2005-01-01T00:00:00.000Z","owner:website":"https://coopelia.ch/","owner:swiss_business_uid":"CHE-102.797.120"},"geometry":{"type":"Polygon","coordinates":[[[6.6044129,46.5252707],[6.6042024,46.5252699],[6.6042038,46.5250779],[6.6044144,46.5250787],[6.6044129,46.5252707]]]}},{"type":"Feature","id":"way/79825074","properties":{"addr:city":"Yverdon-les-Bains","addr:country":"CH","addr:housenumber":"1","addr:postcode":"1400","addr:street":"Chemin de Sous-Bois","building":"apartments","building:flats":"12","heating":"gas","owner":"Coopelia","owner:type":"cooperative","owner:wikidata":"Q133282712","source":"Orthophoto Yverdon 2007 / HEIG-VD","start_date":"2005","id":"way/79825074","start_date_parsed":"2005-01-01T00:00:00.000Z","owner:website":"https://coopelia.ch/","owner:swiss_business_uid":"CHE-102.797.120"},"geometry":{"type":"Polygon","coordinates":[[[6.6517417,46.7764866],[6.6517978,46.7764178],[6.6518113,46.7764229],[6.65183,46.7763999],[6.6518209,46.7763965],[6.6518553,46.7763543],[6.6518612,46.7763471],[6.6518666,46.7763404],[6.6518987,46.7763011],[6.6519075,46.7763044],[6.6519263,46.7762814],[6.651911,46.7762755],[6.6519668,46.7762072],[6.6520178,46.7762267],[6.6520252,46.7762177],[6.6520633,46.7762323],[6.6520569,46.7762401],[6.6520601,46.7762414],[6.6521128,46.7762615],[6.652078,46.7763041],[6.652069,46.7763007],[6.652026,46.7763533],[6.6520349,46.7763567],[6.6519618,46.7764463],[6.6519546,46.7764436],[6.6519115,46.7764964],[6.6519181,46.7764989],[6.6518879,46.7765431],[6.6518282,46.776521],[6.6518218,46.7765288],[6.6517816,46.7765135],[6.6517888,46.7765046],[6.6517417,46.7764866]]]}},{"type":"Feature","id":"way/139116960","properties":{"building":"apartments","building:flats":"18","heating":"gas","owner":"Coopelia","owner:type":"cooperative","owner:wikidata":"Q133282712","source":"Orthophoto Payerne 2011 / R-Pod @ HEIG-VD","start_date":"2008","addr":[{"addr:city":"Payerne","addr:postcode":"1530","addr:street":"Rue de Guillermaux","addr:housenumber":"8"},{"addr:city":"Payerne","addr:postcode":"1530","addr:street":"Rue de Guillermaux","addr:housenumber":"10"},{"addr:city":"Payerne","addr:postcode":"1530","addr:street":"Rue de Guillermaux","addr:housenumber":"12"}],"id":"way/139116960","start_date_parsed":"2008-01-01T00:00:00.000Z","owner:website":"https://coopelia.ch/","owner:swiss_business_uid":"CHE-102.797.120"},"geometry":{"type":"Polygon","coordinates":[[[6.9351991,46.8192619],[6.9355724,46.8190118],[6.9357103,46.8191082],[6.9353369,46.8193583],[6.9351991,46.8192619]]]}},{"type":"Feature","id":"way/159340566","properties":{"building":"apartments","building:flats":"14","heating":"gas","owner":"Coopelia","owner:type":"cooperative","owner:wikidata":"Q133282712","start_date":"2003","addr":[{"addr:city":"Yverdon-les-Bains","addr:postcode":"1400","addr:street":"Rue Jean-André-Venel","addr:housenumber":"23a"},{"addr:city":"Yverdon-les-Bains","addr:postcode":"1400","addr:street":"Rue Jean-André-Venel","addr:housenumber":"23b"}],"id":"way/159340566","start_date_parsed":"2003-01-01T00:00:00.000Z","owner:website":"https://coopelia.ch/","owner:swiss_business_uid":"CHE-102.797.120"},"geometry":{"type":"Polygon","coordinates":[[[6.6468811,46.7687927],[6.6469642,46.7686631],[6.6473409,46.7687763],[6.6472578,46.7689059],[6.6468811,46.7687927]]]}},{"type":"Feature","id":"way/159340569","properties":{"building":"apartments","building:flats":"14","heating":"gas","owner":"Coopelia","owner:type":"cooperative","owner:wikidata":"Q133282712","start_date":"2003","addr":[{"addr:city":"Yverdon-les-Bains","addr:postcode":"1400","addr:street":"Rue Jean-André-Venel","addr:housenumber":"25b"},{"addr:city":"Yverdon-les-Bains","addr:postcode":"1400","addr:street":"Rue Jean-André-Venel","addr:housenumber":"25a"}],"id":"way/159340569","start_date_parsed":"2003-01-01T00:00:00.000Z","owner:website":"https://coopelia.ch/","owner:swiss_business_uid":"CHE-102.797.120"},"geometry":{"type":"Polygon","coordinates":[[[6.6473603,46.7689379],[6.6474436,46.7688075],[6.6478228,46.7689212],[6.6477395,46.7690516],[6.6476389,46.7690215],[6.6474658,46.7689696],[6.6473603,46.7689379]]]}},{"type":"Feature","id":"way/179206600","properties":{"building":"apartments","building:flats":"45","heating":"gas","owner":"Coopelia","owner:type":"cooperative","owner:wikidata":"Q133282712","start_date":"2000","addr":[{"addr:city":"Genève","addr:postcode":"1202","addr:street":"Rue Rothschild","addr:housenumber":"44"},{"addr:city":"Genève","addr:postcode":"1202","addr:street":"Rue Rothschild","addr:housenumber":"42"},{"addr:city":"Genève","addr:postcode":"1202","addr:street":"Rue Rothschild","addr:housenumber":"48"},{"addr:city":"Genève","addr:postcode":"1202","addr:street":"Rue Rothschild","addr:housenumber":"46"}],"id":"way/179206600","start_date_parsed":"2000-01-01T00:00:00.000Z","owner:website":"https://coopelia.ch/","owner:swiss_business_uid":"CHE-102.797.120"},"geometry":{"type":"Polygon","coordinates":[[[6.1483372,46.2153965],[6.1477212,46.2156607],[6.1476231,46.215551],[6.1483035,46.2152593],[6.148438,46.2154095],[6.1483736,46.2154371],[6.1483372,46.2153965]]]}},{"type":"Feature","id":"way/198168299","properties":{"building":"apartments","building:flats":"36","building:levels":"5","heating":"gas","owner":"Coopelia","owner:type":"cooperative","owner:wikidata":"Q133282712","roof:levels":"0","roof:shape":"flat","start_date":"2009","addr":[{"addr:city":"Vevey","addr:postcode":"1800","addr:street":"Avenue de Rolliez","addr:housenumber":"1"},{"addr:city":"Vevey","addr:postcode":"1800","addr:street":"Avenue de Rolliez","addr:housenumber":"3"},{"addr:city":"Vevey","addr:postcode":"1800","addr:street":"Chemin du Petit-Clos","addr:housenumber":"14"}],"id":"way/198168299","start_date_parsed":"2009-01-01T00:00:00.000Z","owner:website":"https://coopelia.ch/","owner:swiss_business_uid":"CHE-102.797.120"},"geometry":{"type":"Polygon","coordinates":[[[6.8533893,46.4595665],[6.8534089,46.4595299],[6.8533481,46.4594706],[6.8533917,46.4594508],[6.8534082,46.4594636],[6.853472,46.4594336],[6.8534915,46.4594507],[6.8535564,46.4594198],[6.8536416,46.45943],[6.8536375,46.4594463],[6.8537855,46.4594633],[6.8537898,46.4594521],[6.853872,46.4594634],[6.8539203,46.4595083],[6.8539977,46.4595903],[6.8540185,46.4595815],[6.8540487,46.4596083],[6.8540379,46.4596117],[6.8540852,46.4596682],[6.8539718,46.4597197],[6.8538963,46.4596784],[6.8537865,46.4595723],[6.8537787,46.4595751],[6.8537567,46.459572],[6.8537481,46.4595609],[6.8536263,46.4595454],[6.8536143,46.4595538],[6.8535898,46.4595516],[6.853581,46.4595446],[6.8534952,46.4595834],[6.8533893,46.4595665]]]}},{"type":"Feature","id":"way/231422827","properties":{"addr:city":"Orbe","addr:country":"CH","addr:housenumber":"27","addr:postcode":"1350","addr:street":"Rue des Terreaux","building":"apartments","heating":"gas","owner":"Coopelia","owner:type":"cooperative","owner:wikidata":"Q133282712","start_date":"2007","id":"way/231422827","start_date_parsed":"2007-01-01T00:00:00.000Z","owner:website":"https://coopelia.ch/","owner:swiss_business_uid":"CHE-102.797.120"},"geometry":{"type":"Polygon","coordinates":[[[6.5310837,46.7259745],[6.5309825,46.7257921],[6.5311448,46.7257498],[6.5311523,46.7257635],[6.5311883,46.7257541],[6.5312763,46.7259128],[6.5312347,46.7259237],[6.5312402,46.7259337],[6.5310837,46.7259745]]]}},{"type":"Feature","id":"way/231422849","properties":{"building":"apartments","heating":"gas","owner":"Coopelia","owner:type":"cooperative","owner:wikidata":"Q133282712","start_date":"2007","addr":[{"addr:city":"Orbe","addr:postcode":"1350","addr:street":"Rue des Terreaux","addr:housenumber":"33"},{"addr:city":"Orbe","addr:postcode":"1350","addr:street":"Rue des Terreaux","addr:housenumber":"31"},{"addr:city":"Orbe","addr:postcode":"1350","addr:street":"Rue des Terreaux","addr:housenumber":"29"}],"id":"way/231422849","start_date_parsed":"2007-01-01T00:00:00.000Z","owner:website":"https://coopelia.ch/","owner:swiss_business_uid":"CHE-102.797.120"},"geometry":{"type":"Polygon","coordinates":[[[6.5313352,46.726314],[6.5311456,46.7260578],[6.5313359,46.7259916],[6.5315266,46.7262493],[6.5314687,46.7262694],[6.5314903,46.7262986],[6.5315081,46.7262924],[6.5315503,46.7262941],[6.5315458,46.7263826],[6.531485,46.7263824],[6.531485,46.7263673],[6.5314313,46.7263668],[6.5314134,46.7263426],[6.5313964,46.7263485],[6.5313812,46.726328],[6.5314209,46.7263141],[6.5314033,46.7262903],[6.5313352,46.726314]]]}},{"type":"Feature","id":"way/258639882","properties":{"addr:city":"Vallorbe","addr:country":"CH","addr:housenumber":"40","addr:postcode":"1337","addr:street":"Rue de l'Ancienne Poste","building":"apartments","heating":"gas","owner":"Coopelia","owner:type":"cooperative","owner:wikidata":"Q133282712","source":"Bing","start_date":"2016","id":"way/258639882","start_date_parsed":"2016-01-01T00:00:00.000Z","owner:website":"https://coopelia.ch/","owner:swiss_business_uid":"CHE-102.797.120"},"geometry":{"type":"Polygon","coordinates":[[[6.3790635,46.7125404],[6.3792851,46.7125917],[6.3792722,46.7126178],[6.3793504,46.7126359],[6.3792987,46.7127408],[6.3791256,46.7127007],[6.3791355,46.7126806],[6.3790081,46.7126512],[6.3790207,46.7126249],[6.3790635,46.7125404]]]}},{"type":"Feature","id":"way/366093291","properties":{"building":"apartments","building:flats":"37","heating":"gas","owner":"Coopelia","owner:type":"cooperative","owner:wikidata":"Q133282712","start_date":"2002","addr":[{"addr:city":"Versoix","addr:postcode":"1290","addr:street":"Chemin Ami-Argand","addr:housenumber":"21"},{"addr:city":"Versoix","addr:postcode":"1290","addr:street":"Chemin Ami-Argand","addr:housenumber":"19"}],"id":"way/366093291","start_date_parsed":"2002-01-01T00:00:00.000Z","owner:website":"https://coopelia.ch/","owner:swiss_business_uid":"CHE-102.797.120"},"geometry":{"type":"Polygon","coordinates":[[[6.1638797,46.285173],[6.1638786,46.2852301],[6.1638965,46.2852302],[6.1638955,46.2852862],[6.1638792,46.2852861],[6.1638774,46.2853823],[6.1638916,46.2853824],[6.1638898,46.2854809],[6.16387,46.2854807],[6.163869,46.2855341],[6.1636434,46.2855321],[6.1636448,46.2854597],[6.1636724,46.28546],[6.1636729,46.2854342],[6.163645,46.2854339],[6.1636478,46.2852817],[6.1636777,46.2852819],[6.1636787,46.2852281],[6.1636453,46.2852278],[6.1636464,46.285171],[6.1636784,46.2851712],[6.1638797,46.285173]]]}},{"type":"Feature","id":"way/641622755","properties":{"building":"apartments","building:flats":"18","building:levels":"6","heating":"district_heating","owner":"Coopelia","owner:type":"cooperative","owner:wikidata":"Q133282712","roof:shape":"flat","start_date":"2015","addr":[{"addr:city":"Morges","addr:postcode":"1110","addr:street":"Rue de Lausanne","addr:housenumber":"35a"},{"addr:city":"Morges","addr:postcode":"1110","addr:street":"Rue de Lausanne","addr:housenumber":"35b"}],"id":"way/641622755","start_date_parsed":"2015-01-01T00:00:00.000Z","owner:website":"https://coopelia.ch/","owner:swiss_business_uid":"CHE-102.797.120"},"geometry":{"type":"Polygon","coordinates":[[[6.5022819,46.5152523],[6.5023907,46.5151923],[6.5030305,46.5154343],[6.5033089,46.5155754],[6.5034924,46.5156864],[6.5034206,46.5157567],[6.5022819,46.5152523]]]}},{"type":"Feature","id":"way/683751329","properties":{"building":"apartments","building:flats":"50","heating":"biogas","owner":"Coopelia","owner:type":"cooperative","owner:wikidata":"Q133282712","start_date":"2015","addr":[{"addr:city":"Gland","addr:postcode":"1196","addr:street":"Allée du Communet","addr:housenumber":"5"},{"addr:city":"Gland","addr:postcode":"1196","addr:street":"Allée Louis Cristin","addr:housenumber":"5"}],"id":"way/683751329","start_date_parsed":"2015-01-01T00:00:00.000Z","owner:website":"https://coopelia.ch/","owner:swiss_business_uid":"CHE-102.797.120"},"geometry":{"type":"Polygon","coordinates":[[[6.2648691,46.4285966],[6.2641976,46.428187],[6.2643421,46.4280744],[6.2650137,46.428484],[6.2648691,46.4285966]]]}},{"type":"Feature","id":"way/689427986","properties":{"addr:city":"Vallorbe","addr:country":"CH","addr:housenumber":"42","addr:postcode":"1337","addr:street":"Rue de l'Ancienne Poste","building":"apartments","heating":"gas","owner":"Coopelia","owner:type":"cooperative","owner:wikidata":"Q133282712","start_date":"2016","id":"way/689427986","start_date_parsed":"2016-01-01T00:00:00.000Z","owner:website":"https://coopelia.ch/","owner:swiss_business_uid":"CHE-102.797.120"},"geometry":{"type":"Polygon","coordinates":[[[6.3794758,46.7127817],[6.3792987,46.7127408],[6.3793504,46.7126359],[6.3793564,46.7126233],[6.3795346,46.7126657],[6.3794758,46.7127817]]]}},{"type":"Feature","id":"way/689427987","properties":{"addr:city":"Vallorbe","addr:country":"CH","addr:housenumber":"38","addr:postcode":"1337","addr:street":"Rue de l'Ancienne Poste","building":"apartments","heating":"gas","owner":"Coopelia","owner:type":"cooperative","owner:wikidata":"Q133282712","start_date":"2016","id":"way/689427987","start_date_parsed":"2016-01-01T00:00:00.000Z","owner:website":"https://coopelia.ch/","owner:swiss_business_uid":"CHE-102.797.120"},"geometry":{"type":"Polygon","coordinates":[[[6.3790207,46.7126249],[6.3788654,46.7125879],[6.3789177,46.7124846],[6.379073,46.7125216],[6.3790635,46.7125404],[6.3790207,46.7126249]]]}}]}