{"type":"FeatureCollection","features": [{"type":"Feature","id":"way/88102309","properties":{"building":"apartments","building:condition":"renovated","building:flats":"28","last_renovation":"2016","owner":"Société coopérative d'habitation Pully","owner:abbr":"SCHP","owner:type":"cooperative","owner:wikidata":"Q132179712","source":"Bing Aerial Maps","start_date":"1991","addr":[{"addr:city":"Pully","addr:postcode":"1009","addr:street":"Chemin du Pré de la Tour","addr:housenumber":"1b"},{"addr:city":"Pully","addr:postcode":"1009","addr:street":"Chemin du Pré de la Tour","addr:housenumber":"1a"},{"addr:city":"Pully","addr:postcode":"1009","addr:street":"Chemin du Pré de la Tour","addr:housenumber":"1c"}],"id":"way/88102309","start_date_parsed":"1991-01-01T00:00:00.000Z","last_renovation_parsed":"2016-01-01T00:00:00.000Z","owner:website":"https://schpully.ch","owner:start_date":"1988-01-01T00:00:00Z","owner:swiss_business_uid":"CHE-101.923.445"},"geometry":{"type":"Polygon","coordinates":[[[6.6585828,46.5116759],[6.6586637,46.5116924],[6.658663,46.5117011],[6.6591799,46.5117467],[6.6591811,46.5117382],[6.6592341,46.5117264],[6.6592583,46.5117807],[6.6592879,46.5117731],[6.6593087,46.5118216],[6.6592437,46.5118414],[6.6592346,46.5118807],[6.6588928,46.5118489],[6.6585699,46.5118218],[6.6585786,46.5117668],[6.6585229,46.5117589],[6.6585376,46.5117062],[6.6585911,46.5117151],[6.6585828,46.5116759]]]}},{"type":"Feature","id":"way/89609635","properties":{"building":"apartments","building:flats":"33","building:flats:dog":"no","building:levels":"3","heating":"district_heating","operator":"Société coopérative d'habitation Lausanne","operator:abbr":"SCHL","operator:type":"cooperative","operator:wikidata":"Q126741196","owner":"Société coopérative d'habitation Pully","owner:abbr":"SCHP","owner:type":"cooperative","owner:wikidata":"Q132179712","roof:shape":"flat","source":"Orthophoto Pully swisstopo","start_date":"2004","addr":[{"addr:city":"Pully","addr:postcode":"1009","addr:street":"Avenue des Alpes","addr:housenumber":"34"},{"addr:city":"Pully","addr:postcode":"1009","addr:street":"Avenue des Alpes","addr:housenumber":"32"},{"addr:city":"Pully","addr:postcode":"1009","addr:street":"Avenue des Alpes","addr:housenumber":"28"},{"addr:city":"Pully","addr:postcode":"1009","addr:street":"Avenue des Alpes","addr:housenumber":"30"},{"addr:city":"Pully","addr:postcode":"1009","addr:street":"Avenue des Alpes","addr:housenumber":"24"},{"addr:city":"Pully","addr:postcode":"1009","addr:street":"Avenue des Alpes","addr:housenumber":"26"}],"id":"way/89609635","start_date_parsed":"2004-01-01T00:00:00.000Z","owner:website":"https://schpully.ch","owner:start_date":"1988-01-01T00:00:00Z","owner:swiss_business_uid":"CHE-101.923.445","operator:website":"https://schl.ch/","operator:start_date":"1920-01-01T00:00:00Z","operator:swiss_business_uid":"CHE-107.036.838"},"geometry":{"type":"Polygon","coordinates":[[[6.6577789,46.5159347],[6.6576795,46.5158277],[6.6578563,46.5157506],[6.6581424,46.5156214],[6.6580114,46.5154798],[6.6584119,46.5153804],[6.6587086,46.5152719],[6.6589035,46.5151819],[6.6589389,46.5152171],[6.6589975,46.5152788],[6.6590036,46.5152855],[6.658888,46.5153344],[6.6587701,46.5153834],[6.658745,46.5153934],[6.658659,46.5154218],[6.6585374,46.5154632],[6.658447,46.515496],[6.658423,46.5155003],[6.6582955,46.5155384],[6.6581815,46.5155652],[6.6582628,46.5157081],[6.658194,46.5157392],[6.6580875,46.5157879],[6.6579842,46.5158371],[6.6577925,46.5159283],[6.6577789,46.5159347]]]}}]}