{"type":"FeatureCollection","features": [{"type":"Feature","id":"way/82988356","properties":{"building":"apartments","building:flats":"76","building:levels":"7","owner":"Coopérative pour l'Habitation La Voie-Creuse","owner:type":"cooperative","owner:wikidata":"Q133284332","start_date":"2000-05","addr":[{"addr:city":"Genève","addr:postcode":"1202","addr:street":"La Voie-Creuse","addr:housenumber":"10"},{"addr:city":"Genève","addr:postcode":"1202","addr:street":"La Voie-Creuse","addr:housenumber":"4"},{"addr:city":"Genève","addr:postcode":"1202","addr:street":"La Voie-Creuse","addr:housenumber":"6"},{"addr:city":"Genève","addr:postcode":"1202","addr:street":"La Voie-Creuse","addr:housenumber":"8"}],"id":"way/82988356","start_date_parsed":"2000-05-01T00:00:00.000Z","owner:swiss_business_uid":"CHE-102.714.849"},"geometry":{"type":"Polygon","coordinates":[[[6.1432606,46.2185557],[6.1430505,46.2185689],[6.143042,46.2185042],[6.1430774,46.2185003],[6.1430732,46.218466],[6.1430799,46.2184194],[6.1431076,46.2183636],[6.143138,46.218332],[6.1431806,46.2182982],[6.1432797,46.2182531],[6.1433553,46.2182362],[6.1434191,46.2182304],[6.1434976,46.2182346],[6.1435725,46.2182462],[6.1436328,46.2182706],[6.1436746,46.2182903],[6.1437093,46.2183166],[6.1437381,46.2183446],[6.1437578,46.2183726],[6.1437805,46.2184194],[6.1437884,46.2184533],[6.143823,46.2184505],[6.1438302,46.2185165],[6.1436216,46.2185309],[6.143611,46.2184434],[6.1436061,46.2184435],[6.14358,46.2183931],[6.1435193,46.2183587],[6.1434908,46.2183494],[6.1434137,46.2183401],[6.1433405,46.2183601],[6.1433155,46.2183719],[6.1432669,46.2184139],[6.1432538,46.2184671],[6.143247,46.2184679],[6.1432606,46.2185557]]]}}]}