{"type":"FeatureCollection","features": [
  {
    "type": "Feature",
    "id": "way/219350009",
    "properties": {
      "building": "apartments",
      "building:flats": "13",
      "owner": "Coopérative d'habitation Equilibre",
      "owner:type": "cooperative",
      "owner:wikidata": "Q133459721",
      "start_date": "2011",
      "addr": [
        {
          "addr:city": "Confignon",
          "addr:postcode": "1232",
          "addr:street": "Route de Loëx",
          "addr:housenumber": "77"
        },
        {
          "addr:city": "Confignon",
          "addr:postcode": "1232",
          "addr:street": "Route de Loëx",
          "addr:housenumber": "75"
        }
      ],
      "id": "way/219350009",
      "start_date_parsed": "2011-01-01T00:00:00.000Z",
      "owner:website": "https://www.cooperative-equilibre.ch/",
      "owner:start_date": "2005-01-01T00:00:00Z",
      "owner:swiss_business_uid": "CHE-112.841.426"
    },
    "geometry": {
      "type": "Polygon",
      "coordinates": [
        [
          [
            6.0896727,
            46.1849957
          ],
          [
            6.0900597,
            46.1851318
          ],
          [
            6.0899728,
            46.1852501
          ],
          [
            6.0895859,
            46.185114
          ],
          [
            6.0896727,
            46.1849957
          ]
        ]
      ]
    }
  },
  {
    "type": "Feature",
    "id": "way/616750785",
    "properties": {
      "addr:city": "Genève",
      "addr:housenumber": "7",
      "addr:postcode": "1203",
      "addr:street": "Rue Soubeyran",
      "building": "apartments",
      "building:flats": "38",
      "building:levels": "6",
      "owner": "Coopérative d'habitation Equilibre",
      "owner:type": "cooperative",
      "owner:wikidata": "Q133459721",
      "start_date": "2016",
      "id": "way/616750785",
      "start_date_parsed": "2016-01-01T00:00:00.000Z",
      "owner:website": "https://www.cooperative-equilibre.ch/",
      "owner:start_date": "2005-01-01T00:00:00Z",
      "owner:swiss_business_uid": "CHE-112.841.426"
    },
    "geometry": {
      "type": "Polygon",
      "coordinates": [
        [
          [
            6.1231526,
            46.2122326
          ],
          [
            6.1228567,
            46.2122667
          ],
          [
            6.1225692,
            46.2123386
          ],
          [
            6.1224935,
            46.2121675
          ],
          [
            6.122793,
            46.212095
          ],
          [
            6.123107,
            46.2120552
          ],
          [
            6.1231526,
            46.2122326
          ]
        ]
      ]
    }
  },
  {
    "type": "Feature",
    "id": "way/650302098",
    "properties": {
      "building": "apartments",
      "building:flats": "23",
      "building:levels": "6",
      "name": "A24",
      "owner": "Coopérative d'habitation Equilibre",
      "owner:type": "cooperative",
      "owner:wikidata": "Q133459721",
      "addr": [
        {
          "addr:city": "Meyrin",
          "addr:postcode": "1217",
          "addr:street": "Esplanade des Récréations",
          "addr:housenumber": "24"
        },
        {
          "addr:city": "Meyrin",
          "addr:postcode": "1217",
          "addr:street": "Promenade de l'Aubier",
          "addr:housenumber": "19"
        }
      ],
      "id": "way/650302098",
      "owner:website": "https://www.cooperative-equilibre.ch/",
      "owner:start_date": "2005-01-01T00:00:00Z",
      "owner:swiss_business_uid": "CHE-112.841.426"
    },
    "geometry": {
      "type": "Polygon",
      "coordinates": [
        [
          [
            6.073496,
            46.2326631
          ],
          [
            6.0737985,
            46.2324881
          ],
          [
            6.0739592,
            46.2326211
          ],
          [
            6.0736567,
            46.232796
          ],
          [
            6.073496,
            46.2326631
          ]
        ]
      ]
    }
  },
  {
    "type": "Feature",
    "id": "way/650302100",
    "properties": {
      "building": "apartments",
      "building:flats": "23",
      "building:levels": "6",
      "name": "A25",
      "owner": "Coopérative d'habitation Equilibre",
      "owner:type": "cooperative",
      "owner:wikidata": "Q133459721",
      "addr": [
        {
          "addr:city": "Meyrin",
          "addr:postcode": "1217",
          "addr:street": "Esplanade des Récréations",
          "addr:housenumber": "26"
        },
        {
          "addr:city": "Meyrin",
          "addr:postcode": "1217",
          "addr:street": "Promenade de l'Aubier",
          "addr:housenumber": "21"
        }
      ],
      "id": "way/650302100",
      "owner:website": "https://www.cooperative-equilibre.ch/",
      "owner:start_date": "2005-01-01T00:00:00Z",
      "owner:swiss_business_uid": "CHE-112.841.426"
    },
    "geometry": {
      "type": "Polygon",
      "coordinates": [
        [
          [
            6.0739981,
            46.2330655
          ],
          [
            6.0743034,
            46.2328847
          ],
          [
            6.0744697,
            46.233019
          ],
          [
            6.0742955,
            46.2331221
          ],
          [
            6.0741643,
            46.2331998
          ],
          [
            6.0741521,
            46.2331899
          ],
          [
            6.0741403,
            46.2331804
          ],
          [
            6.0740202,
            46.2330833
          ],
          [
            6.0739981,
            46.2330655
          ]
        ]
      ]
    }
  },
  {
    "type": "Feature",
    "id": "way/650302101",
    "properties": {
      "addr:city": "Meyrin",
      "addr:housenumber": "20",
      "addr:postcode": "1217",
      "addr:street": "Promenade de l'Aubier",
      "building": "apartments",
      "building:flats": "21",
      "building:levels": "5",
      "name": "A28",
      "owner": "Coopérative d'habitation Equilibre",
      "owner:type": "cooperative",
      "owner:wikidata": "Q133459721",
      "id": "way/650302101",
      "owner:website": "https://www.cooperative-equilibre.ch/",
      "owner:start_date": "2005-01-01T00:00:00Z",
      "owner:swiss_business_uid": "CHE-112.841.426"
    },
    "geometry": {
      "type": "Polygon",
      "coordinates": [
        [
          [
            6.0740782,
            46.232647
          ],
          [
            6.074267,
            46.2325372
          ],
          [
            6.0744735,
            46.2327071
          ],
          [
            6.0742847,
            46.2328169
          ],
          [
            6.0740782,
            46.232647
          ]
        ]
      ]
    }
  }
]}