{"type":"FeatureCollection","features": [{"type":"Feature","id":"way/44354459","properties":{"architect":"Atelier Artec Architecture","building":"apartments","building:flats":"20","building:levels":"5","owner":"Coopérative Cité Derrière","owner:type":"cooperative","owner:wikidata":"Q131743050","roof:levels":"0","source":"Orthophoto Ville de Lausanne 2008","start_date":"2005-01-01T00:00:00.000Z","subsidized":"yes","addr":[{"addr:city":"Lausanne","addr:postcode":"1007","addr:street":"Chemin de la Prairie","addr:housenumber":"22a"},{"addr:city":"Lausanne","addr:postcode":"1007","addr:street":"Chemin de la Prairie","addr:housenumber":"22b"}],"id":"way/44354459","owner:website":"https://citederriere.ch","owner:start_date":"1995-01-01T00:00:00Z","owner:swiss_business_uid":"CHE-104.327.245"},"geometry":{"type":"Polygon","coordinates":[[[6.6028612,46.5236666],[6.6027847,46.5237763],[6.6022152,46.5235882],[6.6022917,46.5234785],[6.6028612,46.5236666]]]}},{"type":"Feature","id":"way/44365331","properties":{"addr:city":"Lausanne","addr:country":"CH","addr:housenumber":"30","addr:postcode":"1007","addr:street":"Avenue du Chablais","building":"dormitory","owner":"Coopérative Cité Derrière","owner:type":"cooperative","owner:wikidata":"Q131743050","source":"Orthophoto Ville de Lausanne 2008","id":"way/44365331","owner:website":"https://citederriere.ch","owner:start_date":"1995-01-01T00:00:00Z","owner:swiss_business_uid":"CHE-104.327.245"},"geometry":{"type":"Polygon","coordinates":[[[6.6019835,46.5243012],[6.6018476,46.5244004],[6.6016813,46.5242926],[6.6017186,46.5242654],[6.6016957,46.5242505],[6.6017577,46.5242053],[6.6017805,46.5242201],[6.6018172,46.5241934],[6.6018764,46.5242318],[6.6018888,46.5242228],[6.6019107,46.524237],[6.6018984,46.5242461],[6.6019835,46.5243012]]]}},{"type":"Feature","id":"way/44698741","properties":{"architect":"Lonchamp & Froidevaux","building":"apartments","building:flats":"34","building:levels":"7","owner":"Coopérative Cité Derrière","owner:type":"cooperative","owner:wikidata":"Q131743050","source":"Orthophoto Ville de Lausanne 2008","start_date":"2006-01-01T00:00:00.000Z","subsidized":"yes","addr":[{"addr:city":"Lausanne","addr:postcode":"1007","addr:street":"Chemin de la Colline","addr:housenumber":"24"},{"addr:city":"Lausanne","addr:postcode":"1007","addr:street":"Chemin de la Colline","addr:housenumber":"46"}],"id":"way/44698741","owner:website":"https://citederriere.ch","owner:start_date":"1995-01-01T00:00:00Z","owner:swiss_business_uid":"CHE-104.327.245"},"geometry":{"type":"Polygon","coordinates":[[[6.6094427,46.5226878],[6.6094096,46.5226226],[6.6106254,46.5222727],[6.6106663,46.5223474],[6.6094427,46.5226878]]]}},{"type":"Feature","id":"way/44738262","properties":{"addr:city":"Lausanne","addr:country":"CH","addr:housenumber":"39","addr:postcode":"1007","addr:street":"Avenue des Figuiers","building":"apartments","building:flats":"42","owner":"Coopérative Cité Derrière","owner:type":"cooperative","owner:wikidata":"Q131743050","rent:regulation":"yes","source":"Orthophoto Ville de Lausanne 2008","start_date":"2000-01-01T00:00:00.000Z","id":"way/44738262","owner:website":"https://citederriere.ch","owner:start_date":"1995-01-01T00:00:00Z","owner:swiss_business_uid":"CHE-104.327.245"},"geometry":{"type":"Polygon","coordinates":[[[6.6059999,46.516771],[6.60583,46.5167716],[6.6058175,46.5167107],[6.605812,46.5165695],[6.6058465,46.5165695],[6.605855,46.5165735],[6.6058632,46.5165734],[6.6058632,46.5165527],[6.6058519,46.5165536],[6.6058452,46.5165495],[6.6058357,46.5165492],[6.6058355,46.5165349],[6.6058121,46.5165354],[6.6058111,46.5164579],[6.6058311,46.5164578],[6.6058298,46.5164313],[6.6060315,46.516429],[6.6060264,46.5165257],[6.6059721,46.5165266],[6.6059723,46.5165809],[6.606037,46.5165801],[6.6060373,46.5166255],[6.6059702,46.5166263],[6.6059733,46.5167027],[6.6059974,46.5167027],[6.6059999,46.516771]]]}},{"type":"Feature","id":"way/44962526","properties":{"addr:city":"Lausanne","addr:country":"CH","addr:housenumber":"6","addr:postcode":"1006","addr:street":"Chemin du Vanil","building":"apartments","building:flats":"30","building:levels":"4","last_renovation":"2016-01-01T00:00:00.000Z","owner":"Coopérative Cité Derrière","owner:type":"cooperative","owner:wikidata":"Q131743050","rent:regulation":"yes","roof:levels":"1","source":"Orthophotos Ville de Lausanne 2008","id":"way/44962526","owner:website":"https://citederriere.ch","owner:start_date":"1995-01-01T00:00:00Z","owner:swiss_business_uid":"CHE-104.327.245"},"geometry":{"type":"Polygon","coordinates":[[[6.6459541,46.5131103],[6.646388,46.5131542],[6.6463626,46.5132746],[6.6463782,46.5132766],[6.6463684,46.5133209],[6.6463419,46.5133197],[6.6463057,46.5132972],[6.6462579,46.5132762],[6.6462153,46.5132663],[6.6461589,46.5132627],[6.6460945,46.5132627],[6.6460162,46.5132611],[6.6459489,46.5132587],[6.6459489,46.5132473],[6.6459236,46.5132465],[6.6459253,46.5131993],[6.6459501,46.513199],[6.6459541,46.5131103]]]}},{"type":"Feature","id":"way/45731449","properties":{"addr:city":"Lausanne","addr:country":"CH","addr:housenumber":"4","addr:postcode":"1004","addr:street":"Rue Couchirard","architect":"Fruehauf Henry & Viladoms","building":"apartments","building:flats":"24","building:levels":"6","heating":"heat_pump","owner":"Coopérative Cité Derrière","owner:type":"cooperative","owner:wikidata":"Q131743050","roof:levels":"0","roof:shape":"flat","id":"way/45731449","owner:website":"https://citederriere.ch","owner:start_date":"1995-01-01T00:00:00Z","owner:swiss_business_uid":"CHE-104.327.245"},"geometry":{"type":"Polygon","coordinates":[[[6.6136296,46.5257221],[6.6135573,46.525859],[6.6131686,46.5259403],[6.6131593,46.5257547],[6.6132875,46.5257295],[6.6136296,46.5257221]]]}},{"type":"Feature","id":"way/46040129","properties":{"addr:city":"Lausanne","addr:country":"CH","addr:housenumber":"2","addr:place":"Jardins-de-Prélaz","addr:postcode":"1004","architect":"Tardin Architectes","building":"apartments","owner":"Coopérative Cité Derrière","owner:type":"cooperative","owner:wikidata":"Q131743050","roof:shape":"flat","source":"Orthophoto Ville de Lausanne 2008","start_date":"2002-01-01T00:00:00.000Z","subsidized":"yes","id":"way/46040129","owner:website":"https://citederriere.ch","owner:start_date":"1995-01-01T00:00:00Z","owner:swiss_business_uid":"CHE-104.327.245"},"geometry":{"type":"Polygon","coordinates":[[[6.6121454,46.5270436],[6.6121258,46.5267024],[6.6122483,46.5266991],[6.6122679,46.5270403],[6.6121454,46.5270436]]]}},{"type":"Feature","id":"way/46040130","properties":{"addr:city":"Lausanne","addr:country":"CH","addr:housenumber":"4","addr:place":"Jardins-de-Prélaz","addr:postcode":"1004","architect":"Tardin Architectes","building":"apartments","owner":"Coopérative Cité Derrière","owner:type":"cooperative","owner:wikidata":"Q131743050","roof:shape":"flat","start_date":"2002-01-01T00:00:00.000Z","subsidized":"yes","id":"way/46040130","owner:website":"https://citederriere.ch","owner:start_date":"1995-01-01T00:00:00Z","owner:swiss_business_uid":"CHE-104.327.245"},"geometry":{"type":"Polygon","coordinates":[[[6.6118639,46.5270461],[6.6118443,46.5267049],[6.6119668,46.5267016],[6.6119864,46.5270428],[6.6118639,46.5270461]]]}},{"type":"Feature","id":"way/46040137","properties":{"architect":"Tardin Architectes","building":"apartments","building:levels":"5","owner":"Coopérative Cité Derrière","owner:type":"cooperative","owner:wikidata":"Q131743050","roof:levels":"0","source":"Orthophoto Ville de Lausanne 2008","start_date":"2002-01-01T00:00:00.000Z","subsidized":"yes","addr":[{"addr:city":"Lausanne","addr:postcode":"1004","addr:place":"Jardins-de-Prélaz","addr:housenumber":"1"},{"addr:city":"Lausanne","addr:postcode":"1004","addr:street":"Avenue de Morges","addr:housenumber":"60a"}],"id":"way/46040137","owner:website":"https://citederriere.ch","owner:start_date":"1995-01-01T00:00:00Z","owner:swiss_business_uid":"CHE-104.327.245"},"geometry":{"type":"Polygon","coordinates":[[[6.6120854,46.5265973],[6.6120834,46.5265643],[6.6120496,46.5265652],[6.6120447,46.526482],[6.6120809,46.5264809],[6.6120788,46.5264466],[6.6121815,46.5264437],[6.6123078,46.5264402],[6.6123146,46.5265565],[6.6122797,46.5265575],[6.6122817,46.5265918],[6.6121778,46.5265947],[6.6120854,46.5265973]]]}},{"type":"Feature","id":"way/46999028","properties":{"addr:city":"Lausanne","addr:country":"CH","addr:housenumber":"2c","addr:postcode":"1018","addr:street":"Route des Plaines-du-Loup","architect":"Groupe Y","building":"apartments","building:flats":"9","building:levels":"4","heating":"district_heating","owner":"Coopérative Cité Derrière","owner:type":"cooperative","owner:wikidata":"Q131743050","roof:levels":"0","roof:shape":"flat","source":"Orthophoto Ville de Lausanne 2008","start_date":"2004-01-01T00:00:00.000Z","subsidized":"yes","id":"way/46999028","owner:website":"https://citederriere.ch","owner:start_date":"1995-01-01T00:00:00Z","owner:swiss_business_uid":"CHE-104.327.245"},"geometry":{"type":"Polygon","coordinates":[[[6.6284613,46.5324917],[6.6280977,46.5324891],[6.6280993,46.5323859],[6.628463,46.5323885],[6.6284613,46.5324917]]]}},{"type":"Feature","id":"way/46999035","properties":{"addr:city":"Lausanne","addr:country":"CH","addr:housenumber":"2d","addr:postcode":"1018","addr:street":"Route des Plaines-du-Loup","architect":"Groupe Y","building":"apartments","building:flats":"9","building:levels":"4","heating":"district_heating","owner":"Coopérative Cité Derrière","owner:type":"cooperative","owner:wikidata":"Q131743050","roof:levels":"0","roof:shape":"flat","source":"Orthophoto Ville de Lausanne 2008","start_date":"2004-01-01T00:00:00.000Z","subsidized":"yes","id":"way/46999035","owner:website":"https://citederriere.ch","owner:start_date":"1995-01-01T00:00:00Z","owner:swiss_business_uid":"CHE-104.327.245"},"geometry":{"type":"Polygon","coordinates":[[[6.6284646,46.5327168],[6.6280977,46.5327141],[6.6280994,46.532611],[6.6283804,46.5326131],[6.6284662,46.5326138],[6.6284646,46.5327168]]]}},{"type":"Feature","id":"way/47029357","properties":{"addr:city":"Aigle","addr:country":"CH","addr:housenumber":"4A","addr:postcode":"1860","addr:street":"Avenue des Glariers","architect":"Hans-Peter Sacher","building":"sheltered_housing","heating":"gas","owner":"Coopérative Cité Derrière","owner:type":"cooperative","owner:wikidata":"Q131743050","rent:regulation":"yes","start_date":"2017-01-01T00:00:00.000Z","subsidized":"yes","id":"way/47029357","owner:website":"https://citederriere.ch","owner:start_date":"1995-01-01T00:00:00Z","owner:swiss_business_uid":"CHE-104.327.245"},"geometry":{"type":"Polygon","coordinates":[[[6.9672387,46.3203741],[6.9673364,46.3203444],[6.9675513,46.3202812],[6.9676515,46.3204165],[6.9674131,46.3205298],[6.9672387,46.3203741]]]}},{"type":"Feature","id":"way/47359769","properties":{"addr:city":"Lausanne","addr:country":"CH","addr:housenumber":"6","addr:postcode":"1018","addr:street":"Avenue des Oiseaux","architect":"Pascal de Benoit & Martin Wagner","building":"apartments","building:flats":"18","building:levels":"7","owner":"Coopérative Cité Derrière","owner:type":"cooperative","owner:wikidata":"Q131743050","source":"Orthophoto Ville de Lausanne 2008","start_date":"2003-01-01T00:00:00.000Z","subsidized":"yes","id":"way/47359769","owner:website":"https://citederriere.ch","owner:start_date":"1995-01-01T00:00:00Z","owner:swiss_business_uid":"CHE-104.327.245"},"geometry":{"type":"Polygon","coordinates":[[[6.6295957,46.5316912],[6.6295881,46.5314189],[6.6297208,46.5314171],[6.6297284,46.5316894],[6.6295957,46.5316912]]]}},{"type":"Feature","id":"way/53157249","properties":{"addr:city":"Lausanne","addr:housenumber":"20","addr:postcode":"1005","addr:street":"Rue Cité-Derrière","building":"apartments","building:levels":"4","owner":"Coopérative Cité Derrière","owner:type":"cooperative","owner:wikidata":"Q131743050","rent:regulation":"yes","roof:levels":"1","source":"Lausanne - Orthophoto technique 2012","id":"way/53157249","owner:website":"https://citederriere.ch","owner:start_date":"1995-01-01T00:00:00Z","owner:swiss_business_uid":"CHE-104.327.245"},"geometry":{"type":"Polygon","coordinates":[[[6.6364741,46.5235754],[6.6364904,46.5238538],[6.6363788,46.5238575],[6.6363185,46.5238507],[6.6363167,46.5238382],[6.636235,46.5238351],[6.63623,46.5236089],[6.6362488,46.5236075],[6.6362461,46.5235876],[6.6363354,46.5235791],[6.6364741,46.5235754]]]}},{"type":"Feature","id":"way/53157254","properties":{"addr:city":"Lausanne","addr:housenumber":"18","addr:postcode":"1005","addr:street":"Rue Cité-Derrière","building":"apartments","building:flats":"7","building:levels":"3","owner":"Coopérative Cité Derrière","owner:type":"cooperative","owner:wikidata":"Q131743050","rent:regulation":"yes","roof:levels":"1","roof:shape":"half-hipped","source":"Lausanne - Orthophoto technique 2012","id":"way/53157254","owner:website":"https://citederriere.ch","owner:start_date":"1995-01-01T00:00:00Z","owner:swiss_business_uid":"CHE-104.327.245"},"geometry":{"type":"Polygon","coordinates":[[[6.636333,46.5234735],[6.6363311,46.523427],[6.636363,46.5234262],[6.6365074,46.5234299],[6.6365077,46.5234251],[6.6365251,46.5234256],[6.6365008,46.5235141],[6.6365196,46.5235178],[6.6365035,46.5235817],[6.6364741,46.5235754],[6.6363354,46.5235791],[6.636333,46.5234735]]]}},{"type":"Feature","id":"way/53157273","properties":{"addr:city":"Lausanne","addr:housenumber":"28","addr:postcode":"1005","addr:street":"Rue Cité-Derrière","building":"apartments","building:levels":"4","owner":"Coopérative Cité Derrière","owner:type":"cooperative","owner:wikidata":"Q131743050","rent:regulation":"yes","roof:levels":"1","source":"Lausanne - Orthophoto technique 2012","id":"way/53157273","owner:website":"https://citederriere.ch","owner:start_date":"1995-01-01T00:00:00Z","owner:swiss_business_uid":"CHE-104.327.245"},"geometry":{"type":"Polygon","coordinates":[[[6.636235,46.5238351],[6.6363167,46.5238382],[6.6363185,46.5238507],[6.6363788,46.5238575],[6.6363855,46.5239012],[6.6364467,46.5239104],[6.6364097,46.5240091],[6.6363747,46.5241023],[6.6362273,46.5240836],[6.6362325,46.5238501],[6.636235,46.5238351]]]}},{"type":"Feature","id":"way/79814746","properties":{"addr:city":"Yverdon-les-Bains","addr:country":"CH","addr:housenumber":"3","addr:postcode":"1400","addr:street":"Rue de Payerne","architect":"Foncia Travau","building":"apartments","building:flats":"12","building:levels":"5","owner":"Coopérative Cité Derrière","owner:type":"cooperative","owner:wikidata":"Q131743050","roof:levels":"0","roof:shape":"gabled","source":"Orthophoto Yverdon 2007 / HEIG-VD","start_date":"2007-06-01T00:00:00.000Z","subsidized":"yes","id":"way/79814746","owner:website":"https://citederriere.ch","owner:start_date":"1995-01-01T00:00:00Z","owner:swiss_business_uid":"CHE-104.327.245"},"geometry":{"type":"Polygon","coordinates":[[[6.6563822,46.7793018],[6.6564376,46.7791856],[6.6567595,46.7792575],[6.6567506,46.7792762],[6.6567041,46.7793738],[6.6566347,46.7793582],[6.6563822,46.7793018]]]}},{"type":"Feature","id":"way/81950576","properties":{"addr:city":"Yverdon-les-Bains","addr:country":"CH","addr:housenumber":"146","addr:postcode":"1400","addr:street":"Rue Jean-André-Venel","architect":"Architram HS","building":"apartments","building:flats":"8","building:levels":"4","owner":"Coopérative Cité Derrière","owner:type":"cooperative","owner:wikidata":"Q131743050","roof:levels":"1","roof:shape":"gabled","source":"Orthophoto Yverdon 2007 / HEIG-VD","start_date":"2005-01-01T00:00:00.000Z","subsidized":"yes","id":"way/81950576","owner:website":"https://citederriere.ch","owner:start_date":"1995-01-01T00:00:00Z","owner:swiss_business_uid":"CHE-104.327.245"},"geometry":{"type":"Polygon","coordinates":[[[6.6494196,46.7691586],[6.6493273,46.7690299],[6.6494025,46.7690045],[6.6494489,46.7689889],[6.6494891,46.7689754],[6.6495815,46.7691041],[6.6494196,46.7691586]]]}},{"type":"Feature","id":"way/81950577","properties":{"addr:city":"Yverdon-les-Bains","addr:country":"CH","addr:housenumber":"148","addr:postcode":"1400","addr:street":"Rue Jean-André-Venel","architect":"Architram HS","building":"apartments","building:flats":"8","building:levels":"4","owner":"Coopérative Cité Derrière","owner:type":"cooperative","owner:wikidata":"Q131743050","roof:levels":"1","roof:shape":"gabled","source":"Orthophoto Yverdon 2007 / HEIG-VD","start_date":"2005-01-01T00:00:00.000Z","subsidized":"yes","id":"way/81950577","owner:website":"https://citederriere.ch","owner:start_date":"1995-01-01T00:00:00Z","owner:swiss_business_uid":"CHE-104.327.245"},"geometry":{"type":"Polygon","coordinates":[[[6.6494867,46.768956],[6.6494483,46.7689447],[6.6494035,46.7689314],[6.6493202,46.7689069],[6.6493989,46.7687826],[6.6495642,46.768833],[6.6494867,46.768956]]]}},{"type":"Feature","id":"way/86057430","properties":{"addr:city":"Yverdon-les-Bains","addr:country":"CH","addr:housenumber":"150","addr:postcode":"1400","addr:street":"Rue Jean-André-Venel","architect":"Architram HS","building":"apartments","building:flats":"8","building:levels":"4","owner":"Coopérative Cité Derrière","owner:type":"cooperative","owner:wikidata":"Q131743050","roof:levels":"1","roof:shape":"gabled","source":"Orthophoto Yverdon 2007 / HEIG-VD","start_date":"2005-01-01T00:00:00.000Z","subsidized":"yes","id":"way/86057430","owner:website":"https://citederriere.ch","owner:start_date":"1995-01-01T00:00:00Z","owner:swiss_business_uid":"CHE-104.327.245"},"geometry":{"type":"Polygon","coordinates":[[[6.6495642,46.768833],[6.6493989,46.7687826],[6.6494835,46.7686524],[6.6496489,46.7687028],[6.6495642,46.768833]]]}},{"type":"Feature","id":"way/128522770","properties":{"building":"apartments","owner":"Coopérative Cité Derrière","owner:type":"cooperative","owner:wikidata":"Q131743050","rent:regulation":"yes","source":"Orthophoto Yverdon 2011 / R-Pod @ HEIG-VD","addr":[{"addr:city":"Yverdon-les-Bains","addr:postcode":"1400","addr:street":"Rue des Moulins","addr:housenumber":"123a"},{"addr:city":"Yverdon-les-Bains","addr:postcode":"1400","addr:street":"Rue des Moulins","addr:housenumber":"123b"}],"id":"way/128522770","owner:website":"https://citederriere.ch","owner:start_date":"1995-01-01T00:00:00Z","owner:swiss_business_uid":"CHE-104.327.245"},"geometry":{"type":"Polygon","coordinates":[[[6.6296327,46.7714709],[6.6294358,46.7714705],[6.6294361,46.7714031],[6.6294487,46.7714031],[6.6294495,46.7712031],[6.6296494,46.7712035],[6.6296485,46.771415],[6.6296329,46.771415],[6.6296327,46.7714709]]]}},{"type":"Feature","id":"way/128522772","properties":{"building":"apartments","owner":"Coopérative Cité Derrière","owner:type":"cooperative","owner:wikidata":"Q131743050","rent:regulation":"yes","source":"Orthophoto Yverdon 2011 / R-Pod @ HEIG-VD","addr":[{"addr:city":"Yverdon-les-Bains","addr:postcode":"1400","addr:street":"Rue des Moulins","addr:housenumber":"125a"},{"addr:city":"Yverdon-les-Bains","addr:postcode":"1400","addr:street":"Rue des Moulins","addr:housenumber":"125b"},{"addr:city":"Yverdon-les-Bains","addr:postcode":"1400","addr:street":"Rue des Moulins","addr:housenumber":"125c"}],"id":"way/128522772","owner:website":"https://citederriere.ch","owner:start_date":"1995-01-01T00:00:00Z","owner:swiss_business_uid":"CHE-104.327.245"},"geometry":{"type":"Polygon","coordinates":[[[6.6296494,46.7712035],[6.6294495,46.7712031],[6.6294507,46.7709069],[6.6294508,46.7708834],[6.6294222,46.7708834],[6.6294226,46.7707877],[6.6294487,46.7707878],[6.6295859,46.770788],[6.6295856,46.7708567],[6.6296264,46.7708568],[6.6296262,46.7709059],[6.6296506,46.7709059],[6.6296494,46.7712035]]]}},{"type":"Feature","id":"way/133730966","properties":{"architect":"Grin Architectes","building":"apartments","building:levels":"6","owner":"Coopérative Cité Derrière","owner:type":"cooperative","owner:wikidata":"Q131743050","roof:levels":"0","roof:shape":"flat","start_date":"2006-01-01T00:00:00.000Z","subsidized":"yes","addr":[{"addr:city":"Renens","addr:postcode":"1020","addr:street":"Rue du Simplon","addr:housenumber":"7d"},{"addr:city":"Renens","addr:postcode":"1020","addr:street":"Rue du Simplon","addr:housenumber":"7e"}],"id":"way/133730966","owner:website":"https://citederriere.ch","owner:start_date":"1995-01-01T00:00:00Z","owner:swiss_business_uid":"CHE-104.327.245"},"geometry":{"type":"Polygon","coordinates":[[[6.5814355,46.5349015],[6.5816086,46.5349257],[6.581518,46.5352339],[6.5813449,46.5352097],[6.5814355,46.5349015]]]}},{"type":"Feature","id":"way/133730973","properties":{"architect":"Grin Architectes","building":"apartments","building:levels":"6","owner":"Coopérative Cité Derrière","owner:type":"cooperative","owner:wikidata":"Q131743050","roof:levels":"0","roof:shape":"flat","start_date":"2006-01-01T00:00:00.000Z","subsidized":"yes","addr":[{"addr:city":"Renens","addr:postcode":"1020","addr:street":"Rue du Simplon","addr:housenumber":"7a"},{"addr:city":"Renens","addr:postcode":"1020","addr:street":"Rue du Simplon","addr:housenumber":"7b"},{"addr:city":"Renens","addr:postcode":"1020","addr:street":"Rue du Simplon","addr:housenumber":"7c"}],"id":"way/133730973","owner:website":"https://citederriere.ch","owner:start_date":"1995-01-01T00:00:00Z","owner:swiss_business_uid":"CHE-104.327.245"},"geometry":{"type":"Polygon","coordinates":[[[6.58077,46.5351084],[6.5808205,46.534921],[6.5808782,46.5349284],[6.5809346,46.5347188],[6.5811166,46.5347421],[6.5810601,46.5349517],[6.5809735,46.5349407],[6.5809231,46.535128],[6.58077,46.5351084]]]}},{"type":"Feature","id":"way/139116969","properties":{"addr:city":"Payerne","addr:country":"CH","addr:housenumber":"2","addr:postcode":"1530","addr:street":"Rue de Guillermaux","architect":"Guy Righetti","building":"apartments","building:levels":"5","owner":"Coopérative Cité Derrière","owner:type":"cooperative","owner:wikidata":"Q131743050","roof:levels":"0","roof:shape":"flat","source":"Orthophoto Payerne 2011 / R-Pod @ HEIG-VD","start_date":"2008-06-01T00:00:00.000Z","subsidized":"yes","id":"way/139116969","owner:website":"https://citederriere.ch","owner:start_date":"1995-01-01T00:00:00Z","owner:swiss_business_uid":"CHE-104.327.245"},"geometry":{"type":"Polygon","coordinates":[[[6.9362948,46.8186884],[6.9361675,46.8185949],[6.9361912,46.8185777],[6.9362419,46.8185531],[6.9362818,46.8185409],[6.9363342,46.8185275],[6.9363956,46.8185253],[6.9365381,46.8185408],[6.9365318,46.81863],[6.9363965,46.8186269],[6.9362948,46.8186884]]]}},{"type":"Feature","id":"way/139116985","properties":{"addr:city":"Payerne","addr:country":"CH","addr:housenumber":"4","addr:postcode":"1530","addr:street":"Rue de Guillermaux","architect":"Guy Righetti","building":"apartments","building:levels":"5","owner":"Coopérative Cité Derrière","owner:type":"cooperative","owner:wikidata":"Q131743050","roof:levels":"0","roof:shape":"flat","source":"Orthophoto Payerne 2011 / R-Pod @ HEIG-VD","start_date":"2008-06-01T00:00:00.000Z","subsidized":"yes","id":"way/139116985","owner:website":"https://citederriere.ch","owner:start_date":"1995-01-01T00:00:00Z","owner:swiss_business_uid":"CHE-104.327.245"},"geometry":{"type":"Polygon","coordinates":[[[6.9360211,46.8188573],[6.9358984,46.81877],[6.9360981,46.8186376],[6.9362209,46.8187249],[6.9360211,46.8188573]]]}},{"type":"Feature","id":"way/139116998","properties":{"addr:city":"Payerne","addr:country":"CH","addr:housenumber":"6","addr:postcode":"1530","addr:street":"Rue de Guillermaux","architect":"Guy Righetti","building":"apartments","building:levels":"3","owner":"Coopérative Cité Derrière","owner:type":"cooperative","owner:wikidata":"Q131743050","roof:levels":"1","roof:shape":"gabled","source":"Orthophoto Payerne 2011 / R-Pod @ HEIG-VD","start_date":"2008-06-01T00:00:00.000Z","subsidized":"yes","id":"way/139116998","owner:website":"https://citederriere.ch","owner:start_date":"1995-01-01T00:00:00Z","owner:swiss_business_uid":"CHE-104.327.245"},"geometry":{"type":"Polygon","coordinates":[[[6.9363465,46.8189585],[6.9362145,46.8188648],[6.9363116,46.8187807],[6.9364579,46.8188846],[6.9363465,46.8189585]]]}},{"type":"Feature","id":"way/139233870","properties":{"addr:city":"Bex","addr:country":"CH","addr:housenumber":"24","addr:postcode":"1880","addr:street":"Route de l'Arche","building":"apartments","building:flats":"8","building:levels":"4","last_renovation":"2016-01-01T00:00:00.000Z","owner":"Coopérative Cité Derrière","owner:type":"cooperative","owner:wikidata":"Q131743050","rent:regulation":"yes","roof:levels":"0","roof:shape":"flat","source":"Swiss Image 2024 + GWR from http://qa.poole.ch/addresses/ch/missing/5402.geojson","id":"way/139233870","owner:website":"https://citederriere.ch","owner:start_date":"1995-01-01T00:00:00Z","owner:swiss_business_uid":"CHE-104.327.245"},"geometry":{"type":"Polygon","coordinates":[[[7.0020189,46.2558837],[7.0019661,46.2558609],[7.0018791,46.2558233],[7.0020009,46.2556885],[7.0021407,46.2557489],[7.0020189,46.2558837]]]}},{"type":"Feature","id":"way/139233873","properties":{"addr:city":"Bex","addr:country":"CH","addr:housenumber":"26","addr:postcode":"1880","addr:street":"Route de l'Arche","building":"apartments","building:flats":"8","building:levels":"4","last_renovation":"2016-01-01T00:00:00.000Z","owner":"Coopérative Cité Derrière","owner:type":"cooperative","owner:wikidata":"Q131743050","rent:regulation":"yes","roof:levels":"0","roof:shape":"flat","source":"Swiss Image 2024 + GWR from http://qa.poole.ch/addresses/ch/missing/5402.geojson","id":"way/139233873","owner:website":"https://citederriere.ch","owner:start_date":"1995-01-01T00:00:00Z","owner:swiss_business_uid":"CHE-104.327.245"},"geometry":{"type":"Polygon","coordinates":[[[7.0018282,46.2560001],[7.0019661,46.2558609],[7.0020189,46.2558837],[7.0020956,46.255925],[7.0019856,46.25606],[7.0019316,46.2560367],[7.0018282,46.2560001]]]}},{"type":"Feature","id":"way/139233876","properties":{"addr:city":"Bex","addr:country":"CH","addr:housenumber":"28","addr:postcode":"1880","addr:street":"Route de l'Arche","building":"apartments","building:flats":"8","building:levels":"4","last_renovation":"2016-01-01T00:00:00.000Z","owner":"Coopérative Cité Derrière","owner:type":"cooperative","owner:wikidata":"Q131743050","rent:regulation":"yes","roof:levels":"0","roof:shape":"flat","source":"Swiss Image 2024 + GWR from http://qa.poole.ch/addresses/ch/missing/5402.geojson","id":"way/139233876","owner:website":"https://citederriere.ch","owner:start_date":"1995-01-01T00:00:00Z","owner:swiss_business_uid":"CHE-104.327.245"},"geometry":{"type":"Polygon","coordinates":[[[7.0018092,46.2561722],[7.0019316,46.2560367],[7.0019856,46.25606],[7.0020753,46.2560988],[7.0019528,46.2562343],[7.001849,46.2561894],[7.0018092,46.2561722]]]}},{"type":"Feature","id":"way/139233881","properties":{"addr:city":"Bex","addr:country":"CH","addr:housenumber":"30","addr:postcode":"1880","addr:street":"Route de l'Arche","building":"apartments","building:flats":"8","building:levels":"4","last_renovation":"2016-01-01T00:00:00.000Z","owner":"Coopérative Cité Derrière","owner:type":"cooperative","owner:wikidata":"Q131743050","rent:regulation":"yes","roof:levels":"0","roof:shape":"flat","source":"Swiss Image 2024 + GWR from http://qa.poole.ch/addresses/ch/missing/5402.geojson","id":"way/139233881","owner:website":"https://citederriere.ch","owner:start_date":"1995-01-01T00:00:00Z","owner:swiss_business_uid":"CHE-104.327.245"},"geometry":{"type":"Polygon","coordinates":[[[7.0015823,46.2562577],[7.0017015,46.2561257],[7.0018092,46.2561722],[7.001849,46.2561894],[7.0017297,46.2563214],[7.0015823,46.2562577]]]}},{"type":"Feature","id":"way/151238025","properties":{"architect":"Lonchamp & Froidevaux","building":"apartments","building:flats":"5","building:levels":"3","owner":"Coopérative Cité Derrière","owner:type":"cooperative","owner:wikidata":"Q131743050","start_date":"2006-01-01T00:00:00.000Z","subsidized":"yes","addr":[{"addr:city":"Lausanne","addr:postcode":"1007","addr:street":"Chemin de la Colline","addr:housenumber":"42"},{"addr:city":"Lausanne","addr:postcode":"1007","addr:street":"Chemin de la Colline","addr:housenumber":"44"},{"addr:city":"Lausanne","addr:postcode":"1007","addr:street":"Chemin de la Colline","addr:housenumber":"40"},{"addr:city":"Lausanne","addr:postcode":"1007","addr:street":"Chemin de la Colline","addr:housenumber":"38"},{"addr:city":"Lausanne","addr:postcode":"1007","addr:street":"Chemin de la Colline","addr:housenumber":"36"}],"id":"way/151238025","owner:website":"https://citederriere.ch","owner:start_date":"1995-01-01T00:00:00Z","owner:swiss_business_uid":"CHE-104.327.245"},"geometry":{"type":"Polygon","coordinates":[[[6.6097475,46.5224468],[6.6096448,46.5222784],[6.6097877,46.5222371],[6.6098904,46.5224055],[6.6097475,46.5224468]]]}},{"type":"Feature","id":"way/151238029","properties":{"architect":"Lonchamp & Froidevaux","building":"apartments","building:flats":"5","building:levels":"3","owner":"Coopérative Cité Derrière","owner:type":"cooperative","owner:wikidata":"Q131743050","start_date":"2006-01-01T00:00:00.000Z","subsidized":"yes","addr":[{"addr:city":"Lausanne","addr:postcode":"1007","addr:street":"Chemin de la Colline","addr:housenumber":"56"},{"addr:city":"Lausanne","addr:postcode":"1007","addr:street":"Chemin de la Colline","addr:housenumber":"48"},{"addr:city":"Lausanne","addr:postcode":"1007","addr:street":"Chemin de la Colline","addr:housenumber":"50"},{"addr:city":"Lausanne","addr:postcode":"1007","addr:street":"Chemin de la Colline","addr:housenumber":"52"},{"addr:city":"Lausanne","addr:postcode":"1007","addr:street":"Chemin de la Colline","addr:housenumber":"54"}],"id":"way/151238029","owner:website":"https://citederriere.ch","owner:start_date":"1995-01-01T00:00:00Z","owner:swiss_business_uid":"CHE-104.327.245"},"geometry":{"type":"Polygon","coordinates":[[[6.6094463,46.5225323],[6.6093423,46.5223617],[6.6094884,46.5223195],[6.6095925,46.5224902],[6.6094463,46.5225323]]]}},{"type":"Feature","id":"way/151238030","properties":{"architect":"Lonchamp & Froidevaux","building":"apartments","building:flats":"5","building:levels":"3","owner":"Coopérative Cité Derrière","owner:type":"cooperative","owner:wikidata":"Q131743050","start_date":"2006-01-01T00:00:00.000Z","subsidized":"yes","addr":[{"addr:city":"Lausanne","addr:postcode":"1007","addr:street":"Chemin de la Colline","addr:housenumber":"26"},{"addr:city":"Lausanne","addr:postcode":"1007","addr:street":"Chemin de la Colline","addr:housenumber":"34"},{"addr:city":"Lausanne","addr:postcode":"1007","addr:street":"Chemin de la Colline","addr:housenumber":"28"},{"addr:city":"Lausanne","addr:postcode":"1007","addr:street":"Chemin de la Colline","addr:housenumber":"32"},{"addr:city":"Lausanne","addr:postcode":"1007","addr:street":"Chemin de la Colline","addr:housenumber":"30"}],"id":"way/151238030","owner:website":"https://citederriere.ch","owner:start_date":"1995-01-01T00:00:00Z","owner:swiss_business_uid":"CHE-104.327.245"},"geometry":{"type":"Polygon","coordinates":[[[6.6100401,46.522377],[6.6099379,46.5222094],[6.6100796,46.5221685],[6.6101818,46.5223361],[6.6100401,46.522377]]]}},{"type":"Feature","id":"way/151238031","properties":{"architect":"Lonchamp & Froidevaux","building":"apartments","building:flats":"5","building:levels":"3","owner":"Coopérative Cité Derrière","owner:type":"cooperative","owner:wikidata":"Q131743050","start_date":"2006-01-01T00:00:00.000Z","subsidized":"yes","addr":[{"addr:city":"Lausanne","addr:postcode":"1007","addr:street":"Chemin de la Colline","addr:housenumber":"14"},{"addr:city":"Lausanne","addr:postcode":"1007","addr:street":"Chemin de la Colline","addr:housenumber":"22"},{"addr:city":"Lausanne","addr:postcode":"1007","addr:street":"Chemin de la Colline","addr:housenumber":"20"},{"addr:city":"Lausanne","addr:postcode":"1007","addr:street":"Chemin de la Colline","addr:housenumber":"18"},{"addr:city":"Lausanne","addr:postcode":"1007","addr:street":"Chemin de la Colline","addr:housenumber":"16"}],"id":"way/151238031","owner:website":"https://citederriere.ch","owner:start_date":"1995-01-01T00:00:00Z","owner:swiss_business_uid":"CHE-104.327.245"},"geometry":{"type":"Polygon","coordinates":[[[6.6103365,46.5222794],[6.6102365,46.5221154],[6.610373,46.522076],[6.610473,46.52224],[6.6103365,46.5222794]]]}},{"type":"Feature","id":"way/156948569","properties":{"architect":"Foncia Travaux","building":"apartments","building:flats":"6","building:levels":"6","owner":"Coopérative Cité Derrière","owner:type":"cooperative","owner:wikidata":"Q131743050","start_date":"2007-01-01T00:00:00.000Z","subsidized":"yes","addr":[{"addr:city":"Lausanne","addr:postcode":"1005","addr:street":"Rue Sera-Biasini","addr:housenumber":"17"},{"addr:city":"Lausanne","addr:postcode":"1005","addr:street":"Rue Sera-Biasini","addr:housenumber":"19"},{"addr:city":"Lausanne","addr:postcode":"1005","addr:street":"Chemin de Montmeillan","addr:housenumber":"6"}],"id":"way/156948569","owner:website":"https://citederriere.ch","owner:start_date":"1995-01-01T00:00:00Z","owner:swiss_business_uid":"CHE-104.327.245"},"geometry":{"type":"Polygon","coordinates":[[[6.6385061,46.5267691],[6.6384343,46.5268847],[6.6384206,46.5268804],[6.6383775,46.5268607],[6.6382407,46.5267892],[6.6382648,46.5267539],[6.6382461,46.5267447],[6.6382609,46.5267183],[6.6383305,46.5267321],[6.6383298,46.5267381],[6.6385061,46.5267691]]]}},{"type":"Feature","id":"way/159340573","properties":{"architect":"Architecture & Constructions HERVE","building":"apartments","building:flats":"30","building:levels":"3","building:part":"yes","owner":"Coopérative Cité Derrière","owner:type":"cooperative","owner:wikidata":"Q131743050","roof:levels":"1","roof:shape":"gabled","start_date":"2005-01-01T00:00:00.000Z","subsidized":"yes","addr":[{"addr:city":"Yverdon-les-Bains","addr:postcode":"1400","addr:street":"Rue Jean-André-Venel","addr:housenumber":"33"},{"addr:city":"Yverdon-les-Bains","addr:postcode":"1400","addr:street":"Rue Jean-André-Venel","addr:housenumber":"31"},{"addr:city":"Yverdon-les-Bains","addr:postcode":"1400","addr:street":"Rue Jean-André-Venel","addr:housenumber":"29"},{"addr:city":"Yverdon-les-Bains","addr:postcode":"1400","addr:street":"Rue Jean-André-Venel","addr:housenumber":"27"}],"id":"way/159340573","owner:website":"https://citederriere.ch","owner:start_date":"1995-01-01T00:00:00Z","owner:swiss_business_uid":"CHE-104.327.245"},"geometry":{"type":"Polygon","coordinates":[[[6.6475816,46.7692721],[6.6476406,46.7692573],[6.6476706,46.7692103],[6.6477573,46.7690745],[6.6479629,46.7691361],[6.6478748,46.7692741],[6.6478012,46.7693893],[6.6475977,46.769441],[6.6474275,46.7693889],[6.6472327,46.7693292],[6.6473218,46.7691926],[6.6475109,46.7692505],[6.6475816,46.7692721]]]}},{"type":"Feature","id":"way/192347121","properties":{"addr:city":"Lausanne","addr:housenumber":"44c","addr:postcode":"1000","addr:street":"Route du Jorat","architect":"Pont 12 Architectes","building":"apartments","building:flats":"6","building:levels":"2","heating":"heat_pump","owner":"Coopérative Cité Derrière","owner:type":"cooperative","owner:wikidata":"Q131743050","rent:regulation":"yes","roof:levels":"1","roof:shape":"gabled","source":"bing","start_date":"2011-01-01T00:00:00.000Z","id":"way/192347121","owner:website":"https://citederriere.ch","owner:start_date":"1995-01-01T00:00:00Z","owner:swiss_business_uid":"CHE-104.327.245"},"geometry":{"type":"Polygon","coordinates":[[[6.6866707,46.5453963],[6.6866398,46.5452087],[6.6868708,46.5451908],[6.6869016,46.5453783],[6.6867827,46.5453876],[6.6866707,46.5453963]]]}},{"type":"Feature","id":"way/192347122","properties":{"addr:city":"Lausanne","addr:housenumber":"44b","addr:postcode":"1000","addr:street":"Route du Jorat","architect":"Pont 12 Architectes","building":"apartments","building:flats":"6","building:levels":"2","heating":"heat_pump","owner":"Coopérative Cité Derrière","owner:type":"cooperative","owner:wikidata":"Q131743050","rent:regulation":"yes","roof:levels":"1","roof:shape":"gabled","start_date":"2011-01-01T00:00:00.000Z","id":"way/192347122","owner:website":"https://citederriere.ch","owner:start_date":"1995-01-01T00:00:00Z","owner:swiss_business_uid":"CHE-104.327.245"},"geometry":{"type":"Polygon","coordinates":[[[6.6863254,46.5451262],[6.6863958,46.5449491],[6.686611,46.5449896],[6.6865406,46.5451666],[6.686417,46.5451434],[6.6863254,46.5451262]]]}},{"type":"Feature","id":"way/192347123","properties":{"addr:city":"Lausanne","addr:housenumber":"44a","addr:postcode":"1000","addr:street":"Route du Jorat","architect":"Pont 12 Architectes","building":"apartments","building:flats":"6","building:levels":"2","heating":"heat_pump","owner":"Coopérative Cité Derrière","owner:type":"cooperative","owner:wikidata":"Q131743050","rent:regulation":"yes","roof:levels":"1","roof:shape":"gabled","start_date":"2011-01-01T00:00:00.000Z","id":"way/192347123","owner:website":"https://citederriere.ch","owner:start_date":"1995-01-01T00:00:00Z","owner:swiss_business_uid":"CHE-104.327.245"},"geometry":{"type":"Polygon","coordinates":[[[6.6858765,46.5451705],[6.6860328,46.5450161],[6.6862095,46.5451007],[6.6860533,46.5452551],[6.6859299,46.5451961],[6.6858765,46.5451705]]]}},{"type":"Feature","id":"way/200677441","properties":{"addr:city":"Echallens","addr:housenumber":"1","addr:postcode":"1040","addr:street":"Chemin du Petit-Record","architect":"FT Concept","building":"sheltered_housing","building:colour":"#e2d3a4","building:levels":"3","heating":"pellet","owner":"Coopérative Cité Derrière","owner:type":"cooperative","owner:wikidata":"Q131743050","rent:regulation":"yes","source":"https://www.geo.vd.ch/","start_date":"2011-01-01T00:00:00.000Z","id":"way/200677441","owner:website":"https://citederriere.ch","owner:start_date":"1995-01-01T00:00:00Z","owner:swiss_business_uid":"CHE-104.327.245"},"geometry":{"type":"Polygon","coordinates":[[[6.6314858,46.6376969],[6.6316116,46.6376203],[6.6317736,46.6375599],[6.6318674,46.637672],[6.6317613,46.6377399],[6.6317415,46.6377526],[6.6315842,46.6378131],[6.6314858,46.6376969]]]}},{"type":"Feature","id":"way/200677442","properties":{"addr:city":"Echallens","addr:housenumber":"3","addr:postcode":"1040","addr:street":"Chemin du Petit-Record","architect":"FT Concept","building":"sheltered_housing","building:colour":"#a0d388","building:levels":"3","heating":"pellet","owner":"Coopérative Cité Derrière","owner:type":"cooperative","owner:wikidata":"Q131743050","rent:regulation":"yes","source":"https://www.geo.vd.ch/","start_date":"2011-01-01T00:00:00.000Z","id":"way/200677442","owner:website":"https://citederriere.ch","owner:start_date":"1995-01-01T00:00:00Z","owner:swiss_business_uid":"CHE-104.327.245"},"geometry":{"type":"Polygon","coordinates":[[[6.6311573,46.6373015],[6.6313019,46.6372389],[6.6313144,46.6372335],[6.6314707,46.6371958],[6.6315673,46.6373114],[6.6314291,46.6373673],[6.6314093,46.6373753],[6.6312498,46.6374119],[6.6311573,46.6373015]]]}},{"type":"Feature","id":"way/200677443","properties":{"addr:city":"Echallens","addr:housenumber":"5","addr:postcode":"1040","addr:street":"Chemin du Petit-Record","architect":"FT Concept","building":"sheltered_housing","building:colour":"#ffd284","building:levels":"3","heating":"pellet","owner":"Coopérative Cité Derrière","owner:type":"cooperative","owner:wikidata":"Q131743050","rent:regulation":"yes","source":"https://www.geo.vd.ch/","start_date":"2011-01-01T00:00:00.000Z","id":"way/200677443","owner:website":"https://citederriere.ch","owner:start_date":"1995-01-01T00:00:00Z","owner:swiss_business_uid":"CHE-104.327.245"},"geometry":{"type":"Polygon","coordinates":[[[6.6308598,46.6369444],[6.6309823,46.6368702],[6.6311451,46.6368057],[6.6312421,46.6369219],[6.6311189,46.636999],[6.6310728,46.6370168],[6.6309574,46.6370612],[6.6308598,46.6369444]]]}},{"type":"Feature","id":"way/224346054","properties":{"addr:city":"Bussigny","addr:housenumber":"20","addr:postcode":"1030","addr:street":"Rue de l'Industrie","architect":"A Carré","building":"apartments","building:flats":"11","building:levels":"4","owner":"Coopérative Cité Derrière","owner:type":"cooperative","owner:wikidata":"Q131743050","roof:levels":"2","roof:shape":"gabled","start_date":"2004-07-01T00:00:00.000Z","subsidized":"yes","id":"way/224346054","owner:website":"https://citederriere.ch","owner:start_date":"1995-01-01T00:00:00Z","owner:swiss_business_uid":"CHE-104.327.245"},"geometry":{"type":"Polygon","coordinates":[[[6.5555072,46.5472147],[6.5553757,46.5471015],[6.555572,46.5469937],[6.5556944,46.5471014],[6.5557032,46.5471069],[6.5555072,46.5472147]]]}},{"type":"Feature","id":"way/224346055","properties":{"addr:city":"Bussigny","addr:housenumber":"22","addr:postcode":"1030","addr:street":"Rue de l'Industrie","architect":"A Carré","building":"apartments","building:flats":"11","building:levels":"4","owner":"Coopérative Cité Derrière","owner:type":"cooperative","owner:wikidata":"Q131743050","roof:levels":"2","roof:shape":"gabled","start_date":"2004-07-01T00:00:00.000Z","subsidized":"yes","id":"way/224346055","owner:website":"https://citederriere.ch","owner:start_date":"1995-01-01T00:00:00Z","owner:swiss_business_uid":"CHE-104.327.245"},"geometry":{"type":"Polygon","coordinates":[[[6.5556944,46.5471014],[6.555572,46.5469937],[6.5555553,46.546979],[6.555742,46.5468786],[6.5558811,46.547001],[6.5556944,46.5471014]]]}},{"type":"Feature","id":"way/225425891","properties":{"building":"apartments","building:flats":"12","building:levels":"3","owner":"Coopérative Cité Derrière","owner:type":"cooperative","owner:wikidata":"Q131743050","roof:levels":"0","roof:shape":"flat","subsidized":"yes","addr":[{"addr:city":"Bussigny","addr:postcode":"1030","addr:street":"Rue de l'Industrie","addr:housenumber":"53"}],"id":"way/225425891","owner:website":"https://citederriere.ch","owner:start_date":"1995-01-01T00:00:00Z","owner:swiss_business_uid":"CHE-104.327.245"},"geometry":{"type":"Polygon","coordinates":[[[6.5595441,46.5472759],[6.5594969,46.5471871],[6.5600149,46.5470567],[6.5600622,46.5471455],[6.5595441,46.5472759]]]}},{"type":"Feature","id":"way/225573534","properties":{"addr:city":"Bussigny","addr:country":"CH","addr:housenumber":"44","addr:postcode":"1030","addr:street":"Rue de Lausanne","architect":"Eicher et Bianchi","building":"apartments","building:levels":"4","owner":"Coopérative Cité Derrière","owner:type":"cooperative","owner:wikidata":"Q131743050","rent:regulation":"yes","roof:levels":"0","roof:shape":"flat","start_date":"2001-01-01T00:00:00.000Z","id":"way/225573534","owner:website":"https://citederriere.ch","owner:start_date":"1995-01-01T00:00:00Z","owner:swiss_business_uid":"CHE-104.327.245"},"geometry":{"type":"Polygon","coordinates":[[[6.5604271,46.5486748],[6.5603525,46.5485233],[6.5605077,46.5484871],[6.5605258,46.5485238],[6.5605588,46.5485161],[6.560597,46.5485937],[6.5605683,46.5486004],[6.5605866,46.5486377],[6.5604271,46.5486748]]]}},{"type":"Feature","id":"way/225573535","properties":{"addr:city":"Bussigny","addr:country":"CH","addr:housenumber":"48","addr:postcode":"1030","addr:street":"Rue de Lausanne","architect":"Eicher et Bianchi","building":"apartments","building:levels":"3","owner":"Coopérative Cité Derrière","owner:type":"cooperative","owner:wikidata":"Q131743050","rent:regulation":"yes","roof:levels":"0","roof:shape":"flat","start_date":"2001-01-01T00:00:00.000Z","id":"way/225573535","owner:website":"https://citederriere.ch","owner:start_date":"1995-01-01T00:00:00Z","owner:swiss_business_uid":"CHE-104.327.245"},"geometry":{"type":"Polygon","coordinates":[[[6.5599522,46.5480727],[6.559897,46.5479671],[6.5601463,46.5479055],[6.5602011,46.5480102],[6.5601734,46.5480171],[6.5602057,46.548079],[6.560013,46.5481266],[6.5599811,46.5480655],[6.5599522,46.5480727]]]}},{"type":"Feature","id":"way/225573536","properties":{"addr:city":"Bussigny","addr:country":"CH","addr:housenumber":"46","addr:postcode":"1030","addr:street":"Rue de Lausanne","architect":"Eicher et Bianchi","building":"apartments","building:levels":"3","owner":"Coopérative Cité Derrière","owner:type":"cooperative","owner:wikidata":"Q131743050","rent:regulation":"yes","roof:levels":"0","roof:shape":"flat","start_date":"2001-01-01T00:00:00.000Z","id":"way/225573536","owner:website":"https://citederriere.ch","owner:start_date":"1995-01-01T00:00:00Z","owner:swiss_business_uid":"CHE-104.327.245"},"geometry":{"type":"Polygon","coordinates":[[[6.5602033,46.5484733],[6.5601708,46.5484096],[6.5601391,46.5484172],[6.5600859,46.5483132],[6.5603366,46.5482526],[6.5603913,46.5483598],[6.5603627,46.5483667],[6.5603937,46.5484273],[6.5602033,46.5484733]]]}},{"type":"Feature","id":"way/252463778","properties":{"architect":"ADN Atelier d’architecture","building":"apartments","building:flats":"24","building:levels":"5","owner":"Coopérative Cité Derrière","owner:type":"cooperative","owner:wikidata":"Q131743050","source":"Orthophoto Ville de Nyon 2010","start_date":"2010-01-01T00:00:00.000Z","subsidized":"yes","addr":[{"addr:city":"Nyon","addr:postcode":"1260","addr:street":"Chemin de Bourgogne","addr:housenumber":"1c"},{"addr:city":"Nyon","addr:postcode":"1260","addr:street":"Chemin de Bourgogne","addr:housenumber":"1b"},{"addr:city":"Nyon","addr:postcode":"1260","addr:street":"Chemin de Bourgogne","addr:housenumber":"1a"}],"id":"way/252463778","owner:website":"https://citederriere.ch","owner:start_date":"1995-01-01T00:00:00Z","owner:swiss_business_uid":"CHE-104.327.245"},"geometry":{"type":"Polygon","coordinates":[[[6.2305845,46.3908437],[6.2309222,46.3904901],[6.231011,46.3905314],[6.2310552,46.3905517],[6.230886,46.3907274],[6.2307146,46.3909053],[6.2305845,46.3908437]]]}},{"type":"Feature","id":"way/260642587","properties":{"addr:city":"Orbe","addr:country":"CH","addr:housenumber":"28","addr:postcode":"1350","addr:street":"Chemin de la Dame","architect":"Architecture & Constructions HERVE","building":"apartments","building:flats":"10","building:levels":"4","heating":"gas","owner":"Coopérative Cité Derrière","owner:type":"cooperative","owner:wikidata":"Q131743050","roof:levels":"0","roof:shape":"hipped","start_date":"2006-01-01T00:00:00.000Z","subsidized":"yes","id":"way/260642587","owner:website":"https://citederriere.ch","owner:start_date":"1995-01-01T00:00:00Z","owner:swiss_business_uid":"CHE-104.327.245"},"geometry":{"type":"Polygon","coordinates":[[[6.5351823,46.7288145],[6.534849,46.728831],[6.534837,46.7287169],[6.5351702,46.7287004],[6.5351823,46.7288145]]]}},{"type":"Feature","id":"way/288396477","properties":{"addr:city":"Gland","addr:housenumber":"15","addr:postcode":"1196","addr:street":"Chemin de la Chavanne","architect":"Pool SM-Arch-BLSA-Amos","building":"sheltered_housing","building:flats":"19","building:levels":"5","name":"L'Amandier","owner":"Coopérative Cité Derrière","owner:type":"cooperative","owner:wikidata":"Q131743050","start_date":"2015-08-01T00:00:00.000Z","subsidized":"yes","id":"way/288396477","owner:website":"https://citederriere.ch","owner:start_date":"1995-01-01T00:00:00Z","owner:swiss_business_uid":"CHE-104.327.245"},"geometry":{"type":"Polygon","coordinates":[[[6.2725668,46.4215443],[6.2728059,46.4213349],[6.2729751,46.4214267],[6.272736,46.4216361],[6.2725668,46.4215443]]]}},{"type":"Feature","id":"way/298178536","properties":{"addr:city":"Morges","addr:country":"CH","addr:housenumber":"36","addr:postcode":"1110","addr:street":"Avenue Ignace Paderewski","architect":"Ferrari Architectes","building":"sheltered_housing","building:flats":"13","building:levels":"4","heating":"gas","name":"Les Marinières","owner":"Coopérative Cité Derrière","owner:type":"cooperative","owner:wikidata":"Q131743050","rent:regulation":"yes","start_date":"2015-10-01T00:00:00.000Z","id":"way/298178536","owner:website":"https://citederriere.ch","owner:start_date":"1995-01-01T00:00:00Z","owner:swiss_business_uid":"CHE-104.327.245"},"geometry":{"type":"Polygon","coordinates":[[[6.4858565,46.5024631],[6.4859665,46.5024161],[6.4860237,46.5024795],[6.4860433,46.5024711],[6.4860965,46.50253],[6.4861226,46.5025188],[6.4861798,46.5025821],[6.4861968,46.5025748],[6.4862559,46.5026402],[6.4861218,46.5026976],[6.4860375,46.5026044],[6.485999,46.5026209],[6.4859139,46.5025267],[6.4858565,46.5024631]]]}},{"type":"Feature","id":"way/298180673","properties":{"addr:city":"Morges","addr:country":"CH","addr:housenumber":"34","addr:postcode":"1110","addr:street":"Avenue Ignace Paderewski","architect":"Ferrari Architectes","building":"apartments","building:flats":"13","building:levels":"4","heating":"gas","name":"Les Marinières","owner":"Coopérative Cité Derrière","owner:type":"cooperative","owner:wikidata":"Q131743050","rent:regulation":"yes","start_date":"2015-10-01T00:00:00.000Z","id":"way/298180673","owner:website":"https://citederriere.ch","owner:start_date":"1995-01-01T00:00:00Z","owner:swiss_business_uid":"CHE-104.327.245"},"geometry":{"type":"Polygon","coordinates":[[[6.486269,46.502791],[6.4862881,46.5028117],[6.4863563,46.5027819],[6.4864057,46.5028352],[6.4864265,46.5028261],[6.4864823,46.5028865],[6.4865457,46.5029551],[6.486413,46.5030132],[6.486356,46.5029516],[6.4863183,46.5029682],[6.4861875,46.5028267],[6.486269,46.502791]]]}},{"type":"Feature","id":"way/308983618","properties":{"addr:city":"Lausanne","addr:housenumber":"190c","addr:postcode":"1000","addr:street":"Route du Jorat","architect":"Thibaud-Zingg Architectes","building":"sheltered_housing","building:levels":"3","heating":"pellet","owner":"Coopérative Cité Derrière","owner:type":"cooperative","owner:wikidata":"Q131743050","source":"Orthophoto Ville de Lausanne 2012","start_date":"2011-10-01T00:00:00.000Z","id":"way/308983618","owner:website":"https://citederriere.ch","owner:start_date":"1995-01-01T00:00:00Z","owner:swiss_business_uid":"CHE-104.327.245"},"geometry":{"type":"Polygon","coordinates":[[[6.6983719,46.5611606],[6.6984622,46.5610582],[6.6985581,46.5609494],[6.698692,46.5610053],[6.6985058,46.5612164],[6.6983719,46.5611606]]]}},{"type":"Feature","id":"way/308983622","properties":{"addr:city":"Lausanne","addr:housenumber":"190a","addr:postcode":"1000","addr:street":"Route du Jorat","architect":"Thibaud-Zingg Architectes","building":"sheltered_housing","building:levels":"3","heating":"pellet","owner":"Coopérative Cité Derrière","owner:type":"cooperative","owner:wikidata":"Q131743050","source":"Orthophoto Ville de Lausanne 2012","start_date":"2011-10-01T00:00:00.000Z","id":"way/308983622","owner:website":"https://citederriere.ch","owner:start_date":"1995-01-01T00:00:00Z","owner:swiss_business_uid":"CHE-104.327.245"},"geometry":{"type":"Polygon","coordinates":[[[6.6979532,46.5612168],[6.6980708,46.5610834],[6.6981394,46.5610056],[6.6982733,46.5610615],[6.6980871,46.5612726],[6.6979532,46.5612168]]]}},{"type":"Feature","id":"way/308983648","properties":{"addr:city":"Lausanne","addr:housenumber":"190d","addr:postcode":"1000","addr:street":"Route du Jorat","architect":"Thibaud-Zingg Architectes","building":"sheltered_housing","building:levels":"3","heating":"pellet","owner":"Coopérative Cité Derrière","owner:type":"cooperative","owner:wikidata":"Q131743050","source":"Orthophoto Ville de Lausanne 2012","start_date":"2011-10-01T00:00:00.000Z","id":"way/308983648","owner:website":"https://citederriere.ch","owner:start_date":"1995-01-01T00:00:00Z","owner:swiss_business_uid":"CHE-104.327.245"},"geometry":{"type":"Polygon","coordinates":[[[6.6982402,46.5608734],[6.6983295,46.5607722],[6.6984264,46.5606622],[6.6985603,46.5607181],[6.6983741,46.5609292],[6.6982402,46.5608734]]]}},{"type":"Feature","id":"way/308983650","properties":{"addr:city":"Lausanne","addr:housenumber":"190g","addr:postcode":"1000","addr:street":"Route du Jorat","architect":"Thibaud-Zingg Architectes","building":"sheltered_housing","building:levels":"3","heating":"pellet","owner":"Coopérative Cité Derrière","owner:type":"cooperative","owner:wikidata":"Q131743050","source":"Orthophoto Ville de Lausanne 2012","start_date":"2011-10-01T00:00:00.000Z","id":"way/308983650","owner:website":"https://citederriere.ch","owner:start_date":"1995-01-01T00:00:00Z","owner:swiss_business_uid":"CHE-104.327.245"},"geometry":{"type":"Polygon","coordinates":[[[6.6985411,46.5605311],[6.6986272,46.5604335],[6.6987273,46.56032],[6.6988612,46.5603758],[6.698675,46.5605869],[6.6985411,46.5605311]]]}},{"type":"Feature","id":"way/308983655","properties":{"addr:city":"Lausanne","addr:housenumber":"190f","addr:postcode":"1000","addr:street":"Route du Jorat","architect":"Thibaud-Zingg Architectes","building":"sheltered_housing","building:levels":"3","heating":"pellet","owner":"Coopérative Cité Derrière","owner:type":"cooperative","owner:wikidata":"Q131743050","source":"Orthophoto Ville de Lausanne 2012","start_date":"2011-10-01T00:00:00.000Z","id":"way/308983655","owner:website":"https://citederriere.ch","owner:start_date":"1995-01-01T00:00:00Z","owner:swiss_business_uid":"CHE-104.327.245"},"geometry":{"type":"Polygon","coordinates":[[[6.6986658,46.560816],[6.6987543,46.5607157],[6.698852,46.5606048],[6.6989859,46.5606606],[6.6987997,46.5608718],[6.6986658,46.560816]]]}},{"type":"Feature","id":"way/308983657","properties":{"addr:city":"Lausanne","addr:housenumber":"190e","addr:postcode":"1000","addr:street":"Route du Jorat","architect":"Thibaud-Zingg Architectes","building":"sheltered_housing","building:levels":"3","heating":"pellet","owner":"Coopérative Cité Derrière","owner:type":"cooperative","owner:wikidata":"Q131743050","source":"Orthophoto Ville de Lausanne 2012","start_date":"2011-10-01T00:00:00.000Z","id":"way/308983657","owner:website":"https://citederriere.ch","owner:start_date":"1995-01-01T00:00:00Z","owner:swiss_business_uid":"CHE-104.327.245"},"geometry":{"type":"Polygon","coordinates":[[[6.6979325,46.5606057],[6.6981188,46.5603945],[6.6982527,46.5604504],[6.6981596,46.5605558],[6.6980664,46.5606615],[6.6979325,46.5606057]]]}},{"type":"Feature","id":"way/308983673","properties":{"addr:city":"Lausanne","addr:housenumber":"190h","addr:postcode":"1000","addr:street":"Route du Jorat","architect":"Thibaud-Zingg Architectes","building":"sheltered_housing","building:levels":"3","heating":"pellet","owner":"Coopérative Cité Derrière","owner:type":"cooperative","owner:wikidata":"Q131743050","source":"Orthophoto Ville de Lausanne 2012","start_date":"2011-10-01T00:00:00.000Z","id":"way/308983673","owner:website":"https://citederriere.ch","owner:start_date":"1995-01-01T00:00:00Z","owner:swiss_business_uid":"CHE-104.327.245"},"geometry":{"type":"Polygon","coordinates":[[[6.698254,46.5602276],[6.6984402,46.5600165],[6.6985741,46.5600723],[6.6984791,46.56018],[6.6983879,46.5602834],[6.698254,46.5602276]]]}},{"type":"Feature","id":"way/308983677","properties":{"addr:city":"Lausanne","addr:housenumber":"190b","addr:postcode":"1000","addr:street":"Route du Jorat","architect":"Thibaud-Zingg Architectes","building":"sheltered_housing","building:levels":"3","heating":"pellet","owner":"Coopérative Cité Derrière","owner:type":"cooperative","owner:wikidata":"Q131743050","source":"Orthophoto Ville de Lausanne 2012","start_date":"2011-10-01T00:00:00.000Z","id":"way/308983677","owner:website":"https://citederriere.ch","owner:start_date":"1995-01-01T00:00:00Z","owner:swiss_business_uid":"CHE-104.327.245"},"geometry":{"type":"Polygon","coordinates":[[[6.6976079,46.5609674],[6.6977941,46.5607563],[6.697928,46.5608121],[6.6978296,46.5609237],[6.6977418,46.5610232],[6.6976079,46.5609674]]]}},{"type":"Feature","id":"way/319329796","properties":{"addr:city":"Lausanne","addr:housenumber":"57","addr:postcode":"1012","addr:street":"Avenue Victor-Ruffy","architect":"Bonhôte et Zapata","building":"apartments","building:colour":"#eecfaf","building:flats":"16","building:levels":"5","heating":"district_heating","owner":"Coopérative Cité Derrière","owner:type":"cooperative","owner:wikidata":"Q131743050","rent:regulation":"yes","roof:levels":"0","roof:shape":"flat","start_date":"2010-01-01T00:00:00.000Z","id":"way/319329796","owner:website":"https://citederriere.ch","owner:start_date":"1995-01-01T00:00:00Z","owner:swiss_business_uid":"CHE-104.327.245"},"geometry":{"type":"Polygon","coordinates":[[[6.6480539,46.5308033],[6.6480883,46.5305553],[6.6483244,46.5305708],[6.6482899,46.5308188],[6.6480539,46.5308033]]]}},{"type":"Feature","id":"way/319329797","properties":{"addr:city":"Lausanne","addr:housenumber":"61","addr:postcode":"1012","addr:street":"Avenue Victor-Ruffy","architect":"Bonhôte et Zapata","building":"apartments","building:flats":"16","building:levels":"6","heating":"district_heating","owner":"Coopérative Cité Derrière","owner:type":"cooperative","owner:wikidata":"Q131743050","rent:regulation":"yes","roof:levels":"0","start_date":"2010-01-01T00:00:00.000Z","id":"way/319329797","owner:website":"https://citederriere.ch","owner:start_date":"1995-01-01T00:00:00Z","owner:swiss_business_uid":"CHE-104.327.245"},"geometry":{"type":"Polygon","coordinates":[[[6.6476432,46.5309044],[6.6476448,46.5306637],[6.6478822,46.5306645],[6.6478806,46.5309052],[6.6476432,46.5309044]]]}},{"type":"Feature","id":"way/319329798","properties":{"addr:city":"Lausanne","addr:housenumber":"59","addr:postcode":"1012","addr:street":"Avenue Victor-Ruffy","architect":"Bonhôte et Zapata","building":"apartments","building:colour":"#eecfaf","building:flats":"16","building:levels":"5","heating":"district_heating","owner":"Coopérative Cité Derrière","owner:type":"cooperative","owner:wikidata":"Q131743050","rent:regulation":"yes","roof:levels":"0","roof:shape":"flat","start_date":"2010-01-01T00:00:00.000Z","id":"way/319329798","owner:website":"https://citederriere.ch","owner:start_date":"1995-01-01T00:00:00Z","owner:swiss_business_uid":"CHE-104.327.245"},"geometry":{"type":"Polygon","coordinates":[[[6.6480638,46.5311343],[6.6480523,46.530911],[6.6482761,46.5309056],[6.6482876,46.5311288],[6.6480638,46.5311343]]]}},{"type":"Feature","id":"way/319329799","properties":{"addr:city":"Lausanne","addr:housenumber":"63","addr:postcode":"1012","addr:street":"Avenue Victor-Ruffy","architect":"Bonhôte et Zapata","building":"apartments","building:flats":"16","building:levels":"6","heating":"district_heating","owner":"Coopérative Cité Derrière","owner:type":"cooperative","owner:wikidata":"Q131743050","rent:regulation":"yes","roof:levels":"0","start_date":"2010-01-01T00:00:00.000Z","id":"way/319329799","owner:website":"https://citederriere.ch","owner:start_date":"1995-01-01T00:00:00Z","owner:swiss_business_uid":"CHE-104.327.245"},"geometry":{"type":"Polygon","coordinates":[[[6.6476732,46.5310182],[6.6478967,46.5310038],[6.6479282,46.5312349],[6.6477048,46.5312493],[6.6476732,46.5310182]]]}},{"type":"Feature","id":"way/320183923","properties":{"addr:city":"Prangins","addr:housenumber":"5","addr:postcode":"1197","addr:street":"Route de Bénex-Dessus","architect":"2b architectes","building":"sheltered_housing","building:flats":"12","building:levels":"3","heating":"pellet","name":"Les Papillons","owner":"Coopérative Cité Derrière","owner:type":"cooperative","owner:wikidata":"Q131743050","roof:levels":"0","roof:shape":"flat","start_date":"2012-01-01T00:00:00.000Z","id":"way/320183923","owner:website":"https://citederriere.ch","owner:start_date":"1995-01-01T00:00:00Z","owner:swiss_business_uid":"CHE-104.327.245"},"geometry":{"type":"Polygon","coordinates":[[[6.2517204,46.400707],[6.2517425,46.4007731],[6.2517718,46.4008056],[6.25168,46.4008335],[6.2515424,46.4008366],[6.2513887,46.4008665],[6.2513332,46.400824],[6.2513209,46.4007563],[6.2515292,46.400739],[6.2517204,46.400707]]]}},{"type":"Feature","id":"way/330588936","properties":{"addr:city":"Morges","addr:housenumber":"6","addr:postcode":"1110","addr:street":"Avenue de Vertou","building":"sheltered_housing","building:levels":"4","name":"Parc de Beausobre","owner":"Coopérative Cité Derrière","owner:type":"cooperative","owner:wikidata":"Q131743050","social_facility":"assisted_living","id":"way/330588936","owner:website":"https://citederriere.ch","owner:start_date":"1995-01-01T00:00:00Z","owner:swiss_business_uid":"CHE-104.327.245"},"geometry":{"type":"Polygon","coordinates":[[[6.4979286,46.5159751],[6.4981304,46.5160938],[6.4979567,46.5162337],[6.4978182,46.5163474],[6.4976145,46.5162297],[6.4977261,46.5161382],[6.4977351,46.5161309],[6.4979286,46.5159751]]]}},{"type":"Feature","id":"way/331858107","properties":{"addr:city":"Grancy","addr:housenumber":"4","addr:postcode":"1117","addr:street":"La Ruelle","architect":"Diam SA","building":"apartments","heating":"heat_pump","owner":"Coopérative Cité Derrière","owner:type":"cooperative","owner:wikidata":"Q131743050","start_date":"2022-01-01T00:00:00.000Z","id":"way/331858107","owner:website":"https://citederriere.ch","owner:start_date":"1995-01-01T00:00:00Z","owner:swiss_business_uid":"CHE-104.327.245"},"geometry":{"type":"Polygon","coordinates":[[[6.4649259,46.59216],[6.4647713,46.5921287],[6.4647931,46.5920432],[6.4648491,46.5920467],[6.4648635,46.592],[6.4649851,46.5920395],[6.4649259,46.59216]]]}},{"type":"Feature","id":"way/342030408","properties":{"addr:city":"Gollion","addr:housenumber":"7","addr:postcode":"1124","addr:street":"Route de Vullierens","architect":"al30 architectes","building":"sheltered_housing","building:flats":"17","building:levels":"2","heating":"district_heating","owner":"Coopérative Cité Derrière","owner:type":"cooperative","owner:wikidata":"Q131743050","ref":"D","roof:levels":"2","start_date":"2013-01-01T00:00:00.000Z","id":"way/342030408","owner:website":"https://citederriere.ch","owner:start_date":"1995-01-01T00:00:00Z","owner:swiss_business_uid":"CHE-104.327.245"},"geometry":{"type":"Polygon","coordinates":[[[6.5069576,46.5832656],[6.5071381,46.5831896],[6.5072096,46.5832697],[6.5072899,46.5832359],[6.5074197,46.5833815],[6.5072169,46.5834669],[6.5071229,46.5833615],[6.5070649,46.583386],[6.5069576,46.5832656]]]}},{"type":"Feature","id":"way/343517159","properties":{"addr:city":"Lausanne","addr:housenumber":"38","addr:postcode":"1012","addr:street":"Chemin du Devin","architect":"Bonhôte - Zapata architectes","building":"apartments","building:flats":"3","building:levels":"3","heating":"district_heating","owner":"Coopérative Cité Derrière","owner:type":"cooperative","owner:wikidata":"Q131743050","rent:regulation":"yes","roof:levels":"0","roof:shape":"flat","start_date":"2012-09-01T00:00:00.000Z","id":"way/343517159","owner:website":"https://citederriere.ch","owner:start_date":"1995-01-01T00:00:00Z","owner:swiss_business_uid":"CHE-104.327.245"},"geometry":{"type":"Polygon","coordinates":[[[6.6526094,46.5307969],[6.6525135,46.5307365],[6.6525731,46.5306783],[6.6526951,46.5306389],[6.6527699,46.5307056],[6.6526998,46.53076],[6.6526094,46.5307969]]]}},{"type":"Feature","id":"way/388656592","properties":{"addr:city":"Lausanne","addr:country":"CH","addr:housenumber":"137","addr:postcode":"1004","addr:street":"Avenue de Morges","architect":"Fruehauf Henry & Viladoms","building":"apartments","building:flats":"22","building:levels":"7","copyright":"OpenAddresses","heating":"heat_pump","oa:imported_by":"sbrunner","oa:lat":"46.52618408","oa:lon":"6.61324406","oa:version":"oa2osm - 0.2 - sax","owner":"Coopérative Cité Derrière","owner:type":"cooperative","owner:wikidata":"Q131743050","roof:levels":"0","roof:shape":"flat","source":"Orthophoto Ville de Lausanne 2008","subsidized":"yes","id":"way/388656592","owner:website":"https://citederriere.ch","owner:start_date":"1995-01-01T00:00:00Z","owner:swiss_business_uid":"CHE-104.327.245"},"geometry":{"type":"Polygon","coordinates":[[[6.6138286,46.5260259],[6.6140751,46.5259665],[6.6140875,46.526197],[6.6137594,46.5262035],[6.6138286,46.5260259]]]}},{"type":"Feature","id":"way/388656593","properties":{"addr:city":"Lausanne","addr:country":"CH","addr:housenumber":"139","addr:postcode":"1004","addr:street":"Avenue de Morges","architect":"Fruehauf Henry & Viladoms","building":"sheltered_housing","building:flats":"36","building:levels":"7","copyright":"OpenAddresses","heating":"heat_pump","oa:imported_by":"sbrunner","oa:lat":"46.52618408","oa:lon":"6.61324406","oa:version":"oa2osm - 0.2 - sax","owner":"Coopérative Cité Derrière","owner:type":"cooperative","owner:wikidata":"Q131743050","roof:levels":"0","roof:shape":"flat","source":"Orthophoto Ville de Lausanne 2008","id":"way/388656593","owner:website":"https://citederriere.ch","owner:start_date":"1995-01-01T00:00:00Z","owner:swiss_business_uid":"CHE-104.327.245"},"geometry":{"type":"Polygon","coordinates":[[[6.6132114,46.5262088],[6.6131779,46.5261291],[6.6131733,46.5260088],[6.613569,46.5260703],[6.613649,46.5261992],[6.6132114,46.5262088]]]}},{"type":"Feature","id":"way/388656594","properties":{"addr:city":"Lausanne","addr:country":"CH","addr:housenumber":"6","addr:postcode":"1004","addr:street":"Rue Couchirard","architect":"Fruehauf Henry & Viladoms","building":"apartments","building:flats":"22","building:levels":"7","heating":"heat_pump","owner":"Coopérative Cité Derrière","owner:type":"cooperative","owner:wikidata":"Q131743050","rent:regulation":"yes","roof:levels":"0","roof:shape":"flat","id":"way/388656594","owner:website":"https://citederriere.ch","owner:start_date":"1995-01-01T00:00:00Z","owner:swiss_business_uid":"CHE-104.327.245"},"geometry":{"type":"Polygon","coordinates":[[[6.6140626,46.5256782],[6.614072,46.5258975],[6.6138209,46.525875],[6.6137408,46.5257172],[6.6140626,46.5256782]]]}},{"type":"Feature","id":"way/406015307","properties":{"architect":"Atelier Niv-O","building":"apartments","building:flats":"17","building:levels":"3","heating":"pellet","owner":"Coopérative Cité Derrière","owner:type":"cooperative","owner:wikidata":"Q131743050","rent:regulation":"yes","roof:levels":"0","start_date":"2015-09-01T00:00:00.000Z","addr":[{"addr:city":"Saint-Prex","addr:postcode":"1162","addr:street":"Chemin de la Scierie","addr:housenumber":"5"}],"id":"way/406015307","owner:website":"https://citederriere.ch","owner:start_date":"1995-01-01T00:00:00Z","owner:swiss_business_uid":"CHE-104.327.245"},"geometry":{"type":"Polygon","coordinates":[[[6.4448315,46.4765644],[6.4449563,46.4765958],[6.4446632,46.4771482],[6.4445383,46.4771167],[6.4448315,46.4765644]]]}},{"type":"Feature","id":"way/423199337","properties":{"building":"apartments","building:flats":"16","building:levels":"4","owner":"Coopérative Cité Derrière","owner:type":"cooperative","owner:wikidata":"Q131743050","rent:regulation":"yes","roof:levels":"0","roof:shape":"gabled","addr":[{"addr:city":"Tolochenaz","addr:postcode":"1131","addr:street":"Chemin des Noyers","addr:housenumber":"10"},{"addr:city":"Tolochenaz","addr:postcode":"1131","addr:street":"Chemin des Noyers","addr:housenumber":"12"}],"id":"way/423199337","owner:website":"https://citederriere.ch","owner:start_date":"1995-01-01T00:00:00Z","owner:swiss_business_uid":"CHE-104.327.245"},"geometry":{"type":"Polygon","coordinates":[[[6.4777748,46.4984092],[6.4779294,46.4982184],[6.4779439,46.498224],[6.4779612,46.4982022],[6.4780417,46.4982324],[6.4780313,46.4982453],[6.4780874,46.4982668],[6.4779207,46.4984725],[6.4778648,46.4984511],[6.477852,46.4984669],[6.4777837,46.4984406],[6.477801,46.4984193],[6.4777748,46.4984092]]]}},{"type":"Feature","id":"way/439111819","properties":{"addr:city":"Tolochenaz","addr:housenumber":"9","addr:postcode":"1131","addr:street":"Route de la Petite Caroline","building":"apartments","building:flats":"9","building:levels":"5","last_renovation":"2016-01-01T00:00:00.000Z","owner":"Coopérative Cité Derrière","owner:type":"cooperative","owner:wikidata":"Q131743050","rent:regulation":"yes","id":"way/439111819","owner:website":"https://citederriere.ch","owner:start_date":"1995-01-01T00:00:00Z","owner:swiss_business_uid":"CHE-104.327.245"},"geometry":{"type":"Polygon","coordinates":[[[6.4774982,46.4980902],[6.4775086,46.4980759],[6.4775751,46.4981031],[6.4774514,46.4982548],[6.4773881,46.4982297],[6.4773964,46.4982197],[6.4773018,46.4981825],[6.4774057,46.4980552],[6.4774982,46.4980902]]]}},{"type":"Feature","id":"way/457842209","properties":{"building":"apartments","building:flats":"41","building:levels":"5","owner":"Coopérative Cité Derrière","owner:type":"cooperative","owner:wikidata":"Q131743050","roof:shape":"flat","subsidized":"yes","addr":[{"addr:city":"Lausanne","addr:postcode":"1004","addr:street":"Rue Couchirard","addr:housenumber":"23"},{"addr:city":"Lausanne","addr:postcode":"1004","addr:street":"Rue Couchirard","addr:housenumber":"21"},{"addr:city":"Lausanne","addr:postcode":"1004","addr:street":"Rue Couchirard","addr:housenumber":"19"}],"id":"way/457842209","owner:website":"https://citederriere.ch","owner:start_date":"1995-01-01T00:00:00Z","owner:swiss_business_uid":"CHE-104.327.245"},"geometry":{"type":"Polygon","coordinates":[[[6.6128979,46.5268846],[6.6129699,46.5268826],[6.612975,46.5269718],[6.6129073,46.5269736],[6.6129128,46.5270703],[6.6129797,46.5270685],[6.6129845,46.5271519],[6.6129127,46.5271538],[6.6129164,46.5272184],[6.6127431,46.5272231],[6.6127315,46.5270206],[6.6127125,46.5266881],[6.6127091,46.5266296],[6.6128842,46.5266248],[6.6128881,46.5266919],[6.6129629,46.5266899],[6.612968,46.5267779],[6.6128919,46.52678],[6.6128979,46.5268846]]]}},{"type":"Feature","id":"way/626986178","properties":{"addr:city":"Le Sépey","addr:housenumber":"2C","addr:postcode":"1863","addr:street":"Chemin des Chenevières","architect":"2dlc Architectes partenaire","building":"apartments","building:flats":"8","building:levels":"3","heating":"woodchip","owner":"Coopérative Cité Derrière","owner:type":"cooperative","owner:wikidata":"Q131743050","rent:regulation":"yes","roof:levels":"0","roof:orientation":"along","roof:shape":"gabled","source":"Swiss Image 2023","start_date":"2014-01-01T00:00:00.000Z","id":"way/626986178","owner:website":"https://citederriere.ch","owner:start_date":"1995-01-01T00:00:00Z","owner:swiss_business_uid":"CHE-104.327.245"},"geometry":{"type":"Polygon","coordinates":[[[7.0513207,46.3603306],[7.0515488,46.3603019],[7.0515748,46.3604005],[7.0513467,46.3604291],[7.0513207,46.3603306]]]}},{"type":"Feature","id":"way/626986180","properties":{"addr:city":"Le Sépey","addr:housenumber":"2B","addr:postcode":"1863","addr:street":"Chemin des Chenevières","architect":"2dlc Architectes partenaire","building":"apartments","building:flats":"8","building:levels":"3","heating":"woodchip","owner":"Coopérative Cité Derrière","owner:type":"cooperative","owner:wikidata":"Q131743050","rent:regulation":"yes","roof:levels":"0","roof:orientation":"along","roof:shape":"gabled","source":"Swiss Image 2023","start_date":"2014-01-01T00:00:00.000Z","id":"way/626986180","owner:website":"https://citederriere.ch","owner:start_date":"1995-01-01T00:00:00Z","owner:swiss_business_uid":"CHE-104.327.245"},"geometry":{"type":"Polygon","coordinates":[[[7.0511882,46.3603246],[7.0512532,46.3604169],[7.0510456,46.3604865],[7.0509807,46.3603941],[7.0511882,46.3603246]]]}},{"type":"Feature","id":"way/626986181","properties":{"addr:city":"Le Sépey","addr:housenumber":"2A","addr:postcode":"1863","addr:street":"Chemin des Chenevières","architect":"2dlc Architectes partenaire","building":"apartments","building:flats":"8","building:levels":"3","heating":"woodchip","owner":"Coopérative Cité Derrière","owner:type":"cooperative","owner:wikidata":"Q131743050","rent:regulation":"yes","roof:levels":"0","roof:orientation":"along","roof:shape":"gabled","source":"Swiss Image 2023","start_date":"2014-01-01T00:00:00.000Z","id":"way/626986181","owner:website":"https://citederriere.ch","owner:start_date":"1995-01-01T00:00:00Z","owner:swiss_business_uid":"CHE-104.327.245"},"geometry":{"type":"Polygon","coordinates":[[[7.0508575,46.3604194],[7.0509573,46.360495],[7.0507889,46.3606009],[7.0506891,46.3605253],[7.0508575,46.3604194]]]}},{"type":"Feature","id":"way/657436775","properties":{"architect":"Aeby Perneger & Associés SA","building":"sheltered_housing","building:flats":"28","building:levels":"5","height":"25","owner":"Coopérative Cité Derrière","owner:type":"cooperative","owner:wikidata":"Q131743050","rent:regulation":"yes","addr":[{"addr:city":"Morges","addr:postcode":"1110","addr:street":"Rue du Sablon","addr:housenumber":"12"},{"addr:city":"Morges","addr:postcode":"1110","addr:street":"Rue du Sablon","addr:housenumber":"14"}],"id":"way/657436775","owner:website":"https://citederriere.ch","owner:start_date":"1995-01-01T00:00:00Z","owner:swiss_business_uid":"CHE-104.327.245"},"geometry":{"type":"Polygon","coordinates":[[[6.4965182,46.51163],[6.4963461,46.5117024],[6.496109,46.5114425],[6.4960691,46.5113987],[6.4957194,46.5111741],[6.4958589,46.511075],[6.4959759,46.5111572],[6.4961425,46.5112696],[6.4962103,46.5113126],[6.4965182,46.51163]]]}},{"type":"Feature","id":"way/709577020","properties":{"architect":"FT Concept","building":"apartments","building:flats":"16","building:levels":"2","heating":"gas","name":"Résidence Le Grenet","owner":"Coopérative Cité Derrière","owner:type":"cooperative","owner:wikidata":"Q131743050","roof:levels":"1","roof:shape":"gabled","start_date":"2013-01-01T00:00:00.000Z","subsidized":"yes","addr":[{"addr:city":"Châtillens","addr:postcode":"1610","addr:street":"Place de la Gare","addr:housenumber":"5"},{"addr:city":"Châtillens","addr:postcode":"1610","addr:street":"Place de la Gare","addr:housenumber":"7"}],"id":"way/709577020","owner:website":"https://citederriere.ch","owner:start_date":"1995-01-01T00:00:00Z","owner:swiss_business_uid":"CHE-104.327.245"},"geometry":{"type":"Polygon","coordinates":[[[6.8139885,46.5701579],[6.8139885,46.5700214],[6.8143211,46.570027],[6.8146564,46.5700768],[6.8146,46.5702151],[6.814348,46.5701786],[6.8142943,46.5701708],[6.8141567,46.570165],[6.8139885,46.5701579]]]}},{"type":"Feature","id":"way/712287141","properties":{"addr:city":"Arnex-sur-Nyon","addr:housenumber":"8","addr:postcode":"1277","addr:street":"Le Viez","building":"apartments","building:levels":"2","owner":"Coopérative Cité Derrière","owner:type":"cooperative","owner:wikidata":"Q131743050","roof:levels":"1","roof:shape":"gabled","id":"way/712287141","owner:website":"https://citederriere.ch","owner:start_date":"1995-01-01T00:00:00Z","owner:swiss_business_uid":"CHE-104.327.245"},"geometry":{"type":"Polygon","coordinates":[[[6.1924436,46.3744958],[6.1923621,46.3743945],[6.1926218,46.374295],[6.1927033,46.3743963],[6.1924436,46.3744958]]]}},{"type":"Feature","id":"way/712287143","properties":{"addr:city":"Arnex-sur-Nyon","addr:housenumber":"3","addr:postcode":"1277","addr:street":"Le Viez","building":"apartments","building:levels":"2","owner":"Coopérative Cité Derrière","owner:type":"cooperative","owner:wikidata":"Q131743050","roof:levels":"1","roof:shape":"gabled","id":"way/712287143","owner:website":"https://citederriere.ch","owner:start_date":"1995-01-01T00:00:00Z","owner:swiss_business_uid":"CHE-104.327.245"},"geometry":{"type":"Polygon","coordinates":[[[6.1924162,46.3748246],[6.1923285,46.3747163],[6.1925913,46.3746149],[6.192679,46.3747232],[6.1924162,46.3748246]]]}},{"type":"Feature","id":"way/712287144","properties":{"addr:city":"Arnex-sur-Nyon","addr:housenumber":"6","addr:postcode":"1277","addr:street":"Le Viez","building":"apartments","building:levels":"2","owner":"Coopérative Cité Derrière","owner:type":"cooperative","owner:wikidata":"Q131743050","roof:levels":"1","roof:shape":"gabled","id":"way/712287144","owner:website":"https://citederriere.ch","owner:start_date":"1995-01-01T00:00:00Z","owner:swiss_business_uid":"CHE-104.327.245"},"geometry":{"type":"Polygon","coordinates":[[[6.1920749,46.3745916],[6.1919894,46.3744883],[6.1922404,46.3743893],[6.192326,46.3744925],[6.1920749,46.3745916]]]}},{"type":"Feature","id":"way/712287145","properties":{"addr:city":"Arnex-sur-Nyon","addr:housenumber":"4","addr:postcode":"1277","addr:street":"Le Viez","building":"apartments","building:levels":"2","owner":"Coopérative Cité Derrière","owner:type":"cooperative","owner:wikidata":"Q131743050","roof:levels":"1","roof:shape":"gabled","id":"way/712287145","owner:website":"https://citederriere.ch","owner:start_date":"1995-01-01T00:00:00Z","owner:swiss_business_uid":"CHE-104.327.245"},"geometry":{"type":"Polygon","coordinates":[[[6.1916974,46.3746774],[6.1916118,46.3745735],[6.1918622,46.3744753],[6.1919478,46.3745792],[6.1916974,46.3746774]]]}},{"type":"Feature","id":"way/731266399","properties":{"addr:city":"Borex","addr:housenumber":"10","addr:postcode":"1277","addr:street":"Route de Crassier","architect":"AL30 architectes","building":"apartments","building:levels":"3","heating":"pellet","owner":"Coopérative Cité Derrière","owner:type":"cooperative","owner:wikidata":"Q131743050","rent:regulation":"yes","roof:levels":"1","roof:shape":"gabled","start_date":"2015-01-01T00:00:00.000Z","id":"way/731266399","owner:website":"https://citederriere.ch","owner:start_date":"1995-01-01T00:00:00Z","owner:swiss_business_uid":"CHE-104.327.245"},"geometry":{"type":"Polygon","coordinates":[[[6.1755701,46.3781599],[6.1758281,46.3779796],[6.1760078,46.3780704],[6.1757619,46.3782953],[6.1755701,46.3781599]]]}},{"type":"Feature","id":"way/731266400","properties":{"addr:city":"Borex","addr:housenumber":"8","addr:postcode":"1277","addr:street":"Route de Crassier","architect":"AL30 architectes","building":"apartments","building:levels":"3","heating":"pellet","owner":"Coopérative Cité Derrière","owner:type":"cooperative","owner:wikidata":"Q131743050","rent:regulation":"yes","roof:levels":"1","roof:shape":"gabled","start_date":"2015-01-01T00:00:00.000Z","id":"way/731266400","owner:website":"https://citederriere.ch","owner:start_date":"1995-01-01T00:00:00Z","owner:swiss_business_uid":"CHE-104.327.245"},"geometry":{"type":"Polygon","coordinates":[[[6.176024,46.3782006],[6.1762128,46.3780739],[6.176421,46.3782215],[6.1762899,46.3783445],[6.176024,46.3782006]]]}},{"type":"Feature","id":"way/731266401","properties":{"addr:city":"Borex","addr:housenumber":"4","addr:postcode":"1277","addr:street":"Route de Crassier","architect":"AL30 architectes","building":"apartments","building:levels":"3","heating":"pellet","owner":"Coopérative Cité Derrière","owner:type":"cooperative","owner:wikidata":"Q131743050","rent:regulation":"yes","roof:levels":"1","roof:shape":"gabled","start_date":"2015-01-01T00:00:00.000Z","id":"way/731266401","owner:website":"https://citederriere.ch","owner:start_date":"1995-01-01T00:00:00Z","owner:swiss_business_uid":"CHE-104.327.245"},"geometry":{"type":"Polygon","coordinates":[[[6.1764623,46.3783717],[6.1766244,46.3781676],[6.1768089,46.3782386],[6.176702,46.3784341],[6.1764623,46.3783717]]]}},{"type":"Feature","id":"way/731266402","properties":{"addr:city":"Borex","addr:housenumber":"6","addr:postcode":"1277","addr:street":"Route de Crassier","architect":"AL30 architectes","building":"apartments","building:levels":"3","heating":"pellet","owner":"Coopérative Cité Derrière","owner:type":"cooperative","owner:wikidata":"Q131743050","rent:regulation":"yes","roof:levels":"1","roof:shape":"gabled","start_date":"2015-01-01T00:00:00.000Z","id":"way/731266402","owner:website":"https://citederriere.ch","owner:start_date":"1995-01-01T00:00:00Z","owner:swiss_business_uid":"CHE-104.327.245"},"geometry":{"type":"Polygon","coordinates":[[[6.1765073,46.3779609],[6.1766641,46.3778114],[6.1769499,46.3779634],[6.1768479,46.3780888],[6.1765073,46.3779609]]]}},{"type":"Feature","id":"way/731266403","properties":{"addr:city":"Borex","addr:housenumber":"2","addr:postcode":"1277","addr:street":"Route de Crassier","architect":"AL30 architectes","building":"apartments","building:levels":"3","heating":"pellet","owner":"Coopérative Cité Derrière","owner:type":"cooperative","owner:wikidata":"Q131743050","rent:regulation":"yes","roof:levels":"1","roof:shape":"gabled","start_date":"2015-01-01T00:00:00.000Z","id":"way/731266403","owner:website":"https://citederriere.ch","owner:start_date":"1995-01-01T00:00:00Z","owner:swiss_business_uid":"CHE-104.327.245"},"geometry":{"type":"Polygon","coordinates":[[[6.1768761,46.3783743],[6.1770334,46.3782337],[6.1772795,46.3783625],[6.1771644,46.3784942],[6.1768761,46.3783743]]]}},{"type":"Feature","id":"way/771260420","properties":{"addr:city":"Begnins","addr:housenumber":"16","addr:postcode":"1268","addr:street":"Le Fort","building":"apartments","building:flats":"5","building:levels":"2","heating":"heat_pump","owner":"Coopérative Cité Derrière","owner:type":"cooperative","owner:wikidata":"Q131743050","rent:regulation":"yes","roof:levels":"1","roof:shape":"gabled","start_date":"2018-01-01T00:00:00.000Z","id":"way/771260420","owner:website":"https://citederriere.ch","owner:start_date":"1995-01-01T00:00:00Z","owner:swiss_business_uid":"CHE-104.327.245"},"geometry":{"type":"Polygon","coordinates":[[[6.2524489,46.4421574],[6.252531,46.4420567],[6.2527472,46.4421404],[6.252665,46.4422412],[6.2524489,46.4421574]]]}},{"type":"Feature","id":"way/771260421","properties":{"addr:city":"Begnins","addr:housenumber":"18","addr:postcode":"1268","addr:street":"Le Fort","building":"apartments","building:flats":"5","building:levels":"2","heating":"heat_pump","owner":"Coopérative Cité Derrière","owner:type":"cooperative","owner:wikidata":"Q131743050","rent:regulation":"yes","roof:levels":"1","roof:shape":"gabled","start_date":"2018-01-01T00:00:00.000Z","id":"way/771260421","owner:website":"https://citederriere.ch","owner:start_date":"1995-01-01T00:00:00Z","owner:swiss_business_uid":"CHE-104.327.245"},"geometry":{"type":"Polygon","coordinates":[[[6.2528104,46.4422947],[6.252894,46.4421916],[6.2531278,46.4422816],[6.2530442,46.4423847],[6.2528104,46.4422947]]]}},{"type":"Feature","id":"way/923959931","properties":{"addr:city":"Aigle","addr:housenumber":"4C","addr:postcode":"1860","addr:street":"Avenue des Glariers","architect":"Hans-Peter Sacher","building":"apartments","heating":"gas","owner":"Coopérative Cité Derrière","owner:type":"cooperative","owner:wikidata":"Q131743050","rent:regulation":"yes","subsidized":"yes","id":"way/923959931","owner:website":"https://citederriere.ch","owner:start_date":"1995-01-01T00:00:00Z","owner:swiss_business_uid":"CHE-104.327.245"},"geometry":{"type":"Polygon","coordinates":[[[6.9671117,46.3202617],[6.9669387,46.320322],[6.9668466,46.320142],[6.967023,46.3200965],[6.9671117,46.3202617]]]}},{"type":"Feature","id":"way/923959932","properties":{"addr:city":"Aigle","addr:housenumber":"4B","addr:postcode":"1860","addr:street":"Avenue des Glariers","architect":"Hans-Peter Sacher","building":"apartments","heating":"gas","owner":"Coopérative Cité Derrière","owner:type":"cooperative","owner:wikidata":"Q131743050","rent:regulation":"yes","start_date":"2017-01-01T00:00:00.000Z","subsidized":"yes","id":"way/923959932","owner:website":"https://citederriere.ch","owner:start_date":"1995-01-01T00:00:00Z","owner:swiss_business_uid":"CHE-104.327.245"},"geometry":{"type":"Polygon","coordinates":[[[6.9672683,46.3202083],[6.9671736,46.3200569],[6.9673786,46.3199958],[6.9674596,46.3201604],[6.9672683,46.3202083]]]}},{"type":"Feature","id":"way/962229370","properties":{"addr:city":"Aigle","addr:housenumber":"6","addr:postcode":"1860","addr:street":"Rue Krafft","building":"apartments","owner":"Coopérative Cité Derrière","owner:type":"cooperative","owner:wikidata":"Q131743050","source":"Swiss Image 2024 + GWR from http://qa.poole.ch/addresses/GWR/5401_all.geojson.zip","id":"way/962229370","owner:website":"https://citederriere.ch","owner:start_date":"1995-01-01T00:00:00Z","owner:swiss_business_uid":"CHE-104.327.245"},"geometry":{"type":"Polygon","coordinates":[[[6.9665977,46.3190373],[6.9665605,46.3188541],[6.9667459,46.3188752],[6.9667572,46.3190218],[6.9665977,46.3190373]]]}},{"type":"Feature","id":"way/962229371","properties":{"addr:city":"Aigle","addr:housenumber":"4","addr:postcode":"1860","addr:street":"Rue Krafft","building":"apartments","building:levels":"6","owner":"Coopérative Cité Derrière","owner:type":"cooperative","owner:wikidata":"Q131743050","source":"Swiss Image 2024 + GWR from http://qa.poole.ch/addresses/GWR/5401_all.geojson.zip","id":"way/962229371","owner:website":"https://citederriere.ch","owner:start_date":"1995-01-01T00:00:00Z","owner:swiss_business_uid":"CHE-104.327.245"},"geometry":{"type":"Polygon","coordinates":[[[6.9665605,46.3188541],[6.9666491,46.3187154],[6.966833,46.3187538],[6.9667459,46.3188752],[6.9665605,46.3188541]]]}},{"type":"Feature","id":"way/962229372","properties":{"addr:city":"Aigle","addr:housenumber":"2","addr:postcode":"1860","addr:street":"Rue Krafft","building":"apartments","building:levels":"7","owner":"Coopérative Cité Derrière","owner:type":"cooperative","owner:wikidata":"Q131743050","source":"Swiss Image 2024 + GWR from http://qa.poole.ch/addresses/GWR/5401_all.geojson.zip","id":"way/962229372","owner:website":"https://citederriere.ch","owner:start_date":"1995-01-01T00:00:00Z","owner:swiss_business_uid":"CHE-104.327.245"},"geometry":{"type":"Polygon","coordinates":[[[6.9666491,46.3187154],[6.9667017,46.3186003],[6.9669456,46.3186469],[6.9668797,46.3187629],[6.966833,46.3187538],[6.9666491,46.3187154]]]}},{"type":"Feature","id":"way/962229373","properties":{"addr:city":"Aigle","addr:housenumber":"6","addr:postcode":"1860","addr:street":"Rue de la Monneresse","building":"apartments","building:levels":"6","owner":"Coopérative Cité Derrière","owner:type":"cooperative","owner:wikidata":"Q131743050","id":"way/962229373","owner:website":"https://citederriere.ch","owner:start_date":"1995-01-01T00:00:00Z","owner:swiss_business_uid":"CHE-104.327.245"},"geometry":{"type":"Polygon","coordinates":[[[6.9668797,46.3187629],[6.9669456,46.3186469],[6.9671128,46.3187073],[6.9670493,46.3188238],[6.9668797,46.3187629]]]}},{"type":"Feature","id":"way/962229374","properties":{"building":"apartments","building:levels":"5","owner":"Coopérative Cité Derrière","owner:type":"cooperative","owner:wikidata":"Q131743050","addr":[{"addr:city":"Aigle","addr:postcode":"1860","addr:street":"Rue de la Monneresse","addr:housenumber":"4"},{"addr:city":"Aigle","addr:postcode":"1860","addr:street":"Rue de la Monneresse","addr:housenumber":"2"}],"id":"way/962229374","owner:website":"https://citederriere.ch","owner:start_date":"1995-01-01T00:00:00Z","owner:swiss_business_uid":"CHE-104.327.245"},"geometry":{"type":"Polygon","coordinates":[[[6.9670493,46.3188238],[6.9671128,46.3187073],[6.9672375,46.3187316],[6.9672742,46.3187387],[6.9673053,46.3187448],[6.9672272,46.3188575],[6.9670493,46.3188238]]]}},{"type":"Feature","id":"way/962229375","properties":{"building":"apartments","owner":"Coopérative Cité Derrière","owner:type":"cooperative","owner:wikidata":"Q131743050","id":"way/962229375","owner:website":"https://citederriere.ch","owner:start_date":"1995-01-01T00:00:00Z","owner:swiss_business_uid":"CHE-104.327.245"},"geometry":{"type":"Polygon","coordinates":[[[6.9672272,46.3188575],[6.9673053,46.3187448],[6.9675571,46.318867],[6.9674281,46.3189136],[6.9672272,46.3188575]]]}},{"type":"Feature","id":"way/962229376","properties":{"addr:city":"Aigle","addr:housenumber":"7","addr:postcode":"1860","addr:street":"Rue de la Monneresse","building":"apartments","building:levels":"3","owner":"Coopérative Cité Derrière","owner:type":"cooperative","owner:wikidata":"Q131743050","source":"Swiss Image 2024","id":"way/962229376","owner:website":"https://citederriere.ch","owner:start_date":"1995-01-01T00:00:00Z","owner:swiss_business_uid":"CHE-104.327.245"},"geometry":{"type":"Polygon","coordinates":[[[6.9668461,46.3184985],[6.9669243,46.3183889],[6.9671341,46.3184525],[6.967063,46.318578],[6.9668461,46.3184985]]]}},{"type":"Feature","id":"way/962229377","properties":{"addr:city":"Aigle","addr:housenumber":"5","addr:postcode":"1860","addr:street":"Rue de la Monneresse","building":"apartments","owner":"Coopérative Cité Derrière","owner:type":"cooperative","owner:wikidata":"Q131743050","source":"Swiss Image 2024","id":"way/962229377","owner:website":"https://citederriere.ch","owner:start_date":"1995-01-01T00:00:00Z","owner:swiss_business_uid":"CHE-104.327.245"},"geometry":{"type":"Polygon","coordinates":[[[6.967063,46.318578],[6.9671341,46.3184525],[6.9673681,46.3184988],[6.9672716,46.3186227],[6.967063,46.318578]]]}},{"type":"Feature","id":"way/962229378","properties":{"addr:city":"Aigle","addr:housenumber":"3","addr:postcode":"1860","addr:street":"Rue de la Monneresse","building":"apartments","building:levels":"5","owner":"Coopérative Cité Derrière","owner:type":"cooperative","owner:wikidata":"Q131743050","source":"Swiss Image 2024","id":"way/962229378","owner:website":"https://citederriere.ch","owner:start_date":"1995-01-01T00:00:00Z","owner:swiss_business_uid":"CHE-104.327.245"},"geometry":{"type":"Polygon","coordinates":[[[6.9672716,46.3186227],[6.9673681,46.3184988],[6.967518,46.3185727],[6.9675699,46.3185984],[6.9674682,46.3187169],[6.9672716,46.3186227]]]}},{"type":"Feature","id":"way/962229379","properties":{"addr:city":"Aigle","addr:housenumber":"1","addr:postcode":"1860","addr:street":"Rue de la Monneresse","building":"apartments","owner":"Coopérative Cité Derrière","owner:type":"cooperative","owner:wikidata":"Q131743050","source":"Swiss Image 2024","id":"way/962229379","owner:website":"https://citederriere.ch","owner:start_date":"1995-01-01T00:00:00Z","owner:swiss_business_uid":"CHE-104.327.245"},"geometry":{"type":"Polygon","coordinates":[[[6.9674682,46.3187169],[6.9675699,46.3185984],[6.9677617,46.3186735],[6.9676654,46.3187804],[6.9674682,46.3187169]]]}},{"type":"Feature","id":"way/962229380","properties":{"building":"apartments","owner":"Coopérative Cité Derrière","owner:type":"cooperative","owner:wikidata":"Q131743050","id":"way/962229380","owner:website":"https://citederriere.ch","owner:start_date":"1995-01-01T00:00:00Z","owner:swiss_business_uid":"CHE-104.327.245"},"geometry":{"type":"Polygon","coordinates":[[[6.9667572,46.3190218],[6.9667459,46.3188752],[6.966833,46.3187538],[6.9668797,46.3187629],[6.9670493,46.3188238],[6.9672272,46.3188575],[6.9674281,46.3189136],[6.9670668,46.3189508],[6.9667572,46.3190218]]]}},{"type":"Feature","id":"way/1000447087","properties":{"addr:city":"Moudon","addr:housenumber":"37","addr:postcode":"1510","addr:street":"Chemin du Château-Sec","architect":"Epure","building":"apartments","building:flats":"18","building:levels":"2","heating":"gas","owner":"Coopérative Cité Derrière","owner:type":"cooperative","owner:wikidata":"Q131743050","roof:levels":"2","roof:shape":"gabled","start_date":"2013-06-01T00:00:00.000Z","subsidized":"yes","id":"way/1000447087","owner:website":"https://citederriere.ch","owner:start_date":"1995-01-01T00:00:00Z","owner:swiss_business_uid":"CHE-104.327.245"},"geometry":{"type":"Polygon","coordinates":[[[6.7945942,46.6658302],[6.7942996,46.6655915],[6.7944442,46.6655075],[6.7947387,46.6657462],[6.7945942,46.6658302]]]}},{"type":"Feature","id":"way/1032377766","properties":{"architect":"Tribu Architecture","building":"apartments","building:flats":"62","building:levels":"9","heating":"heat_pump","owner":"Coopérative Cité Derrière","owner:type":"cooperative","owner:wikidata":"Q131743050","start_date":"2022-01-01T00:00:00.000Z","subsidized":"yes","addr":[{"addr:city":"Lancy","addr:postcode":"1212","addr:street":"Chemin de l'Adret","addr:housenumber":"8"},{"addr:city":"Lancy","addr:postcode":"1212","addr:street":"Chemin de l'Adret","addr:housenumber":"10"},{"addr:city":"Lancy","addr:postcode":"1212","addr:street":"Chemin de l'Adret","addr:housenumber":"12"}],"id":"way/1032377766","owner:website":"https://citederriere.ch","owner:start_date":"1995-01-01T00:00:00Z","owner:swiss_business_uid":"CHE-104.327.245"},"geometry":{"type":"Polygon","coordinates":[[[6.1244883,46.1815659],[6.1244574,46.1821949],[6.1242559,46.1821902],[6.124261,46.182086],[6.1243491,46.1820881],[6.1243509,46.1820501],[6.1242642,46.182048],[6.1242716,46.1818962],[6.1243534,46.1818981],[6.1243555,46.1818557],[6.1242747,46.1818538],[6.1242801,46.1817439],[6.1243444,46.1817455],[6.1243533,46.1815628],[6.1244883,46.1815659]]]}},{"type":"Feature","id":"way/1057599170","properties":{"addr:city":"Senarclens","addr:housenumber":"11","addr:postcode":"1304","addr:street":"Chemin du Cinquantenaire","architect":"Batiline SA","building":"apartments","building:flats":"19","building:levels":"2","heating":"gas","owner":"Coopérative Cité Derrière","owner:type":"cooperative","owner:wikidata":"Q131743050","rent:regulation":"yes","roof:levels":"1","roof:shape":"half-hipped","start_date":"2017-09-01T00:00:00.000Z","id":"way/1057599170","owner:website":"https://citederriere.ch","owner:start_date":"1995-01-01T00:00:00Z","owner:swiss_business_uid":"CHE-104.327.245"},"geometry":{"type":"Polygon","coordinates":[[[6.4900332,46.6002598],[6.4899469,46.6001514],[6.4902277,46.6000458],[6.490314,46.6001541],[6.4900332,46.6002598]]]}},{"type":"Feature","id":"way/1218470298","properties":{"addr:city":"Arnex-sur-Nyon","addr:housenumber":"1","addr:postcode":"1277","addr:street":"Le Viez","building":"apartments","building:levels":"2","owner":"Coopérative Cité Derrière","owner:type":"cooperative","owner:wikidata":"Q131743050","roof:levels":"1","roof:shape":"gabled","id":"way/1218470298","owner:website":"https://citederriere.ch","owner:start_date":"1995-01-01T00:00:00Z","owner:swiss_business_uid":"CHE-104.327.245"},"geometry":{"type":"Polygon","coordinates":[[[6.1919284,46.3749631],[6.1918319,46.374841],[6.1921001,46.3747484],[6.1921859,46.3748632],[6.1919284,46.3749631]]]}},{"type":"Feature","id":"way/1231417527","properties":{"building":"sheltered_housing","building:flats":"87","building:levels":"7","name":"Les Peupliers","owner":"Coopérative Cité Derrière","owner:type":"cooperative","owner:wikidata":"Q131743050","roof:levels":"0","roof:shape":"flat","start_date":"2023-01-01T00:00:00.000Z","subsidized":"yes","addr":[{"addr:city":"Lausanne","addr:postcode":"1018","addr:street":"Rue Elisabeth-Jeanne-de-Cerjat","addr:housenumber":"18"},{"addr:city":"Lausanne","addr:postcode":"1018","addr:street":"Rue Elisabeth-Jeanne-de-Cerjat","addr:housenumber":"14"},{"addr:city":"Lausanne","addr:postcode":"1018","addr:street":"Rue Elisabeth-Jeanne-de-Cerjat","addr:housenumber":"16"},{"addr:city":"Lausanne","addr:postcode":"1018","addr:street":"Rue Elisabeth-Jeanne-de-Cerjat","addr:housenumber":"12"},{"addr:city":"Lausanne","addr:postcode":"1018","addr:street":"Rue Elisabeth-Jeanne-de-Cerjat","addr:housenumber":"6"},{"addr:city":"Lausanne","addr:postcode":"1018","addr:street":"Rue Elisabeth-Jeanne-de-Cerjat","addr:housenumber":"8"},{"addr:city":"Lausanne","addr:postcode":"1018","addr:street":"Rue Elisabeth-Jeanne-de-Cerjat","addr:housenumber":"10"}],"id":"way/1231417527","owner:website":"https://citederriere.ch","owner:start_date":"1995-01-01T00:00:00Z","owner:swiss_business_uid":"CHE-104.327.245"},"geometry":{"type":"Polygon","coordinates":[[[6.6193815,46.5407574],[6.6193696,46.5407715],[6.6191342,46.5406868],[6.6191448,46.5406681],[6.6189886,46.5406183],[6.61896,46.540655],[6.6184871,46.5405002],[6.6185631,46.540391],[6.6185435,46.5403863],[6.6186339,46.5402539],[6.6186466,46.5402591],[6.6187064,46.5401744],[6.618895,46.5402376],[6.6188411,46.5403207],[6.6188532,46.5403229],[6.6187776,46.5404302],[6.6187963,46.5404355],[6.6187795,46.5404635],[6.6189634,46.5405262],[6.6189885,46.5404946],[6.6190234,46.5405054],[6.6190895,46.5404064],[6.6191043,46.5404096],[6.6191589,46.5403223],[6.6193565,46.5403847],[6.6192973,46.5404727],[6.6193213,46.5404801],[6.6192494,46.5405925],[6.6194385,46.5406593],[6.6193815,46.5407574]]]}},{"type":"Feature","id":"way/1248804664","properties":{"architect":"al30 architectes","building":"apartments","building:flats":"15","building:levels":"2","heating":"district_heating","owner":"Coopérative Cité Derrière","owner:type":"cooperative","owner:wikidata":"Q131743050","roof:levels":"2","start_date":"2013-01-01T00:00:00.000Z","addr":[{"addr:city":"Gollion","addr:postcode":"1124","addr:street":"Rue des Cordeires","addr:housenumber":"18a"},{"addr:city":"Gollion","addr:postcode":"1124","addr:street":"Rue des Cordeires","addr:housenumber":"18b"},{"addr:city":"Gollion","addr:postcode":"1124","addr:street":"Rue des Cordeires","addr:housenumber":"18c"}],"id":"way/1248804664","owner:website":"https://citederriere.ch","owner:start_date":"1995-01-01T00:00:00Z","owner:swiss_business_uid":"CHE-104.327.245"},"geometry":{"type":"Polygon","coordinates":[[[6.5081153,46.5839383],[6.507995,46.5838495],[6.5078979,46.5839116],[6.5077277,46.5837861],[6.5079073,46.5836711],[6.5080306,46.5837621],[6.508108,46.5837125],[6.5082752,46.5838359],[6.5081153,46.5839383]]]}},{"type":"Feature","id":"way/1248804665","properties":{"architect":"al30 architectes","building":"apartments","building:flats":"8","building:levels":"2","heating":"district_heating","owner":"Coopérative Cité Derrière","owner:type":"cooperative","owner:wikidata":"Q131743050","rent:regulation":"yes","roof:levels":"2","start_date":"2013-01-01T00:00:00.000Z","addr":[{"addr:city":"Gollion","addr:postcode":"1124","addr:street":"Rue des Cordeires","addr:housenumber":"16a"},{"addr:city":"Gollion","addr:postcode":"1124","addr:street":"Rue des Cordeires","addr:housenumber":"16b"}],"id":"way/1248804665","owner:website":"https://citederriere.ch","owner:start_date":"1995-01-01T00:00:00Z","owner:swiss_business_uid":"CHE-104.327.245"},"geometry":{"type":"Polygon","coordinates":[[[6.5081898,46.5842033],[6.5080275,46.5840823],[6.5081998,46.5839731],[6.5083621,46.5840941],[6.5081898,46.5842033]]]}},{"type":"Feature","id":"way/1248804666","properties":{"architect":"al30 architectes","building":"apartments","building:flats":"15","building:levels":"2","heating":"district_heating","owner":"Coopérative Cité Derrière","owner:type":"cooperative","owner:wikidata":"Q131743050","roof:levels":"2","start_date":"2013-01-01T00:00:00.000Z","addr":[{"addr:city":"Gollion","addr:postcode":"1124","addr:street":"Rue des Cordeires","addr:housenumber":"20a"},{"addr:city":"Gollion","addr:postcode":"1124","addr:street":"Rue des Cordeires","addr:housenumber":"20b"},{"addr:city":"Gollion","addr:postcode":"1124","addr:street":"Rue des Cordeires","addr:housenumber":"20c"}],"id":"way/1248804666","owner:website":"https://citederriere.ch","owner:start_date":"1995-01-01T00:00:00Z","owner:swiss_business_uid":"CHE-104.327.245"},"geometry":{"type":"Polygon","coordinates":[[[6.5078093,46.5835851],[6.5076786,46.5834404],[6.5077961,46.5833903],[6.507704,46.5832884],[6.5078805,46.583213],[6.5080056,46.5833515],[6.5079195,46.5833882],[6.5080172,46.5834964],[6.5078093,46.5835851]]]}},{"type":"Feature","id":"way/1268697778","properties":{"architect":"Diam SA","building":"apartments","heating":"heat_pump","owner":"Coopérative Cité Derrière","owner:type":"cooperative","owner:wikidata":"Q131743050","start_date":"2022-01-01T00:00:00.000Z","addr":[{"addr:city":"Grancy","addr:postcode":"1117","addr:street":"La Ruelle","addr:housenumber":"8"}],"id":"way/1268697778","owner:website":"https://citederriere.ch","owner:start_date":"1995-01-01T00:00:00Z","owner:swiss_business_uid":"CHE-104.327.245"},"geometry":{"type":"Polygon","coordinates":[[[6.4645763,46.5920326],[6.4645936,46.591925],[6.4646708,46.5918482],[6.464684,46.5917993],[6.4648863,46.5918272],[6.4648517,46.5919257],[6.4647542,46.5919152],[6.4646932,46.5920556],[6.4645763,46.5920326]]]}}]}