{
  "type": "FeatureCollection",
  "features": [
    {
      "type": "Feature",
      "id": "way/80029457",
      "properties": {
        "architect": "Schlunegger & Vallat",
        "building": "apartments",
        "building:flats": "10",
        "owner": "Coprolo Croix-de-Rozon",
        "owner:type": "cooperative",
        "owner:wikidata": "Q133461743",
        "source": "SITG - Etat Gen√®ve - Orthophotos",
        "start_date": "1979",
        "addr": [
          {
            "addr:city": "La Croix-de-Rozon",
            "addr:postcode": "1257",
            "addr:street": "Route du Pont-de-la-Fin",
            "addr:housenumber": "9"
          },
          {
            "addr:city": "La Croix-de-Rozon",
            "addr:postcode": "1257",
            "addr:street": "Route du Pont-de-la-Fin",
            "addr:housenumber": "11"
          }
        ],
        "id": "way/80029457",
        "start_date_parsed": "1979-01-01T00:00:00.000Z",
        "owner:website": "https://coprolo.ch/cooperatives/coprolo-croix-de-rozon",
        "owner:swiss_business_uid": "CHE-102.223.600"
      },
      "geometry": {
        "type": "Polygon",
        "coordinates": [
          [
            [
              6.1378804,
              46.14428
            ],
            [
              6.1381478,
              46.1444215
            ],
            [
              6.1380218,
              46.1445365
            ],
            [
              6.1377544,
              46.1443951
            ],
            [
              6.1378804,
              46.14428
            ]
          ]
        ]
      }
    }
  ]
}