{"type":"FeatureCollection","features": [{"type":"Feature","id":"way/372798226","properties":{"addr:city":"Vevey","addr:country":"CH","addr:housenumber":"18","addr:postcode":"1800","addr:street":"Rue du Collège","building":"apartments","last_renovation":"2008-01-01T00:00:00.000Z","owner":"Coopérative la Valsainte","owner:type":"cooperative","owner:wikidata":"Q133282419","source":"Orthophoto Cartoriviera 2012","id":"way/372798226","owner:website":"https://www.cooperativevalsainte.ch/","owner:swiss_business_uid":"CHE-103.552.354"},"geometry":{"type":"Polygon","coordinates":[[[6.8491245,46.4590227],[6.8490306,46.4590619],[6.84899,46.4589731],[6.8490246,46.4589665],[6.849008,46.4589298],[6.8489748,46.458939],[6.8489185,46.4588265],[6.8490204,46.4588104],[6.8490817,46.4589468],[6.8491245,46.4590227]]]}},{"type":"Feature","id":"way/372798230","properties":{"addr:city":"Vevey","addr:country":"CH","addr:housenumber":"16","addr:postcode":"1800","addr:street":"Rue du Collège","building":"apartments","last_renovation":"2008-01-01T00:00:00.000Z","owner":"Coopérative la Valsainte","owner:type":"cooperative","owner:wikidata":"Q133282419","source":"Orthophoto Cartoriviera 2012","id":"way/372798230","owner:website":"https://www.cooperativevalsainte.ch/","owner:swiss_business_uid":"CHE-103.552.354"},"geometry":{"type":"Polygon","coordinates":[[[6.8491245,46.4590227],[6.8490817,46.4589468],[6.8491732,46.4589207],[6.8490906,46.4588017],[6.8491439,46.4587873],[6.8492098,46.4588813],[6.8492736,46.4589759],[6.8491245,46.4590227]]]}}]}